2001/11/05 09:45
KTNB 050945Z AUTO 31013G18KT 10SM CLR 10/01 A3014 RMK AO2

2001/11/05 09:45
KLGC 050945Z AUTO 31004KT 10SM CLR 06/03 A3014 RMK A01 P000

2001/11/05 09:45
KCTZ 050945Z AUTO 00000KT 10SM CLR 07/05 A3006 RMK AO2

2001/11/05 09:47
KMWK 050947Z AUTO 00000KT 10SM CLR 06/02 A3011 RMK AO2

2001/11/05 09:45
KAAO 050945Z AUTO 00000KT 1/4SM FG VV002 08/08 A3028 RMK AO2

2001/11/05 09:45
KIML 050945Z AUTO 25003KT 1/2SM FG VV001 04/ A3019 RMK AO2 $

2001/11/05 09:45
KPNC 050945Z AUTO 00000KT 3/4SM BR VV002 10/10 A3028 RMK AO2

2001/11/05 09:45
KSMP 050945Z AUTO 25009G15KT 220V320 3SM -SN BKN005 BKN010 OVC016
     01/M33 A3001 RMK AO2 RAB0857E02UPB09E14FZRAB14E36SNB02E09B36
     P0002 TSNO $

2001/11/05 09:45
KSGF 050945Z 14003KT M1/4SM FG BKN001 BKN027 08/08 A3030 RMK
     AO2

2001/11/05 09:45
LYPR 050945Z 33001KT 2500 BR SKC 03/M02 Q1019 YLO NOSIG

2001/11/05 09:45
KOMH 050945Z AUTO 01007KT 10SM CLR 09/M02 A3013 RMK AO1

2001/11/05 09:46
KCSM 050946Z AUTO 24005KT 1/4SM FG VV001 11/10 A3031 RMK AO2 $

2001/11/05 09:46
KMWL 050946Z AUTO 00000KT 1/2SM FG VV001 13/13 A3026 RMK AO2 $

2001/11/05 09:47
KWLD 050947Z AUTO 00000KT 1/2SM FG VV001 09/09 A3030 RMK AO2

2001/11/05 09:46
KEMP 050946Z AUTO 22004KT 1 3/4SM BR CLR 08/08 A3029 RMK AO2 $

2001/11/05 09:47
KBOS 050947Z 28009KT 10SM OVC032 07/07 A2983 RMK AO2 $

2001/11/05 09:45
KSMP 050945Z AUTO 25009G15KT 220V320 3SM -SN BKN005 BKN010 OVC016
     01/M33 A3001 RMK AO2 RAB0857E02UPB09E14FZRAB14E36SNB02E09B36
     P0002 TSNO $

2001/11/05 09:47
KCQT 050947Z AUTO 00000KT 2SM BR FEW005 16/15 A2998 RMK AO2 SLP150
     T01610150 TSNO

2001/11/05 09:45
CYMH 050945Z AUTO 00000KT 7SM OVC016 05/03 A3008

2001/11/05 09:48
KP38 050948Z AUTO 00000KT 07/02 A3019 RMK AO2 SLP198 T00720017
     PWINO TSNO $

2001/11/05 09:45
MMMD 050945Z 00000KT 7SM SKC 20/19 A2988 RMK HZY

2001/11/05 09:45
MMUN 050945Z 31005KT 7SM BKN100 21/21 A2982 RMK 07090 ST

2001/11/05 09:45
CWRN 050945Z AUTO 04008KT 11/08 RMK AO1 SLP101 T01080080 58007

2001/11/05 09:47
EBFS 050947Z VRB03KT 9000 FEW013 SCT250 09/07 Q1025 BLU BLU TEMPO
WHT

2001/11/05 09:48
KJDN 050948Z AUTO 27006KT M02/M10 A2992 RMK AO2 SLP138 T10171100
     PWINO FZRANO TSNO

2001/11/05 09:49
K87Q 050949Z AUTO 18003KT 12/12 A3002 RMK AO2 SLP166 T01220122
     PWINO TSNO

2001/11/05 09:49
KDFW 050949Z 34006KT 1/4SM R17C/1000V1400FT FG BKN002 BKN006 14/14
     A3025 RMK AO2 TWR VIS 3 $

2001/11/05 09:46
CWBK 050946Z AUTO 05010KT 11/09 RMK AO1 SLP105 T01050093 56007

2001/11/05 09:47
CWZN 050947Z AUTO 09009KT 10/ RMK AO1 SLP135 T0097 51002

2001/11/05 09:50
KLAX 050950Z 08005KT 2SM BR SCT006 14/14 A2998 RMK AO2 SLP149 VIS
     SW-NW 1 1/2 T01440139

2001/11/05 09:50
KSAD 050950Z AUTO 10010KT 10SM CLR 21/07 A3011 RMK AO2 SLP149
     T02060072 TSNO

2001/11/05 09:50
KMYL 050950Z AUTO 00000KT 10SM CLR M02/M03 A3009 RMK AO2 SLP190
     T10221033 FZRANO TSNO

2001/11/05 09:51
KSAN 050951Z 03003KT 2 1/2SM BR SCT014 BKN040 17/17 A2996 RMK AO2
     RAE07 SLP146 P0001 T01720167

2001/11/05 09:51
KPWM 050951Z 32008KT 6SM -RA BR OVC040 06/06 A2980 RMK AO2 SLP090
     P0005 T00610056

2001/11/05 09:51
KERI 050951Z 01012KT 10SM SCT025 SCT040 OVC055 06/01 A3025 RMK AO2
     SLP245 T00560006

2001/11/05 09:51
KACT 050951Z 35004KT 5SM BR CLR 14/13 A3025 RMK AO2 SLP239
     T01440133

2001/11/05 09:51
KILG 050951Z AUTO 29010KT 10SM CLR 07/M01 A3006 RMK AO2 SLP180
     T00671006

2001/11/05 09:51
KAVX 050951Z AUTO 29008KT 10SM CLR 17/09 A3000 RMK AO2 SLP141
     T01670094

2001/11/05 09:51
KBGD 050951Z AUTO 22006KT 10SM OVC050 13/12 A3032 RMK AO2 SLP242
     T01330117

2001/11/05 09:51
KDAW 050951Z AUTO 32007KT 5SM -RA BR BKN028 OVC036 05/05 A2979 RMK
     AO2 SLP087 P0006 T00500050

2001/11/05 09:51
KHDO 050951Z AUTO 36006KT 10SM CLR 13/11 A3025 RMK AO2 SLP233
     T01330106 $

2001/11/05 09:51
KHUT 050951Z AUTO 00000KT 1/4SM FG BKN001 OVC011 07/07 A3028 RMK
     AO2 SLP242 T00670067 $

2001/11/05 09:51
KLGU 050951Z AUTO 00000KT 10SM BKN110 02/01 A3019 RMK AO2 SLP211
     T00170006

2001/11/05 09:51
KMPV 050951Z AUTO 28010KT 10SM BKN016 BKN020 OVC026 02/01 A2988
     RMK AO2 RAE01B28E40 SLP129 P0000 T00220011

2001/11/05 09:51
KOXR 050951Z AUTO 01005KT 3/4SM BR OVC001 14/14 A2997 RMK AO2
     SLP147 T01390139

2001/11/05 09:51
KSLK 050951Z AUTO 32009KT 300V010 2SM -SN BR SCT009 BKN014 OVC019
     00/M01 A2989 RMK AO2 SLP135 P0000 T00001006

2001/11/05 09:51
KSMO 050951Z 00000KT 1 1/4SM BR BKN004 15/14 A2998 RMK AO2 SLP150
     T01500144

2001/11/05 09:51
KVNY 050951Z 00000KT 3SM BR FEW010 13/12 A2998 RMK AO2 SLP146
     T01280117 $

2001/11/05 09:46
KTAZ 050946Z AUTO 08005KT 10SM CLR 06/00 A3033 RMK AO2

2001/11/05 09:46
KFEP 050946Z AUTO 00000KT 10SM CLR M01/M04 A3034 RMK AO2

2001/11/05 09:46
KAAA 050946Z AUTO 00000KT 10SM CLR 02/M02 A3034 RMK AO2

2001/11/05 09:51
KBAZ 050951Z AUTO 02006KT 10SM CLR 16/14 A3022 RMK AO2 SLP226
     T01560144 $

2001/11/05 09:52
KCFV 050952Z AUTO 00000KT 1 3/4SM BR OVC047 09/09 A3030 RMK AO2
     SLP258 T00940094

2001/11/05 09:52
KCKV 050952Z AUTO 04004KT 10SM CLR 11/06 A3024 RMK AO2 SLP239
     T01060056

2001/11/05 09:52
KEST 050952Z AUTO 17007KT 10SM CLR 02/00 A3024 RMK AO2 SLP244
     T00220000 $

2001/11/05 09:46
KGBG 050946Z AUTO 14003KT 10SM CLR 03/00 A3038 RMK AO2

2001/11/05 09:52
KMEB 050952Z AUTO 35006KT 10SM CLR 04/04 A3008 RMK AO2 SLP186
     T00390039

2001/11/05 09:52
KMWH 050952Z AUTO 18003KT 1SM BR OVC001 06/06 A2997 RMK AO2 SLP153
     T00610061 TSNO

2001/11/05 09:52
KOMA 050952Z 15005KT 10SM CLR 04/02 A3026 RMK AO2 SLP249
     T00390022

2001/11/05 09:52
KPPF 050952Z AUTO 00000KT 2 1/2SM BR CLR 10/09 A3029 RMK AO2
     SLP253 T01000094

2001/11/05 09:51
KJCT 050951Z AUTO 29003KT 8SM CLR 11/09 A3027 RMK AO2 SLP222
     T01060094 TSNO

2001/11/05 09:53
KSBM 050953Z AUTO 00000KT 10SM CLR M02/M03 A3037 RMK AO2 SLP291
     T10221028

2001/11/05 09:52
KTAN 050952Z AUTO 30004KT 10SM OVC038 06/05 A2981 RMK AO2 SLP094
     T00610050 $

2001/11/05 09:47
KLOT 050947Z AUTO 33003KT 10SM CLR 02/00 A3034 RMK AO1

2001/11/05 09:47
KPNT 050947Z AUTO 00000KT 10SM CLR 01/M01 A3036 RMK AO2

2001/11/05 09:53
KRAP 050953Z AUTO 11005KT 10SM CLR 06/M07 A3000 RMK AO2 SLP150
     T00561072

2001/11/05 09:52
KAFN 050952Z AUTO VRB06KT 10SM FEW021 SCT060 04/01 A2983 RMK AO2
     SLP113 T00440011

2001/11/05 09:52
KAQW 050952Z AUTO 25009KT 10SM OVC020 04/01 A2991 RMK AO2 SLP134
     T00390011

2001/11/05 09:45
KAXA 050945Z AUTO 17008KT 10SM CLR 06/02 A3026 RMK AO1

2001/11/05 09:53
KAZO 050953Z AUTO 00000KT 10SM CLR M01/M03 A3037 RMK AO2 SLP293
     T10111033

2001/11/05 09:52
KBLF 050952Z AUTO 00000KT 10SM FEW100 06/01 A3019 RMK AO2 SLP215
     T00560006

2001/11/05 09:52
KBML 050952Z AUTO 00000KT 1 1/4SM -SN BR FEW004 SCT008 OVC014
     00/00 A2982 RMK AO2 SLP109 P0007 T00000000

2001/11/05 09:53
KCAG 050953Z AUTO 00000KT 10SM BKN095 M02/M06 A3033 RMK AO2 SLP249
     T10221061 FZRANO

2001/11/05 09:45
KCCY 050945Z AUTO 14006KT 10SM CLR 04/M03 A3030 RMK AO1

2001/11/05 09:52
KCQX 050952Z AUTO 03005KT 10SM -RA BKN055 BKN075 OVC100 07/07
     A2978 RMK AO2 PRESFR SLP087 P0008 T00720067

2001/11/05 09:45
KDEH 050945Z AUTO 17005KT 10SM CLR 06/M03 A3032 RMK AO1

2001/11/05 09:53
KDEN 050953Z 23012KT 10SM CLR 07/M03 A3023 RMK AO2 SLP188
     T00721028 $

2001/11/05 09:53
KDPA 050953Z AUTO 00000KT 9SM CLR 00/M01 A3035 RMK AO2 SLP281
     T00001006 FZRANO TSNO $

2001/11/05 09:45
KEOK 050945Z AUTO 36001KT 10SM CLR 08/01 A3034 RMK AO1

2001/11/05 09:52
KEST 050952Z AUTO 17007KT 10SM CLR 02/00 A3024 RMK AO2 SLP244
     T00220000 $

2001/11/05 09:52
KFIT 050952Z AUTO 29007KT 10SM OVC060 06/03 A2984 RMK AO2 SLP106
     T00610033

2001/11/05 09:52
KGLS 050952Z AUTO 03010KT 10SM CLR 18/11 A3017 RMK AO2 SLP217
     T01780111

2001/11/05 09:53
KGSH 050953Z AUTO 36003KT 10SM CLR M03/M04 A3038 RMK AO2 SLP293
     T10281039 $

2001/11/05 09:52
KHIE 050952Z AUTO 22003KT 5SM RA BR OVC014 01/00 A2984 RMK AO2
     UPB20E35RAB35SNE20 SLP113 P0006 T00060000

2001/11/05 09:45
KICL 050945Z AUTO 00000KT 10SM CLR 03/02 A3028 RMK AO1

2001/11/05 09:52
KIEN 050952Z AUTO 22006KT 10SM CLR 08/M01 A3007 RMK AO2 SLP167
     T00781011

2001/11/05 09:52
KIJD 050952Z AUTO 28004KT 10SM CLR 06/04 A2987 RMK AO2 SLP117
     T00560039

2001/11/05 09:53
KIML 050953Z AUTO 25003KT 3/4SM BR CLR 04/ A3018 RMK AO2 SLP218
     T0039 $

2001/11/05 09:53
KLHX 050953Z AUTO 27009KT 10SM CLR 04/03 A3023 RMK AO2 SLP211
     T00440028 $

2001/11/05 09:53
KMIW 050953Z AUTO 16006KT 10SM CLR 05/00 A3031 RMK AO2 SLP264
     T00500000 $

2001/11/05 09:45
KMUT 050945Z AUTO 00000KT 10SM CLR 03/02 A3034 RMK AO1

2001/11/05 09:52
KOMA 050952Z 15005KT 10SM CLR 04/02 A3026 RMK AO2 SLP249
     T00390022

2001/11/05 09:45
KORC 050945Z AUTO 16007KT 10SM CLR 08/00 A3021 RMK AO1

2001/11/05 09:52
KORE 050952Z AUTO 30005KT 10SM FEW031 03/01 A2986 RMK AO2 SLP115
     T00330006

2001/11/05 09:53
KOVS 050953Z AUTO 00000KT 10SM CLR M03/M04 A3036 RMK AO2 SLP288
     T10331044

2001/11/05 09:52
KPYM 050952Z AUTO 27005KT 10SM FEW030 OVC039 06/05 A2982 RMK AO2
     SLP098 T00560050

2001/11/05 09:52
PAKN 050952Z 36007KT 10SM FEW020 M16/M18 A2997 RMK AO2 SLP151
     T11561178 $

2001/11/05 09:52
PATA 050952Z AUTO 32004KT 10SM CLR M22/M24 A3009 RMK AO2 SLP197
     T12221239 TSNO

2001/11/05 09:51
KCRP 050951Z 36007KT 10SM CLR 16/14 A3017 RMK AO2 SLP216 T01610139
     $

2001/11/05 09:51
KSMX 050951Z AUTO 00000KT 1/4SM FG VV001 12/12 A3001 RMK AO2
     SLP165 T01170117 TSNO

2001/11/05 09:51
KPIT 050951Z 31007KT 10SM CLR 03/01 A3023 RMK AO2 SLP246 T00330006
     $

2001/11/05 09:51
KEKN 050951Z 00000KT 10SM CLR M01/M02 A3020 RMK AO2 SLP239
     T10061022 $

2001/11/05 09:51
KRDU 050951Z 00000KT 10SM CLR 03/03 A3009 RMK AO2 SLP190
     T00330033

2001/11/05 09:51
KBKW 050951Z AUTO 33008KT 10SM CLR 05/01 A3019 RMK AO2 SLP222
     T00500011

2001/11/05 09:51
KGDP 050951Z AUTO 02019KT 9SM CLR 11/07 A3033 RMK AO2 SLP222
     T01060072 TSNO

2001/11/05 09:51
KCON 050951Z AUTO 31004KT 10SM BKN029 BKN065 OVC085 04/04 A2982
     RMK AO2 RAB0852E49 SLP102 P0000 T00440039

2001/11/05 09:51
KABE 050951Z 32015G19KT 10SM -RA FEW028 SCT049 BKN060 06/02 A3005
     RMK AO2 RAB42 SLP179 P0000 T00610022

2001/11/05 09:51
KLGA 050951Z 31015KT 10SM CLR 08/01 A2996 RMK AO2 SLP145
     T00830011

2001/11/05 09:51
KJFK 050951Z 29017G21KT 10SM CLR 08/02 A2997 RMK AO2 SLP147
     T00780017

2001/11/05 09:51
KBDL 050951Z 30012KT 10SM FEW036 SCT044 05/01 A2989 RMK AO2 SLP121
     T00500011

2001/11/05 09:51
KPVD 050951Z 29006KT 10SM FEW041 05/04 A2985 RMK AO2 SLP106
     T00500044

2001/11/05 09:51
KP59 050951Z AUTO 23008KT 03/01 A3029 RMK AO2 SLP263 T00330011
     PWINO TSNO $

2001/11/05 09:51
KCAK 050951Z 32004KT 10SM FEW050 03/00 A3025 RMK AO2 SLP250
     T00330000

2001/11/05 09:51
KYNG 050951Z 35005KT 10SM FEW025 02/01 A3024 RMK AO2 SLP245
     T00220006

2001/11/05 09:52
KMKE 050952Z 00000KT 10SM CLR 02/M01 A3036 RMK AO2 SLP286
     T00171011 FZRANO

2001/11/05 09:52
KCID 050952Z 14005KT 10SM CLR 03/M02 A3032 RMK AO2 SLP270
     T00281022 $

2001/11/05 09:51
KCVG 050951Z 04012KT 10SM CLR 04/M02 A3031 RMK AO2 SLP263
     T00441017

2001/11/05 09:51
KCLE 050951Z 36010KT 10SM FEW029 BKN039 06/02 A3030 RMK AO2 SLP261
     T00610017

2001/11/05 09:51
KCMH 050951Z 35005KT 10SM CLR 03/M02 A3029 RMK AO2 SLP259
     T00331017

2001/11/05 09:51
KTEB 050951Z 34007KT 10SM SCT080 07/01 A2996 RMK AO2 SLP146
     T00670006

2001/11/05 09:51
KCLT 050951Z 32004KT 10SM CLR 07/03 A3012 RMK AO2 SLP195
     T00670033

2001/11/05 09:51
KHTS 050951Z 36007KT 10SM CLR 07/M02 A3026 RMK AO2 SLP246
     T00671022

2001/11/05 09:52
KBIS 050952Z 05004KT 10SM CLR M02/M03 A2994 RMK AO2 SLP146
     T10171028

2001/11/05 09:51
KP58 050951Z AUTO 01015G19KT 06/M01 A3030 RMK AO2 SLP267 T00611011
     PWINO TSNO

2001/11/05 09:51
KVCT 050951Z AUTO 01006KT 6SM BR CLR 13/13 A3019 RMK AO2 SLP223
     T01330128

2001/11/05 09:51
KATT 050951Z AUTO 00000KT 9SM SCT080 16/16 A3023 RMK AO2 SLP228
     T01610156

2001/11/05 09:51
KELP 050951Z 08003KT 10SM FEW110 15/08 A3024 RMK AO2 SLP186
     T01500083

2001/11/05 09:51
KALB 050951Z 29011KT 10SM SCT047 04/01 A2996 RMK AO2 SLP148
     T00390006

2001/11/05 09:51
KIAD 050951Z 32008KT 10SM CLR 07/M03 A3014 RMK AO2 SLP207
     T00721033 $

2001/11/05 09:51
KHSE 050951Z AUTO 31005KT 10SM CLR 14/11 A3002 RMK AO2 SLP167
     T01390111 TSNO

2001/11/05 09:51
KORF 050951Z 02009KT 10SM CLR 13/06 A3005 RMK AO2 SLP177 T01330056
     $

2001/11/05 09:51
KDCA 050951Z 29007KT 10SM CLR 09/M04 A3014 RMK AO2 SLP206
     T00891044

2001/11/05 09:51
KEWR 050951Z 31010KT 10SM SCT095 BKN150 07/03 A2998 RMK AO2 SLP151
     T00720033 $

2001/11/05 09:51
KBVE 050951Z AUTO 03011KT 340V050 10SM CLR 19/14 A3004 RMK AO2
     SLP173 T01940139 TSNO

2001/11/05 09:50
EKAH 050950Z 29014KT 9999 FEW023 07/02 Q1012

2001/11/05 09:50
EKBI 050950Z 29017KT 9999 FEW010CB 06/03 Q1015

2001/11/05 09:50
EKCH 050950Z 30017G27KT 270V330 9999 FEW028CB 06/03 Q1011
     NOSIG

2001/11/05 09:50
EKEB 050950Z 31012KT 9999 VCSHRA SCT035CB 08/02 Q1016

2001/11/05 09:50
EKRK 050950Z 30022KT 9999 BKN024 07/02 Q1012

2001/11/05 09:50
EKRN 050950Z 29024KT 9999 SCT025TCU 08/02 Q1010

2001/11/05 09:50
EKSB 050950Z 29013KT 9999 FEW020 08/04 Q1016

2001/11/05 09:50
EKSN 050950Z 30008KT 270V340 CAVOK 08/01 Q1010

2001/11/05 09:50
EKVD 050950Z 30012G22KT 9999 FEW020 07/00 Q1015

2001/11/05 09:50
EKVG 050950Z 12020KT 9999 BKN035 OVC080 03/M01 Q1009 RMK WIND 850
     FT 13025KT

2001/11/05 09:50
EKVL 050950Z 29016KT 9999 FEW032 SCT050 06/01 Q1011 TEMPO
     29020G30KT

2001/11/05 09:50
EKYT 050950Z 31010KT 280V350 9999 FEW040 07/00 Q1011 NOSIG

2001/11/05 09:50
EETN 050950Z 01007KT 9999 BKN028 BKN150 04/00 Q0990 NOSIG

2001/11/05 09:50
EFHF 050950Z 34007KT 9999 BKN039 02/00 Q0991

2001/11/05 09:50
EFHK 050950Z 35008KT 9999 BKN036 02/M00 Q0991 0419//68 NOSIG

2001/11/05 09:50
EFJY 050950Z 01007KT 320V060 9999 BKN015 M01/M03 Q0993
     3019//95

2001/11/05 09:50
EFKK 050950Z 03003KT 9999 SCT008 M01/M03 Q0997

2001/11/05 09:50
EFKU 050950Z 35006KT 320V060 9999 -SHSN SCT013 BKN018 M00/M02
     Q0993 3319//78

2001/11/05 09:50
EFMA 050950Z 34009KT 9999 -SHRA FEW014 SCT033 BKN050 04/02
     Q0996

2001/11/05 09:50
EFOU 050950Z 36006KT 320V030 CAVOK M03/M07 Q0997 1219//41

2001/11/05 09:50
EFPO 050950Z 01006KT 320V070 9999 SCT021 01/M03 Q0995

2001/11/05 09:50
EFRO 050950Z 34006KT CAVOK M07/M09 Q0996 03790171

2001/11/05 09:50
EFTU 050950Z 34003KT 9999 FEW025 SCT035 02/01 Q0994 26190195

2001/11/05 09:50
EFVA 050950Z 33004KT 9999 FEW040 01/M00 Q0996

2001/11/05 09:50
EVRA 050950Z 24009KT 9999 SCT034CB BKN090 07/05 Q0991 TEMPO
     29016G26KT 18290150

2001/11/05 09:45
MMMY 050945Z 00000KT 10SM SCT070 17/13 A3023 RMK 07090

2001/11/05 09:50
ESGG 050950Z 32010KT CAVOK 05/M03 Q1008

2001/11/05 09:50
ESMS 050950Z 29020KT 9999 FEW030 SCT040 07/01 Q1010

2001/11/05 09:50
ESNN 050950Z 33002KT CAVOK 01/M01 Q0999 1615//64

2001/11/05 09:50
ESNO 050950Z 34009KT CAVOK M02/M05 Q0998

2001/11/05 09:50
ESNQ 050950Z 32003KT 9999 SCT046 M06/M09 Q0997

2001/11/05 09:50
ESNS 050950Z 34004KT 9999 SCT020 SCT060 M02/M05 Q0998

2001/11/05 09:50
ESNU 050950Z 33008KT 9999 FEW030 M00/M04 Q0998 14110075

2001/11/05 09:50
ESOW 050950Z 31009KT CAVOK 02/00 Q1001

2001/11/05 09:50
ESSA 050950Z 31010KT 280V350 9999 FEW020 SCT200 02/M02 Q0999
     NOSIG

2001/11/05 09:50
ESSB 050950Z 31010KT CAVOK 02/M02 Q0999

2001/11/05 09:50
ESSP 050950Z 30011KT 9999 FEW020 02/M01 Q1002

2001/11/05 09:50
ESSV 050950Z 31018KT 9999 SCT020 04/01 Q1000

2001/11/05 09:53
KSLE 050953Z AUTO 27004KT 10SM OVC037 11/09 A3014 RMK AO2 RAE45
     SLP205 P0000 T01060094

2001/11/05 09:53
KMLI 050953Z 00000KT 10SM CLR 01/M01 RMK AO2 SLPNO T00111006 $

2001/11/05 09:48
KSAR 050948Z AUTO 08003KT 10SM CLR 07/03 A3030 RMK AO2

2001/11/05 09:48
KDKB 050948Z AUTO 00000KT 10SM CLR 02/M01 A3035 RMK AO2

2001/11/05 09:53
KAGS 050953Z AUTO 00000KT 10SM CLR 05/03 A3009 RMK AO2 SLP188
     T00500033

2001/11/05 09:53
KCSG 050953Z AUTO 01005KT 10SM CLR 13/03 A3010 RMK AO2 SLP190
     T01330033

2001/11/05 09:53
KGRI 050953Z AUTO 17010KT 10SM CLR 08/04 A3022 RMK AO2 SLP229
     T00830044

2001/11/05 09:50
K11R 050950Z AUTO 00000KT 2SM BR 15/13 A3022 RMK AO2

2001/11/05 09:53
KABY 050953Z 03006KT 10SM CLR 13/04 A3009 RMK AO2 SLP187 T01280044
     $

2001/11/05 09:53
KACV 050953Z AUTO 00000KT 10SM BKN026 OVC043 08/08 A3017 RMK AO2
     SLP222 T00830078

2001/11/05 09:50
KADH 050950Z AUTO 26003KT 1/4SM FG OVC001 11/11 A3028 RMK AO2

2001/11/05 09:53
KAFW 050953Z 00000KT 1/4SM FG VV001 13/13 A3026 RMK AO2 SLP242
     T01280128

2001/11/05 09:53
KALW 050953Z AUTO 17006KT 10SM CLR 08/04 A2999 RMK AO2 SLP161
     T00780039

2001/11/05 09:53
KAMW 050953Z AUTO 00000KT 10SM CLR 02/01 A3031 RMK AO2 SLP263
     T00170006

2001/11/05 09:50
KANW 050950Z AUTO 19013KT 10SM CLR 08/06 A3012 RMK AO1

2001/11/05 09:53
KAOH 050953Z AUTO 35004KT 10SM CLR 01/M02 A3035 RMK AO2 SLP281
     T00111022

2001/11/05 09:53
KARR 050953Z AUTO 31004KT 9SM CLR A3037 RMK AO2 SLPNO $

2001/11/05 09:53
KASX 050953Z AUTO 26003KT 10SM CLR M02/M07 A3024 RMK AO2 SLP251
     T10171072

2001/11/05 09:53
KATY 050953Z AUTO 19013KT 10SM CLR 10/01 A3007 RMK AO2 SLP185
     T01000006

2001/11/05 09:53
KAXN 050953Z AUTO 18012KT 10SM CLR 09/01 A3011 RMK AO2 SLP202
     T00890011

2001/11/05 09:53
KBDE 050953Z AUTO 18006KT 10SM CLR 05/M02 A2998 RMK AO2 SLP160
     T00501017

2001/11/05 09:53
KBEH 050953Z AUTO 00000KT 10SM CLR M02/M03 A3036 RMK AO2 SLP287
     T10221028

2001/11/05 09:53
KBFD 050953Z AUTO 32011KT 10SM FEW021 OVC042 02/M02 A3014 RMK AO2
     SLP217 T00171022 FZRANO $

2001/11/05 09:53
KBFI 050953Z 00000KT 10SM -RA BKN065 OVC100 08/06 A3013 RMK AO2
     SLP203 P0000 T00780061

2001/11/05 09:53
KBHM 050953Z 00000KT 10SM CLR 07/06 A3020 RMK AO2 SLP224
     T00670056

2001/11/05 09:53
KBIV 050953Z AUTO 00000KT 10SM CLR M01/M02 A3038 RMK AO2 SLP294
     T10061022

2001/11/05 09:53
KBKE 050953Z AUTO 30005KT 10SM CLR M03/M04 A3004 RMK AO2 SLP180
     T10281039

2001/11/05 09:53
KBLI 050953Z AUTO 19003KT 2SM BR SCT037 SCT090 05/05 A3010 RMK AO2
     VIS 1V5 SLP202 T00500050

2001/11/05 09:53
KBPK 050953Z AUTO 00000KT 8SM OVC038 12/11 A3028 RMK AO2 SLP248
     T01170106

2001/11/05 09:53
KBRD 050953Z AUTO 19009KT 10SM CLR 08/M02 A3014 RMK AO2 SLP211
     T00781022

2001/11/05 09:53
KBRL 050953Z AUTO 14005KT 10SM CLR 06/M01 A3034 RMK AO2 SLP275
     T00611006

2001/11/05 09:53
KBTL 050953Z AUTO 00000KT 10SM CLR M01/M03 A3037 RMK AO2 SLP291
     T10061028

2001/11/05 09:53
KBUR 050953Z 12003KT 2 1/2SM BR SCT001 13/13 A2997 RMK AO2 SLP141
     T01280128

2001/11/05 09:53
KBVO 050953Z AUTO 00000KT 1/4SM FG VV001 08/08 A3030 RMK AO2
     SLP253 P0001 T00780078

2001/11/05 09:53
KBWG 050953Z AUTO 00000KT 10SM CLR 06/03 A3026 RMK AO2 SLP244
     T00610033

2001/11/05 09:45
KCBF 050945Z AUTO 13005KT 10SM CLR 10/03 A3026 RMK AO1

2001/11/05 09:53
KCCR 050953Z 12004KT 10SM CLR 09/09 A3004 RMK AO2 SLP159
     T00940094

2001/11/05 09:53
KCDW 050953Z 31009KT 10SM FEW110 06/01 A2999 RMK AO2 SLP161
     T00610006

2001/11/05 09:53
KCGI 050953Z AUTO 00000KT 1/4SM FG BKN001 BKN029 07/07 A3029 RMK
     AO2 SLP254 T00670067

2001/11/05 09:50
KCHK 050950Z AUTO 28005KT 5SM BR BKN037 14/13 A3030 RMK AO1

2001/11/05 09:53
KCHO 050953Z VRB05KT 10SM CLR 09/M01 A3013 RMK AO2 SLP200
     T00891011

2001/11/05 09:53
KCHO 050953Z VRB05KT 10SM CLR 09/M01 A3013 RMK AO2 SLP200
     T00891011

2001/11/05 09:53
KCMI 050953Z 06005KT 10SM CLR 02/M02 A3035 RMK AO2 SLP280
     T00171022 $

2001/11/05 09:53
KCMX 050953Z AUTO 00000KT 10SM CLR M01/M05 A3027 RMK AO2 SLP263
     T10061050

2001/11/05 09:53
KCNM 050953Z AUTO 00000KT 10SM CLR 11/10 A3028 RMK AO2 SLP223
     T01060100

2001/11/05 09:53
KCNO 050953Z 13005KT M1/4SM FG BKN001 OVC015 12/12 A3000 RMK AO2
     SLP156 T01170117

2001/11/05 09:53
KCPS 050953Z AUTO 02003KT 10SM CLR 06/04 A3034 RMK AO2 SLP273
     T00610044 $

2001/11/05 09:53
KCRE 050953Z AUTO 01003KT 10SM CLR 08/07 A3005 RMK AO2 SLP177
     T00830072 TSNO

2001/11/05 09:53
KCRG 050953Z AUTO 02012G18KT 10SM CLR 19/16 A2996 RMK AO2 SLP145
     T01940161

2001/11/05 09:53
KCSV 050953Z AUTO 00000KT 10SM CLR 09/04 A3021 RMK AO2 SLP222
     T00940039

2001/11/05 09:53
KDCU 050953Z AUTO 35004KT 10SM CLR 07/03 A3020 RMK AO2 SLP225
     T00720033 $

2001/11/05 09:53
KDEW 050953Z AUTO 00000KT 6SM BR BKN100 05/04 A2996 RMK AO2
     RAB20E30 SLP150 P0000 T00500044

2001/11/05 09:53
KDHT 050953Z AUTO 20006KT 1/4SM FG VV001 08/08 A3031 RMK AO2
     SLP234 T00780078

2001/11/05 09:53
KDLS 050953Z AUTO 30005KT 10SM FEW080 BKN100 12/09 A3002 RMK AO2
     SLP165 T01220089

2001/11/05 09:53
KDMO 050953Z AUTO 16003KT 1/4SM FG VV001 09/09 A3032 RMK AO2
     SLP267 T00940094

2001/11/05 09:53
KDNL 050953Z AUTO 34008KT 10SM CLR 09/03 A3009 RMK AO2 SLP188
     T00940033 TSNO

2001/11/05 09:53
KDTN 050953Z 00000KT 10SM CLR 10/09 A3024 RMK AO2 SLP240
     T01000094

2001/11/05 09:53
KDVT 050953Z AUTO 26010KT 10SM -RA FEW070 OVC100 22/14 A3003 RMK
     AO2 RAB40 SLP147 P0000 T02170144

2001/11/05 09:53
KDXR 050953Z AUTO VRB04KT 10SM CLR 04/01 A2995 RMK AO2 SLP141
     T00440011

2001/11/05 09:53
KEET 050953Z AUTO 00000KT 10SM CLR 09/06 A3017 RMK AO2 SLP213
     T00890061

2001/11/05 09:53
KELD 050953Z AUTO 00000KT 10SM CLR 07/06 A3024 RMK AO2 SLP239
     T00670056

2001/11/05 09:53
KELM 050953Z VRB05KT 10SM CLR 03/M02 A3010 RMK AO2 SLP195
     T00281022

2001/11/05 09:53
KELN 050953Z AUTO 31021G29KT 10SM OVC100 08/04 A2995 RMK AO2 PK
     WND 31029/0948 SLP151 T00830044 $

2001/11/05 09:53
KENW 050953Z AUTO 31003KT 7SM CLR M01/M01 A3036 RMK AO2 SLP289
     T10061011

2001/11/05 09:53
KEPH 050953Z AUTO 00000KT 3/4SM BR VV001 06/06 A2996 RMK AO2
     SLP151 T00610061

2001/11/05 09:53
KEQY 050953Z AUTO 33003KT 10SM CLR 06/03 A3009 RMK AO2 SLP201
     T00560033

2001/11/05 09:53
KEYE 050953Z AUTO 00000KT 10SM CLR 03/M02 A3033 RMK AO2 SLP270
     T00281022 $

2001/11/05 09:53
KFAY 050953Z AUTO 35007KT 10SM CLR 10/03 A3007 RMK AO2 SLP175
     T01000028 TSNO

2001/11/05 09:53
KFCM 050953Z 19008KT 10SM CLR 08/M02 A3021 RMK AO2 SLP235
     T00831017

2001/11/05 09:53
KFFC 050953Z AUTO 00000KT 10SM CLR 03/02 A3013 RMK AO2 SLP205
     T00280017

2001/11/05 09:53
KFHR 050953Z AUTO 00000KT 10SM CLR 03/03 A3012 RMK AO2 SLP201
     T00330033

2001/11/05 09:53
KFLD 050953Z AUTO 00000KT 10SM CLR M03/M04 A3036 RMK AO2 SLP288
     T10281044

2001/11/05 09:53
KFLO 050953Z 36005KT 10SM CLR 08/03 A3007 RMK AO2 SLP180
     T00780033

2001/11/05 09:53
KFOE 050953Z AUTO 15005KT 1/4SM FG VV001 07/07 A3028 RMK AO2
     SLP251 T00720072

2001/11/05 09:53
KFOK 050953Z AUTO 32008KT 10SM CLR 06/03 A2992 RMK AO2 SLP132
     T00560028 TSNO

2001/11/05 09:53
KFRG 050953Z AUTO 30007KT 10SM CLR 07/03 A2993 RMK AO2 SLP136
     T00670028 TSNO

2001/11/05 09:53
KFST 050953Z AUTO 17006KT 10SM CLR 12/08 A3028 RMK AO2 SLP219
     T01220083

2001/11/05 09:53
KFTW 050953Z 00000KT 1/4SM FG OVC002 13/13 A3026 RMK AO2 SFC VIS
     1/2 SLP241 T01330133

2001/11/05 09:53
KFTY 050953Z 00000KT 10SM CLR 05/03 A3014 RMK AO2 SLP205
     T00500033

2001/11/05 09:53
KFUL 050953Z AUTO 14004KT 1/4SM FG BKN004 14/14 A2997 RMK AO2
     SLP146 T01390139 TSNO

2001/11/05 09:53
KFWN 050953Z AUTO 00000KT 10SM FEW027 SCT110 05/01 A3001 RMK AO2
     SLP164 T00500006

2001/11/05 09:53
KFYV 050953Z AUTO 00000KT 1/4SM FG VV001 10/10 A3030 RMK AO2
     SLP253 T01000100

2001/11/05 09:53
KGAG 050953Z AUTO 00000KT 1/4SM FG FEW001 SCT006 07/07 A3031 RMK
     AO2 SLP253 T00720072

2001/11/05 09:53
KGFK 050953Z 18011KT 10SM CLR 03/02 A2993 RMK AO2 SLP142 T00330017
     $

2001/11/05 09:53
KGGG 050953Z AUTO 00000KT 10SM CLR 09/08 A3025 RMK AO2 SLP240
     T00890083

2001/11/05 09:53
KGKY 050953Z AUTO 00000KT 1 3/4SM BR CLR 14/14 A3026 RMK AO2
     SLP240 T01390139

2001/11/05 09:53
KGLH 050953Z AUTO 00000KT 10SM CLR 08/04 A3022 RMK AO2 SLP241
     T00780044 TSNO

2001/11/05 09:53
KGLR 050953Z AUTO 23003KT 10SM CLR M03/M04 A3034 RMK AO2 SLP289
     T10331044

2001/11/05 09:52
KGMJ 050952Z AUTO 00000KT 3/4SM BR BKN001 10/10 A3031 RMK AO2

2001/11/05 09:53
KGMU 050953Z AUTO 34003KT 10SM CLR 13/04 A3013 RMK AO2 SLP198
     T01330039 TSNO

2001/11/05 09:53
KGNV 050953Z 01009KT 9SM BKN110 19/16 A2994 RMK AO2 SLP135
     T01890161 $

2001/11/05 09:53
KGOK 050953Z AUTO 00000KT 1/4SM FG BKN001 OVC007 11/11 A3029 RMK
     AO2 SLP254 T01110111

2001/11/05 09:53
KGSH 050953Z AUTO 36003KT 10SM CLR M03/M04 A3038 RMK AO2 SLP293
     T10281039 $

2001/11/05 09:53
KGVL 050953Z AUTO 00000KT 10SM CLR 08/04 A3015 RMK AO2 SLP205
     T00780039

2001/11/05 09:53
KGWO 050953Z 06003KT 10SM CLR 07/06 A3023 RMK AO2 SLP235
     T00670056

2001/11/05 09:53
KHBR 050953Z AUTO 00000KT 1 3/4SM -RA BR FEW001 OVC035 11/11 A3031
     RMK AO2 RAB01E13B48 SLP255 P0000 T01110111 $

2001/11/05 09:53
KHEI 050953Z AUTO 00000KT 10SM CLR M02/M05 A2994 RMK AO2 SLP143
     T10171050

2001/11/05 09:53
KHGR 050953Z AUTO 32010KT 10SM CLR 05/M02 A3013 RMK AO2 SLP213
     T00501022

2001/11/05 09:53
KHHR 050953Z AUTO 00000KT 2 1/2SM BR CLR 15/14 A2997 RMK AO2
     SLP149 T01500139

2001/11/05 09:53
KHIB 050953Z AUTO 15003KT 10SM CLR 00/M06 A3013 RMK AO2 SLP216
     T00001056

2001/11/05 09:53
KHIO 050953Z 31004KT 10SM RA OVC055 10/09 A3014 RMK AO2 SLP204
     P0000 T01000089

2001/11/05 09:53
KHKA 050953Z AUTO 00000KT 10SM CLR 08/06 A3026 RMK AO2 SLP247
     T00780056 $

2001/11/05 09:53
KHKS 050953Z AUTO 02004KT 10SM CLR 13/05 A3020 RMK AO2 SLP220
     T01330050 $

2001/11/05 09:53
KHKY 050953Z AUTO 35005KT 10SM CLR 14/03 A3012 RMK AO2 SLP183
     T01390033 $

2001/11/05 09:53
KHLG 050953Z AUTO 33004KT 10SM CLR 03/01 A3024 RMK AO2 SLP247
     T00330011

2001/11/05 09:53
KHOT 050953Z AUTO 00000KT 10SM CLR 07/07 A3027 RMK AO2 SLP248
     T00720067

2001/11/05 09:53
KHQM 050953Z AUTO 00000KT 8SM CLR 05/04 A3015 RMK AO2 SLP213
     T00500044

2001/11/05 09:53
KHRI 050953Z AUTO 08004KT 3SM BR FEW120 05/05 A3000 RMK AO2 SLP162
     T00500050 $

2001/11/05 09:53
KHRO 050953Z AUTO 00000KT 5SM BR BKN028 12/12 A3030 RMK AO2 SLP252
     T01220117

2001/11/05 09:53
KHYR 050953Z AUTO 00000KT 10SM CLR M04/M06 A3025 RMK AO2 SLP257
     T10391061

2001/11/05 09:53
KIML 050953Z AUTO 25003KT 3/4SM BR CLR 04/ A3018 RMK AO2 SLP218
     T0039 $

2001/11/05 09:53
KINK 050953Z AUTO 09007KT 10SM CLR 14/11 A3027 RMK AO2 SLP219
     T01390111

2001/11/05 09:53
KIOW 050953Z AUTO 00000KT 10SM FEW095 01/M01 A3035 RMK AO2 SLP279
     T00061006 $

2001/11/05 09:53
KIPL 050953Z AUTO 32005KT 10SM CLR 17/10 A2988 RMK AO2 SLP118
     T01720100 $

2001/11/05 09:53
KIXD 050953Z AUTO 13007KT 1/4SM FG BKN001 OVC009 08/08 A3029 RMK
     AO2 SLP256 T00830083

2001/11/05 09:53
KJEF 050953Z AUTO 00000KT 1/4SM FG VV001 08/08 A3032 RMK AO2
     SLP256 T00830083

2001/11/05 09:53
KLAW 050953Z AUTO 00000KT 4SM BR OVC039 11/11 A3029 RMK AO2 SLP254
     T01110111

2001/11/05 09:53
KLLQ 050953Z AUTO 00000KT 10SM CLR 08/06 A3026 RMK AO2 SLP245
     T00780061

2001/11/05 09:53
KLMT 050953Z AUTO 00000KT 5SM BR CLR M03/M04 A3014 RMK AO2 SLP199
     T10331044

2001/11/05 09:53
KLNS 050953Z AUTO 28009KT 10SM CLR 04/M03 A3008 RMK AO2 SLP186
     T00441028 $

2001/11/05 09:53
KLOL 050953Z AUTO 30005KT 10SM CLR 00/M07 A3011 RMK AO2 SLP188
     T00001067

2001/11/05 09:53
KLSE 050953Z AUTO 13006KT 10SM CLR 02/M02 A3033 RMK AO2 SLP275
     T00171017

2001/11/05 09:53
KLVK 050953Z AUTO 00000KT 10SM CLR 10/07 A3005 RMK AO2 SLP172
     T01000072

2001/11/05 09:53
KLVS 050953Z AUTO 21008KT 9SM CLR 05/05 A3039 RMK AO2 SLP228
     T00500050 $

2001/11/05 09:53
KMAE 050953Z AUTO 06004KT 2 1/2SM BR 13/11 A3004 RMK AO2 SLP170
     T01280111 $

2001/11/05 09:53
KMCE 050953Z AUTO 06003KT 1 3/4SM BR CLR 13/11 A3003 RMK AO2
     SLP168 T01280106 $

2001/11/05 09:53
KMCW 050953Z AUTO 18006KT 10SM CLR 02/M02 A3030 RMK AO2 SLP261
     T00171017 $

2001/11/05 09:53
KMDW 050953Z 00000KT 10SM CLR 04/02 A3036 RMK AO2 SLP285
     T00390022

2001/11/05 09:53
KMEM 050953Z 00000KT 10SM CLR 09/07 A3024 RMK AO2 SLP238
     T00890067

2001/11/05 09:53
KMIC 050953Z 16007KT 10SM BKN250 07/M03 A3020 RMK AO2 SLP232
     T00671028 $

2001/11/05 09:53
KMKL 050953Z 18003KT 10SM CLR 05/04 A3024 RMK AO2 SLP239
     T00500044

2001/11/05 09:53
KMLB 050953Z AUTO 07013G20KT 10SM FEW016 SCT034 BKN042 22/19 A2980
     RMK AO2 PK WND 07032/0937 RAB39E53 SLP089 P0009 T02170189

2001/11/05 09:53
KMLP 050953Z AUTO VRB05KT 10SM CLR 05/M04 A3001 RMK AO2 SLP101
     T00501039

2001/11/05 09:53
KMMV 050953Z AUTO 23006KT 10SM OVC055 11/09 A3015 RMK AO2 RAB25E47
     SLP210 P0000 T01060089

2001/11/05 09:53
KMOD 050953Z AUTO 11005KT 1 3/4SM BR CLR 11/09 A3002 RMK AO2
     SLP166 T01060094

2001/11/05 09:53
KMRB 050953Z AUTO 32013KT 10SM CLR 07/M02 A3014 RMK AO2 SLP205
     T00721022

2001/11/05 09:53
KMSL 050953Z AUTO 00000KT 10SM CLR 06/04 A3022 RMK AO2 SLP232
     T00560044

2001/11/05 09:53
KMTO 050953Z AUTO 08003KT 10SM CLR 03/M03 A3034 RMK AO2 SLP273
     T00331028 $

2001/11/05 09:53
KMWL 050953Z AUTO 04003KT 4SM BR CLR 13/13 A3026 RMK AO2 SLP238
     T01280128 $

2001/11/05 09:53
KMYF 050953Z AUTO 03006KT 3SM BR SCT110 16/14 A2995 RMK AO2 SLP138
     T01610144 TSNO

2001/11/05 09:53
KMYV 050953Z AUTO 08003KT 10SM CLR 11/08 A3004 RMK AO2 SLP176
     T01110083

2001/11/05 09:53
KOAK 050953Z 06004KT 10SM FEW008 09/09 A3007 RMK AO2 SLP183 P0001
     T00940089

2001/11/05 09:53
KODO 050953Z AUTO 09006KT 10SM CLR 14/11 A3030 RMK AO2 SLP228
     T01390111

2001/11/05 09:53
KOGB 050953Z AUTO 00000KT 10SM CLR 08/04 A3008 RMK AO2 SLP184
     T00780044

2001/11/05 09:53
KOJC 050953Z AUTO 13003KT 1/4SM FG BKN001 OVC006 09/09 A3030 RMK
     AO2 SLP257 T00890089 $

2001/11/05 09:51
KOKM 050951Z AUTO 28003KT 3/4SM BR VV005 11/11 A3028 RMK AO1

2001/11/05 09:53
KOSH 050953Z AUTO 19004KT 10SM CLR M02/M06 A3035 RMK AO2 SLP287
     T10221056 FZRANO

2001/11/05 09:53
KOVE 050953Z AUTO 00000KT 10SM CLR 14/08 A3005 RMK AO2 SLP177
     T01390083 $

2001/11/05 09:53
KOXB 050953Z AUTO 32008KT 10SM CLR A3005 RMK AO2 SLP177 $

2001/11/05 09:53
KPAE 050953Z AUTO 00000KT 10SM BKN017 OVC070 07/06 A3012 RMK AO2
     SLP201 T00720056

2001/11/05 09:53
KPBF 050953Z AUTO 00000KT 9SM CLR 08/07 A3025 RMK AO2 SLP243
     T00780067

2001/11/05 09:53
KPDK 050953Z 00000KT 10SM CLR 05/04 A3014 RMK AO2 SLP205
     T00500039

2001/11/05 09:53
KPFN 050953Z AUTO 05006KT 10SM CLR 16/09 A3002 RMK AO2 SLP167
     T01610089 $

2001/11/05 09:53
KPIR 050953Z AUTO 12005KT 10SM CLR 07/04 A2998 RMK AO2 SLP148
     T00720039

2001/11/05 09:53
KPKD 050953Z AUTO 16006KT 10SM CLR 05/M02 A3006 RMK AO2 SLP189
     T00501017 $

2001/11/05 09:53
KPLB 050953Z AUTO 28009KT 10SM FEW030 BKN047 OVC055 04/01 A2990
     RMK AO2 SLP127 T00390006

2001/11/05 09:53
KPMD 050953Z AUTO 18006KT 10SM CLR 09/07 A3006 RMK AO2 SLP167
     T00940067

2001/11/05 09:53
KPNC 050953Z AUTO 00000KT 2 1/2SM BR BKN002 10/10 A3028 RMK AO2
     SLP248 T01000100

2001/11/05 09:53
KPNS 050953Z AUTO 02009G15KT 10SM BKN090 17/08 A3006 RMK AO2
     SLP180 T01720078

2001/11/05 09:53
KPOU 050953Z 00000KT 10SM FEW110 02/02 A2996 RMK AO2 SLP142
     T00220017

2001/11/05 09:53
KPRB 050953Z AUTO 00000KT 10SM CLR 10/08 A3004 RMK AO2 SLP168
     T01000078

2001/11/05 09:53
KPRC 050953Z AUTO 25005KT 10SM SCT080 12/M01 A3019 RMK AO2
     RAB02E24 SLP157 P0001 T01171006

2001/11/05 09:53
KPSC 050953Z AUTO 10004KT 1/4SM FG VV001 07/07 A3000 RMK AO2
     SLP160 T00720072

2001/11/05 09:53
KPSP 050953Z 28003KT 10SM CLR 22/08 A2993 RMK AO2 SLP131
     T02170083

2001/11/05 09:53
KPUW 050953Z AUTO 00000KT 10SM CLR 04/03 A2999 RMK AO2 SLP160
     T00440028

2001/11/05 09:53
KPWA 050953Z AUTO 00000KT 1/4SM FG BKN001 OVC035 10/10 A3031 RMK
     AO2 SLP259 T01000100 $

2001/11/05 09:53
KPWK 050953Z AUTO 00000KT 7SM CLR 01/M01 A3038 RMK AO2 SLP291
     T00061006

2001/11/05 09:53
KRAC 050953Z AUTO 28005KT 10SM FEW090 02/00 A3037 RMK AO2 SLP290
     T00170000

2001/11/05 09:53
KRAL 050953Z AUTO 11003KT 1SM BR CLR 13/12 A2999 RMK AO2 SLP144
     T01280122

2001/11/05 09:53
KRBD 050953Z 00000KT 5SM BR CLR 14/14 A3025 RMK AO2 SLP240
     T01440144

2001/11/05 09:53
KRBG 050953Z AUTO 36005KT 10SM OVC032 11/09 A3017 RMK AO2 SLP218
     T01060089 $

2001/11/05 09:53
KRHI 050953Z AUTO 00000KT 10SM CLR M02/M07 A3031 RMK AO2 SLP280
     T10221067 FZRANO

2001/11/05 09:53
KRNT 050953Z AUTO 00000KT 10SM BKN055 OVC095 07/06 A3013 RMK AO2
     SLP208 T00720061

2001/11/05 09:53
KRSL 050953Z AUTO 21010KT 7SM CLR 11/10 A3024 RMK AO2 SLP235
     T01110100 $

2001/11/05 09:53
KRUE 050953Z AUTO 00000KT 8SM CLR 06/06 A3028 RMK AO2 SLP250
     T00610061

2001/11/05 09:53
KRVS 050953Z 00000KT 1/4SM FG OVC001 09/09 A3028 RMK AO2 TWR VIS 5
     SLP263 P0001 T00940094

2001/11/05 09:53
KRWF 050953Z AUTO 16007KT 10SM CLR 05/01 A3016 RMK AO2 SLP218
     T00500006

2001/11/05 09:53
KRWI 050953Z AUTO 32004KT 10SM CLR 08/03 A3005 RMK AO2 SLP176
     T00830033

2001/11/05 09:53
KSAC 050953Z AUTO 13006KT 9SM CLR 12/08 A3003 RMK AO2 SLP168
     T01170083

2001/11/05 09:53
KSAF 050953Z AUTO 29004KT 10SM OVC095 07/06 A3037 RMK AO2 SLP222
     T00670056

2001/11/05 09:53
KSBA 050953Z 00000KT 1 1/2SM R07/4500VP6000FT BR OVC003 14/14
     A2997 RMK AO2 SLP149 T01440144

2001/11/05 09:53
KSDL 050953Z AUTO 28008KT 10SM OVC110 22/12 A3004 RMK AO2 SLP149
     T02220122

2001/11/05 09:53
KSEG 050953Z AUTO 00000KT 10SM CLR 06/M01 A3009 RMK AO2 SLP191
     T00561011

2001/11/05 09:53
KSFB 050953Z 01010KT 10SM CLR 20/18 A2985 RMK AO2 SLP108
     T02000178

2001/11/05 09:53
KSFD 050953Z AUTO 20016KT 10SM CLR 11/07 A3004 RMK AO2 SLP168
     T01060067 $

2001/11/05 09:53
KSFF 050953Z AUTO 00000KT 10SM BKN110 08/06 A2996 RMK AO2 SLP145
     T00830061

2001/11/05 09:53
KSJC 050953Z 00000KT 10SM CLR 11/10 A3007 RMK AO2 SLP180
     T01110100

2001/11/05 09:45
KSLB 050945Z AUTO 00000KT 10SM CLR 07/01 A3025 RMK AO1

2001/11/05 09:53
KSLN 050953Z AUTO 00000KT 3SM BR CLR 09/09 A3027 RMK AO2 SLP247
     T00940089

2001/11/05 09:53
KSMF 050953Z 12007KT 10SM CLR 12/08 A3002 RMK AO2 SLP165
     T01220078

2001/11/05 09:53
KSMQ 050953Z AUTO 32011G20KT 270V360 10SM FEW049 BKN100 BKN120
     06/01 A2999 RMK AO2 SLP156 T00610011

2001/11/05 09:53
KSNA 050953Z 01004KT 1 1/4SM BR CLR 14/14 A2997 RMK AO2 SLP148
     T01440144

2001/11/05 09:53
KSNS 050953Z AUTO 00000KT 1/4SM FG VV001 09/09 A3007 RMK AO2
     SLP191 T00940094

2001/11/05 09:53
KSPB 050953Z AUTO 00000KT 10SM FEW024 BKN049 OVC065 09/09 A3013
     RMK AO2 RAE46 SLP202 P0000 T00940094 $

2001/11/05 09:53
KSPW 050953Z AUTO 17006KT 10SM CLR 04/01 A3023 RMK AO2 SLP239
     T00440006 $

2001/11/05 09:53
KSSI 050953Z AUTO 35006KT 10SM CLR 18/12 A2999 RMK AO2 SLP154
     T01780122

2001/11/05 09:53
KSTJ 050953Z AUTO 00000KT 8SM CLR 05/04 A3029 RMK AO2 SLP256
     T00500039

2001/11/05 09:53
KSTP 050953Z AUTO 16004KT 10SM CLR 05/M01 A3024 RMK AO2 SLP242
     T00501011

2001/11/05 09:53
KSTS 050953Z AUTO 00000KT 1 1/2SM BR OVC003 06/06 A3006 RMK AO2
     SLP172 T00610061

2001/11/05 09:53
KSWO 050953Z AUTO 00000KT 9SM BKN001 OVC009 09/09 A3029 RMK AO2
     SLP251 T00940094

2001/11/05 09:53
KTCC 050953Z AUTO 24005KT 8SM FEW020 10/09 A3031 RMK AO2 SLP231
     T01000094

2001/11/05 09:53
KTCL 050953Z AUTO 36004KT 10SM CLR 09/04 A3018 RMK AO2 SLP219
     T00890044

2001/11/05 09:53
KTHV 050953Z AUTO 29008KT 270V360 10SM BKN060 05/M03 A3011 RMK AO2
     SLP200 T00501028

2001/11/05 09:53
KTIW 050953Z AUTO 00000KT 10SM BKN110 07/05 A3013 RMK AO2 SLP202
     T00720050

2001/11/05 09:53
KTOI 050953Z AUTO 01006KT 10SM CLR 13/03 A3010 RMK AO2 SLP190
     T01280033

2001/11/05 09:53
KTRL 050953Z AUTO 02004KT 1/2SM FG BKN001 OVC007 12/12 A3026 RMK
     AO2 SLP244 T01220122

2001/11/05 09:53
KTTD 050953Z AUTO VRB03KT 5SM -RA BR FEW011 BKN029 OVC042 10/09
     A3012 RMK AO2 SLP198 P0004 T01000089 TSNO

2001/11/05 09:53
KTTN 050953Z AUTO 28006KT 10SM CLR 06/01 A3001 RMK AO2 SLP155
     T00610011 TSNO

2001/11/05 09:53
KTVC 050953Z 00000KT 10SM CLR M03/M04 A3036 RMK AO2 SLP289
     T10331039

2001/11/05 09:53
KTVL 050953Z AUTO 00000KT 10SM FEW090 M02/M03 A3021 RMK AO2 SLP207
     T10171028

2001/11/05 09:53
KTVR 050953Z AUTO 04005KT 10SM CLR 12/07 A3020 RMK AO2 SLP233
     T01220067

2001/11/05 09:53
KTXK 050953Z AUTO 03004KT 10SM CLR 10/10 A3026 RMK AO2 SLP244
     T01000100

2001/11/05 09:53
KUNO 050953Z AUTO 02004KT CLR 09/09 A3029 RMK AO2 SLP251 T00940089
     $

2001/11/05 09:53
KVGT 050953Z 03010KT 10SM BKN085 16/12 A3010 RMK AO2 RAE49 SLP167
     P0002 T01560122

2001/11/05 09:53
KVIH 050953Z AUTO 00000KT 1/4SM FG BKN001 OVC006 06/06 A3029 RMK
     AO2 SLP255 T00560056 $

2001/11/05 09:53
KVLD 050953Z AUTO 02007KT 10SM CLR 15/08 A3001 RMK AO2 SLP170
     T01500083 $

2001/11/05 09:53
KVPC 050953Z AUTO 00000KT 10SM CLR 03/02 A3017 RMK AO2 SLP210
     T00330017

2001/11/05 09:54
PTYA 050954Z 10006KT 12SM SCT016 BKN130 OVC300 27/25 A2978 RMK
     SLP083 T02720250

2001/11/05 09:53
KVPZ 050953Z AUTO 03004KT 10SM CLR 01/M02 A3036 RMK AO2 SLP288
     T00061022 TSNO

2001/11/05 09:53
KVUO 050953Z AUTO 00000KT 10SM BKN043 OVC050 10/09 A3013 RMK AO2
     RAE24 SLP203 P0000 T01000094

2001/11/05 09:53
KWVI 050953Z AUTO 00000KT 1/4SM FG VV001 09/09 A3007 RMK AO2
     SLP181 T00940094

2001/11/05 09:53
KXNA 050953Z AUTO 00000KT M1/4SM FG BKN001 OVC007 09/09 A3029 RMK
     AO2 SLP252 T00890089

2001/11/05 09:52
KSDB 050952Z AUTO 33013KT 10SM CLR 13/05 A3012 RMK AO2 SLP164
     T01280050 TSNO

2001/11/05 09:52
KVTN 050952Z AUTO 00000KT 10SM CLR 07/05 A3009 RMK AO2 SLP185
     T00670050

2001/11/05 09:52
KSPS 050952Z AUTO 07003KT 3/4SM OVC039 14/14 A3028 RMK AO2 SLP245
     T01390139

2001/11/05 09:52
KMFD 050952Z 34005KT 10SM CLR M01/M02 A3028 RMK AO2 SLP262
     T10061022

2001/11/05 09:52
KTOL 050952Z 35005KT 10SM CLR 02/M02 A3034 RMK AO2 SLP277
     T00171022

2001/11/05 09:52
KREO 050952Z AUTO 17008KT 05/M04 A3006 RMK AO2 SLP168 T00501044
     PWINO TSNO $

2001/11/05 09:52
KN60 050952Z AUTO 00000KT 03/00 A2992 RMK AO2 SLP136 T00330000
     PWINO TSNO $

2001/11/05 09:53
KSJT 050953Z 00000KT 9SM CLR 12/11 A3028 RMK AO2 SLP241
     T01220111

2001/11/05 09:53
KILM 050953Z 00000KT 10SM CLR 07/06 A3005 RMK AO2 SLP176
     T00720061

2001/11/05 09:53
KMAF 050953Z 00000KT 10SM CLR 12/10 A3030 RMK AO2 SLP229
     T01170100

2001/11/05 09:52
KCZZ 050952Z AUTO 07007KT 09/07 A2998 RMK AO2 SLP128 T00890072
     PWINO TSNO

2001/11/05 09:52
KBLU 050952Z AUTO 00000KT 10SM CLR 11/01 A3020 RMK AO2 SLP163
     T01060011 TSNO

2001/11/05 09:53
KSTL 050953Z 11003KT 10SM CLR 08/04 A3033 RMK AO2 SLP266
     T00780039

2001/11/05 09:52
KABI 050952Z 13004KT 1/2SM FG VV001 14/14 A3029 RMK AO2 SLP243
     T01390139 RVRNO

2001/11/05 09:52
KALS 050952Z AUTO 00000KT 10SM CLR M04/M08 A3041 RMK AO2 SLP269
     T10441083

2001/11/05 09:52
KOKC 050952Z 12003KT 3SM R35R/2600V6000FT BR FEW032 13/13 A3029
     RMK AO2 SLP248 T01330133

2001/11/05 09:53
KAMA 050953Z 20010KT 3/4SM BR BKN001 OVC006 11/11 A3032 RMK AO2
     SLP238 T01110111

2001/11/05 09:52
KISN 050952Z 20005KT 10SM CLR M01/M05 A2990 RMK AO2 SLP135
     T10111050

2001/11/05 09:53
KCRQ 050953Z AUTO 22004KT 1 3/4SM BR CLR 16/14 A2995 RMK AO2
     SLP141 T01560144

2001/11/05 09:53
KDMN 050953Z AUTO 36005KT 10SM OVC100 14/08 A3023 RMK AO2 SLP180
     T01390078

2001/11/05 09:52
KP69 050952Z AUTO 00000KT 06/00 A3008 RMK AO2 SLP191 T00560000
     PWINO TSNO $

2001/11/05 09:53
KEMP 050953Z AUTO 00000KT 1/2SM FG CLR 07/07 A3029 RMK AO2 SLP255
     T00720072 $

2001/11/05 09:53
KFNB 050953Z AUTO 13003KT 10SM CLR 04/02 A3027 RMK AO2 SLP251
     T00390022 $

2001/11/05 09:53
KHLC 050953Z AUTO 00000KT 10SM CLR 06/05 A3023 RMK AO2 SLP230
     T00610050

2001/11/05 09:53
KHSI 050953Z AUTO 17008KT 10SM CLR 09/06 A3023 RMK AO2 SLP232
     T00940056

2001/11/05 09:53
KJLN 050953Z AUTO 00000KT 3SM BR CLR 09/09 A3028 RMK AO2 SLP251
     T00940094

2001/11/05 09:53
KLIT 050953Z 26003KT 7SM CLR 09/07 A3026 RMK AO2 SLP247
     T00890072

2001/11/05 09:53
KDAB 050953Z 36012G20KT 10SM FEW030 21/18 A2988 RMK AO2 SLP118
     T02110183

2001/11/05 09:53
KGNT 050953Z AUTO 00000KT 06/02 A3035 RMK AO2 SLP219 T00610017
     PWINO TSNO

2001/11/05 09:53
KSAT 050953Z 00000KT 10SM CLR 16/14 A3024 RMK AO2 SLP225
     T01560144

2001/11/05 09:53
KBNA 050953Z 35003KT 10SM CLR 11/06 A3023 RMK AO2 SLP235
     T01060056

2001/11/05 09:53
KOQT 050953Z AUTO 00000KT 10SM CLR A3021 RMK AO2 SLPNO TSNO $

2001/11/05 09:53
KTUP 050953Z AUTO 00000KT 10SM CLR 08/05 A3022 RMK AO2 SLP230
     T00780050 $

2001/11/05 09:53
KTRI 050953Z 00000KT 10SM CLR 01/00 A3020 RMK AO2 SLP225
     T00110000

2001/11/05 09:53
KMCN 050953Z 28005KT 10SM CLR 06/04 A3010 RMK AO2 SLP190
     T00610039

2001/11/05 09:53
KDTS 050953Z AUTO 01007KT 10SM CLR 18/09 A3004 RMK AO2 SLP172
     T01780089

2001/11/05 09:53
PHNL 050953Z 06009KT 10SM FEW031 24/19 A3003 RMK AO2 SLP169
     T02440194 402940239

2001/11/05 09:53
PHKO 050953Z AUTO 00000KT 10SM CLR 25/21 A2998 RMK AO2 SLP152
     T02500211 402940239 TSNO

2001/11/05 09:53
PHLI 050953Z AUTO 05015KT 10SM SCT046 SCT055 BKN085 24/19 A3008
     RMK AO2 RAE02 SLP183 P0000 T02440189 402780233 TSNO

2001/11/05 09:53
KLND 050953Z AUTO 36004KT 10SM CLR 06/M08 A3015 RMK AO2 SLP178
     T00611078

2001/11/05 09:53
KMWT 050953Z AUTO 00000KT 10SM CLR 06/05 A3026 RMK AO2 SLP244
     T00560050 TSNO

2001/11/05 09:53
KRNM 050953Z AUTO 20003KT 1/4SM FG BKN001 BKN017 12/12 A2999 RMK
     AO2 SLP144 T01220122 TSNO

2001/11/05 09:53
KEYW 050953Z 02017KT 10SM FEW024 SCT100 22/18 A2966 RMK AO2 PK WND
     01028/0922 SLP041 T02170178

2001/11/05 09:53
KMCI 050953Z 18003KT 1SM R19R/2800VP6000FT BR BKN001 OVC006 08/08
     A3030 RMK AO2 SLP257 P0001 T00780078

2001/11/05 09:53
KNAK 050953Z AUTO 31007KT 10SM CLR 09/M03 A3010 RMK AO2 SLP193
     T00941028 TSNO

2001/11/05 09:53
KUIL 050953Z AUTO 07004KT 10SM FEW036 SCT050 OVC065 03/03 A3013
     RMK AO2 SLP204 T00280028 TSNO

2001/11/05 09:54
KBOS 050954Z 30009KT 10SM FEW027 OVC034 07/06 A2983 RMK AO2 SLP100
     T00720061 $

2001/11/05 09:53
KCQC 050953Z AUTO 00000KT 10SM CLR 06/05 A3038 RMK AO2 SLP235
     T00610050 TSNO

2001/11/05 09:53
KMSN 050953Z 00000KT 10SM CLR M02/M03 A3036 RMK AO2 SLP286
     T10221033

2001/11/05 09:53
KBNO 050953Z AUTO 00000KT 10SM CLR M02/M04 A3008 RMK AO2 SLP184
     T10171039 TSNO $

2001/11/05 09:53
KTYS 050953Z 00000KT 10SM CLR 05/03 A3018 RMK AO2 SLP218
     T00500033

2001/11/05 09:53
KDRT 050953Z AUTO 00000KT 10SM OVC080 17/12 A3023 RMK AO2 SLP223
     T01670117 TSNO

2001/11/05 09:53
KIAH 050953Z 00000KT 10SM CLR 12/11 A3020 RMK AO2 SLP225
     T01220111

2001/11/05 09:53
KSAV 050953Z 36008KT 10SM CLR 11/07 A3005 RMK AO2 SLP175
     T01110072

2001/11/05 09:53
KAPN 050953Z AUTO 27006KT 10SM CLR M01/M02 A3035 RMK AO2 SLP284
     T10061017

2001/11/05 09:53
KFNT 050953Z 30005KT 10SM CLR M01/M03 A3035 RMK AO2 SLP283
     T10111028

2001/11/05 09:53
KMGM 050953Z 01008KT 10SM CLR 12/05 A3012 RMK AO2 SLP199
     T01220050

2001/11/05 09:53
KPBI 050953Z 04015KT 7SM -RA BKN020 OVC050 21/18 A2970 RMK AO2 PK
     WND 06030/0932 SLP056 P0012 T02110183

2001/11/05 09:53
KRQE 050953Z AUTO 00000KT 10SM CLR 04/00 A3033 RMK AO2 SLP194
     T00440000 TSNO

2001/11/05 09:53
KP68 050953Z AUTO 00000KT 06/00 A3018 RMK AO2 SLP168 T00610000
     PWINO TSNO $

2001/11/05 09:53
PABE 050953Z 00000KT 4SM BCFG CLR M17/M17 A3011 RMK AO2 SLP199
     T11671172

2001/11/05 09:53
PABT 050953Z 31004KT 10SM BKN080 M13/M18 A3009 RMK AO2 SLP211
     T11281178

2001/11/05 09:53
PACD 050953Z 34007KT 10SM OVC032 M01/M05 A3008 RMK AO2 SLP186
     T10111050

2001/11/05 09:53
PADQ 050953Z 29004KT 10SM OVC031 01/M04 A2983 RMK AO2 SLP103
     T00061044

2001/11/05 09:53
PAFA 050953Z 00000KT 10SM BKN050 OVC080 M12/M16 A3002 RMK AO2
     SLP179 T11221161

2001/11/05 09:53
PAHO 050953Z 03003KT 10SM FEW050 M05/M05 A2982 RMK AO2 SLP100 SPIT
     WIND 06011KT T10501050

2001/11/05 09:53
PAJN 050953Z 13010KT 10SM -RA SCT028 BKN039 OVC048 03/00 A2981 RMK
     AO2 RAB35 SLP094 P0000 T00280000

2001/11/05 09:53
PAMC 050953Z 28003KT 10SM CLR M19/M21 A3005 RMK AO2 SLP187
     T11941206

2001/11/05 09:53
PANC 050953Z 04003KT 10SM FEW005 SCT021 BKN050 M04/M06 A2983 RMK
     AO2 SLP103 T10391056

2001/11/05 09:53
PANN 050953Z AUTO 00000KT 10SM OVC030 M19/M21 A3001 RMK AO2 SLP175
     T11891211 TSNO

2001/11/05 09:53
PANT 050953Z 19006KT 10SM SCT025 BKN036 OVC080 06/02 A2988 RMK AO2
     SLP120 T00560017

2001/11/05 09:53
PAOM 050953Z 03004KT 10SM SCT085 M15/M17 A3008 RMK AO2 SLP187
     T11501172 $

2001/11/05 09:53
PAOR 050953Z 31004KT 5SM -SN BR BKN050 OVC060 M12/M13 A2983 RMK
     AO2 SLP150 P0000 T11171128

2001/11/05 09:53
PAOT 050953Z 10012KT 10SM CLR M19/M22 A3013 RMK AO2 SLP203
     T11891217

2001/11/05 09:53
PAQT 050953Z AUTO 06005KT 9SM OVC013 M24/M26 A3028 RMK AO2 SLP255
     T12441261 TSNO

2001/11/05 09:53
KTPA 050953Z 02011G17KT 10SM FEW020 SCT130 OVC250 21/18 A2985 RMK
     AO2 SLP106 T02060178

2001/11/05 09:53
KCUT 050953Z AUTO 24009KT 10SM 11/M07 A3011 RMK AO2 SLP139
     T01111067 TSNO $

2001/11/05 09:53
PHJR 050953Z AUTO 05007KT 10SM CLR 24/18 A3004 RMK AO2 SLP179
     T02390183 403000228 TSNO

2001/11/05 09:53
KAHN 050953Z 30004KT 10SM CLR 07/02 A3013 RMK AO2 SLP200
     T00670022

2001/11/05 09:53
PAAQ 050953Z AUTO 00000KT 1/4SM FZFG VV001 M06/M07 A2984 RMK AO2
     SLP105 T10561067 TSNO

2001/11/05 09:53
PABR 050953Z 15008KT 10SM OVC011 M22/M23 A3024 RMK AO2 SLP242
     T12171233 $

2001/11/05 09:53
PACV 050953Z 00000KT 8SM BKN050 BKN150 M02/M03 A2982 RMK AO2
     SLP097 T10171028

2001/11/05 09:53
PADE 050953Z AUTO 00000KT 10SM CLR M18/M21 A3011 RMK AO2 SLP195
     T11781211 TSNO

2001/11/05 09:53
PAEG 050953Z AUTO 00000KT 10SM FEW035 OVC080 M15/M17 A2997 RMK AO2
     SLP172 T11501172 TSNO

2001/11/05 09:53
PAEN 050953Z AUTO 08003KT 10SM OVC019 M04/M04 A2985 RMK AO2
     SNB0857E07 SLP110 P0000 T10391044 TSNO

2001/11/05 09:53
PAGK 050953Z AUTO 00000KT 10SM OVC011 M12/M13 A2977 RMK AO2 SLP124
     T11221133 TSNO

2001/11/05 09:53
PAGY 050953Z AUTO 00000KT 10SM BKN085 OVC100 01/M03 A2985 RMK AO2
     SLP107 T00061028 TSNO

2001/11/05 09:53
PAIL 050953Z AUTO 32006KT 10SM CLR M13/M16 A2992 RMK AO2 SLP139
     T11281156 TSNO

2001/11/05 09:53
PAKV 050953Z AUTO 23003KT 10SM CLR M24/M27 A3015 RMK AO2 SLP218
     T12391267 TSNO

2001/11/05 09:53
PALH 050953Z 00000KT 8SM OVC060 M05/M06 A2985 RMK AO2 SLP110
     T10501061

2001/11/05 09:53
PAMR 050953Z 12003KT 1/2SM FZFG VV003 M05/M06 A2984 RMK AO2 SLP106
     T10501056

2001/11/05 09:53
PAPB 050953Z AUTO 12015KT 10SM FEW030 BKN036 02/M02 A2994 RMK AO2
     SLP127 T00221022 TSNO

2001/11/05 09:53
PASC 050953Z 36005KT 10SM -SN BR OVC013 M16/M18 A3026 RMK AO2
     SLP249 P0000 T11611183 $

2001/11/05 09:53
KFSM 050953Z 00000KT 9SM CLR 11/11 A3027 RMK AO2 SLP248
     T01110111

2001/11/05 09:53
PASI 050953Z 10015KT 9SM -SN SCT033 BKN040 OVC090 03/01 A2976 RMK
     AO2 RAB03E06 SLP077 P0000 T00330006

2001/11/05 09:53
PASO 050953Z AUTO 00000KT 10SM BKN018 M03/M04 A2981 RMK AO2 SLP096
     T10331039 TSNO

2001/11/05 09:53
PATO 050953Z AUTO 00000KT 3/4SM -SN BR OVC001 M01/M01 A2982 RMK
     AO2 SNB05 SLP099 P0001 T10061006 TSNO

2001/11/05 09:53
PAVL 050953Z AUTO 06010KT 10SM CLR M17/M21 A3010 RMK AO2 SLP193
     T11721206 TSNO

2001/11/05 09:53
PAWD 050953Z AUTO 35012KT 10SM OVC055 M02/M06 A2981 RMK AO2 SLP093
     T10221061 TSNO

2001/11/05 09:53
PAWI 050953Z AUTO 13015KT 10SM CLR M21/M23 A3013 RMK AO2 SLP203
     T12111228 TSNO

2001/11/05 09:53
PHJR 050953Z AUTO 05007KT 10SM CLR 24/18 A3004 RMK AO2 SLP179
     T02390183 403000228 TSNO

2001/11/05 09:53
KBPT 050953Z AUTO 02007KT 10SM CLR 13/08 A3018 RMK AO2 SLP218
     T01330083 $

2001/11/05 09:54
KALO 050954Z 11004KT 10SM CLR 01/M01 A3032 RMK AO2 SLP269
     T00061011

2001/11/05 09:46
KFOA 050946Z AUTO 36004KT 10SM 05/M02 A3032 RMK AO2

2001/11/05 09:45
KC75 050945Z AUTO 00000KT 10SM CLR 00/M01 A3035 RMK AO1

2001/11/05 09:48
KVYS 050948Z AUTO 07003KT 10SM CLR 01/M01 A3034 RMK AO1

2001/11/05 09:54
KAVL 050954Z AUTO 36007KT 10SM CLR 10/01 A3015 RMK AO2 SLP198
     T01000011

2001/11/05 09:53
KCPR 050953Z AUTO 24011G19KT 10SM CLR 10/M06 A3015 RMK AO2 SLP166
     T01001056

2001/11/05 09:54
KEUG 050954Z AUTO 27005KT 9SM FEW006 BKN022 OVC030 12/11 A3015 RMK
     AO2 RAB0859E52 SLP210 P0002 T01170106

2001/11/05 09:53
KGFL 050953Z AUTO 00000KT 10SM BKN039 OVC046 04/01 A2994 RMK AO2
     SLP143 T00390006

2001/11/05 09:54
KOLM 050954Z AUTO 00000KT 10SM SCT100 06/06 A3014 RMK AO2 SLP206
     T00610056

2001/11/05 09:53
KSHR 050953Z AUTO 36007KT 10SM CLR M01/M07 A3000 RMK AO2 SLP157
     T10061072

2001/11/05 09:54
KBFL 050954Z 07008KT 2 1/2SM HZ CLR 16/12 A3003 RMK AO2 SLP165
     T01560117

2001/11/05 09:54
KRBL 050954Z AUTO 31005KT 10SM CLR 09/07 A3005 RMK AO2 SLP172
     T00940072

2001/11/05 09:53
KHLN 050953Z AUTO 00000KT 10SM CLR 02/M04 A3001 RMK AO2 SLP176
     T00221039

2001/11/05 09:53
KACK 050953Z AUTO 35004KT 10SM FEW046 SCT060 OVC090 08/07 A2981
     RMK AO2 RAE47 SLP096 P0004 T00780067 TSNO

2001/11/05 09:53
KADG 050953Z AUTO 34005KT 10SM CLR 01/M03 A3035 RMK AO2 SLP284
     T00061028

2001/11/05 09:50
KAEG 050950Z AUTO 00000KT FEW060 BKN090 10/05 A3034 RMK A01
     P000

2001/11/05 09:53
KAEX 050953Z 33003KT 10SM CLR 09/07 A3018 RMK AO2 SLP223
     T00940067

2001/11/05 09:53
KAGC 050953Z 32006KT 10SM CLR 03/01 A3021 RMK AO2 SLP238 T00330011
     $

2001/11/05 09:53
KAIA 050953Z AUTO 21003KT 2 1/2SM BR FEW001 M04/M04 A3013 RMK AO2
     SLP199 T10391044 $

2001/11/05 09:45
KAIO 050945Z AUTO 00000KT 10SM CLR 00/M02 A3028 RMK AO1

2001/11/05 09:55
KAIZ 050955Z AUTO 00000KT 1/2SM OVC001 09/08 A3031 RMK AO1

2001/11/05 09:54
KAKH 050954Z AUTO 00000KT 10SM CLR 06/03 A3011 RMK AO2 SLP194
     T00560028

2001/11/05 09:53
KALI 050953Z AUTO 36006KT 10SM CLR 16/13 A3017 RMK AO2 SLP216
     T01610128 $

2001/11/05 09:53
KAMG 050953Z AUTO VRB03KT 10SM CLR 12/07 A3004 RMK AO2 SLP171
     T01220072

2001/11/05 09:53
KANB 050953Z 00000KT 10SM CLR 04/04 A3017 RMK AO2 SLP219
     T00390039

2001/11/05 09:53
KAOH 050953Z AUTO 35004KT 10SM CLR 01/M02 A3035 RMK AO2 SLP281
     T00111022

2001/11/05 09:53
KAOO 050953Z 32013KT 10SM SCT028 03/M02 A3015 RMK AO2 SLP215
     T00281017

2001/11/05 09:54
KAPC 050954Z AUTO 05003KT 10SM CLR 06/06 A3006 RMK AO2 SLP169
     T00610056

2001/11/05 09:55
KAPF 050955Z 02009G14KT 10SM FEW046 BKN055 BKN065 20/17 A2973 RMK
     AO1

2001/11/05 09:53
KARA 050953Z AUTO 36007KT 10SM CLR 12/07 A3015 RMK AO2 SLP207
     T01170067

2001/11/05 09:53
KARB 050953Z AUTO 31004KT 10SM M01/M03 A3034 RMK AO2 SLP279
     T10061033 $

2001/11/05 09:55
KARG 050955Z AUTO 01005KT 1SM CLR 09/06 A3026 RMK AO1

2001/11/05 09:53
KASD 050953Z AUTO 01005KT 10SM CLR 12/06 A3010 RMK AO2 SLP193
     T01170061

2001/11/05 09:53
KASE 050953Z AUTO 21004KT 10SM FEW090 01/M05 A3040 RMK AO2 SLP221
     T00061050 FZRANO

2001/11/05 09:53
KAUG 050953Z AUTO 09005KT 10SM BKN041 OVC050 08/06 A2979 RMK AO2
     SLP091 T00780056

2001/11/05 09:55
KAUO 050955Z AUTO 03007KT 10SM CLR 12/01 A3011 RMK AO1

2001/11/05 09:53
KAUS 050953Z 33003KT 8SM SCT080 15/14 A3023 RMK AO2 SLP230
     T01500139

2001/11/05 09:55
KAWO 050955Z AUTO 19003KT 10SM SCT017 OVC075 06/05 A3009 RMK
     AO1

2001/11/05 09:53
KBAF 050953Z AUTO 34011KT 10SM SCT046 06/01 A2987 RMK AO2 SLP119
     T00560011

2001/11/05 09:53
KBBW 050953Z AUTO 00000KT 10SM CLR 02/01 A3019 RMK AO2 SLP221
     T00220011

2001/11/05 09:53
KBCE 050953Z AUTO 00000KT 10SM OVC085 04/01 A3034 RMK AO2 SLP191
     T00440011 $

2001/11/05 09:53
KBFM 050953Z AUTO 35007KT 10SM FEW080 14/08 A3009 RMK AO2 SLP190
     T01440078 TSNO $

2001/11/05 09:53
KBGR 050953Z 08006KT 10SM FEW024 OVC070 07/02 A2984 RMK AO2 SLP103
     T00670022

2001/11/05 09:53
KBHK 050953Z AUTO 10003KT 10SM CLR M05/M08 A2996 RMK AO2 SLP148
     T10501083 $

2001/11/05 09:53
KBJJ 050953Z AUTO 32003KT 10SM CLR 01/M01 A3029 RMK AO2 SLP263
     T00111011

2001/11/05 09:53
KBKL 050953Z AUTO 36013KT 10SM FEW028 07/02 A3027 RMK AO2 SLP253
     T00670022

2001/11/05 09:53
KBKV 050953Z AUTO 01011KT 10SM BKN016 21/19 A2988 RMK AO2 SLP115
     T02060189

2001/11/05 09:55
KBLM 050955Z AUTO 10SM CLR 06/M01 RMK AO1

2001/11/05 09:53
KBMG 050953Z AUTO 05005KT 10SM CLR 04/M02 A3033 RMK AO2 SLP269
     T00441022

2001/11/05 09:53
KBMQ 050953Z AUTO 36004KT 7SM CLR 15/14 A3027 RMK AO2 SLP237
     T01500139

2001/11/05 09:53
KBPI 050953Z AUTO 00000KT 10SM CLR M06/M10 A3030 RMK AO2 SLP237
     T10611100 FZRANO

2001/11/05 09:53
KBTM 050953Z AUTO 17006KT 10SM CLR M04/M07 A3011 RMK AO2 SLP188
     T10391072 $

2001/11/05 09:54
KBUY 050954Z AUTO 31006KT 10SM CLR 08/02 A3010 RMK AO2 SLP190
     T00780017

2001/11/05 09:55
KBVX 050955Z AUTO 31005KT 10SM CLR 08/06 A3026 RMK AO1

2001/11/05 09:53
KBVY 050953Z AUTO 29005KT 10SM SCT028 OVC034 06/05 A2981 RMK AO2
     SLP092 T00560050

2001/11/05 09:53
KBYG 050953Z AUTO 11003KT 10SM CLR 07/M16 A3002 RMK AO2 SLP130
     T00721161 $

2001/11/05 09:53
KBYI 050953Z AUTO 36004KT 10SM CLR 07/M01 A3009 RMK AO2 SLP169
     T00721011

2001/11/05 09:53
KCDC 050953Z 21003KT 10SM BKN080 BKN110 08/02 A3022 RMK AO2 SLP196
     T00830017

2001/11/05 09:53
KCDS 050953Z AUTO 27004KT 1/4SM FG OVC002 11/11 A3030 RMK AO2
     SLP248 T01060106 TSNO $

2001/11/05 09:54
KCEU 050954Z AUTO 00000KT 10SM CLR 09/06 A3014 RMK AO2 SLP201
     T00940061

2001/11/05 09:53
KCEW 050953Z AUTO 01005KT 10SM CLR 14/07 A3007 RMK AO2 SLP182
     T01440072

2001/11/05 09:55
KCIU 050955Z AUTO 00000KT 10SM FEW035 M01/M03 A3034 RMK AO1

2001/11/05 09:53
KCKB 050953Z AUTO 35003KT 10SM CLR 04/01 A3022 RMK AO2 SLP230
     T00440006 $

2001/11/05 09:53
KLBB 050953Z 14006KT 1 1/2SM BR OVC001 13/13 A3031 RMK AO2 SLP235
     T01330133

2001/11/05 09:53
KFMN 050953Z AUTO 10011KT 10SM CLR 08/00 A3031 RMK AO2 SLP228
     T00830000 TSNO

2001/11/05 09:53
KSTC 050953Z AUTO 16009KT 10SM CLR 07/M01 A3017 RMK AO2 SLP229
     T00671006

2001/11/05 09:53
KFAR 050953Z 17008KT 10SM CLR 07/02 A3000 RMK AO2 SLP162 T00720022
     $

2001/11/05 09:53
KMSP 050953Z 14006KT 10SM SCT250 06/M03 A3023 RMK AO2 SLP239
     T00611028

2001/11/05 09:53
KLCH 050953Z 02009KT 10SM CLR 14/08 A3016 RMK AO2 SLP222 T01440078
     $

2001/11/05 09:53
KBTR 050953Z 04006KT 10SM CLR 13/05 A3013 RMK AO2 SLP203
     T01330050

2001/11/05 09:53
KTLH 050953Z 00000KT 10SM SCT250 16/10 A3002 RMK AO2 SLP163
     T01560100

2001/11/05 09:54
KPUB 050954Z 28004KT 10SM CLR 00/M02 A3024 RMK AO2 SLP222
     T00001022

2001/11/05 09:53
KHSV 050953Z 35004KT 10SM CLR 09/03 A3022 RMK AO2 SLP230 T00890028
     $

2001/11/05 09:53
KCHA 050953Z 00000KT 10SM CLR 06/04 A3019 RMK AO2 SLP221
     T00610044

2001/11/05 09:53
K40J 050953Z AUTO 01009KT 16/13 A2998 RMK AO2 SLP152 T01560128
     PWINO TSNO $

2001/11/05 09:53
PASN 050953Z 14014KT 10SM SCT042 02/M01 A2992 RMK AO2 RAE00 SLP131
     P0000 T00221011

2001/11/05 09:53
PATK 050953Z AUTO 00000KT 10SM BKN039 BKN049 OVC055 M06/M07 A2983
     RMK AO2 SLP107 T10561067 TSNO

2001/11/05 09:53
PAYA 050953Z 00000KT 10SM CLR M03/M04 A2976 RMK AO2 SLP079
     T10331044

2001/11/05 09:53
KCTY 050953Z AUTO 03009KT 18/13 A2995 RMK AO2 SLP142 T01780133
     PWINO TSNO

2001/11/05 09:54
KBTV 050954Z 30008KT 10SM FEW020 SCT025 OVC032 04/02 A2991 RMK AO2
     SLP129 T00440017 $

2001/11/05 09:53
KRMG 050953Z AUTO 00000KT 10SM CLR 06/01 A3017 RMK AO2 SLP212
     T00560011 TSNO

2001/11/05 09:54
KSGF 050954Z 14004KT 1/4SM FG BKN001 BKN027 08/08 A3030 RMK AO2
     SLP258 T00830078

2001/11/05 09:56
K9V9 050956Z AUTO 15007KT 10/06 A3005 RMK AO2 SLP171 T01000056
     PWINO TSNO

2001/11/05 09:54
KJAN 050954Z 05007KT 10SM CLR 13/05 A3020 RMK AO2 SLP223
     T01280050

2001/11/05 09:53
KTCS 050953Z AUTO 00000KT 10SM FEW080 BKN095 13/06 A3028 RMK AO2
     SLP192 T01280061 TSNO

2001/11/05 09:53
KP92 050953Z AUTO VRB05KT 14/07 A3010 RMK AO2 SLP192 T01440072
     PWINO TSNO

2001/11/05 09:54
KDTW 050954Z 31005KT 10SM CLR 02/M03 A3034 RMK AO2 SLP277
     T00171028 $

2001/11/05 09:53
KCDR 050953Z AUTO 25005KT 10SM CLR 07/M03 A3008 RMK AO2 SLP181
     T00671028 $

2001/11/05 09:53
KCLL 050953Z AUTO 03005KT 10SM CLR 15/13 A3022 RMK AO2 SLP229
     T01500128

2001/11/05 09:53
KCNY 050953Z AUTO 00000KT 10SM BKN120 06/M08 A3023 RMK AO2 SLP214
     T00561083

2001/11/05 09:53
KDAL 050953Z 01003KT 10SM CLR 14/13 A3026 RMK AO2 SLP242
     T01440133

2001/11/05 09:55
KDVL 050955Z AUTO 00000KT 10SM CLR 07/01 A2992 RMK AO1

2001/11/05 09:51
KSAN 050951Z 03003KT 2 1/2SM BR SCT014 BKN040 17/17 A2996 RMK AO2
     RAE07 SLP146 P0001 T01720167

2001/11/05 09:53
K6R6 050953Z AUTO 03008KT 14/11 A3025 RMK AO2 SLP219 T01440106
     PWINO TSNO

2001/11/05 09:54
KCRW 050954Z 00000KT 10SM CLR 07/00 A3025 RMK AO2 SLP243
     T00670000

2001/11/05 09:54
KMQE 050954Z AUTO 30009KT 05/05 A2980 RMK AO2 SLP103 T00500050
     PWINO TSNO

2001/11/05 09:51
KNYC 050951Z AUTO 30007KT 280V350 10SM FEW100 07/02 A2998 RMK AO2
     SLP143 T00720022 TSNO FIBI NOT FOR AVIATION USE

2001/11/05 09:54
KDSM 050954Z 15005KT 10SM CLR 07/03 A3030 RMK AO2 SLP261 T00720028
     $

2001/11/05 09:54
KCOS 050954Z 02006KT 10SM CLR 04/M02 A3028 RMK AO2 SLP221
     T00391017

2001/11/05 09:53
KTUL 050953Z 00000KT 3SM BR CLR 11/11 A3028 RMK AO2 SLP251
     T01110111

2001/11/05 09:54
KBDR 050954Z AUTO 31008KT 10SM CLR 06/03 A2993 RMK AO2 SLP134
     T00560033 TSNO

2001/11/05 09:54
KPIA 050954Z 00000KT 10SM CLR 04/M01 A3036 RMK AO2 SLP284
     T00391006

2001/11/05 09:54
KORH 050954Z AUTO 29011KT 10SM OVC045 04/02 A2983 RMK AO2 SLP107
     T00390022 TSNO

2001/11/05 09:54
KRFD 050954Z 00000KT 7SM CLR 00/M01 A3038 RMK AO2 SLP291
     T00001011

2001/11/05 09:54
KACY 050954Z 28008KT 10SM CLR 04/02 A3002 RMK AO2 SLP163
     T00440022

2001/11/05 09:54
KMLF 050954Z AUTO 00000KT 10SM OVC100 09/M03 A3020 RMK AO2 SLP188
     T00891028 TSNO

2001/11/05 09:54
KGNR 050954Z AUTO 12004KT 05/00 A2982 RMK AO2 SLP107 T00500000
     PWINO TSNO $

2001/11/05 09:53
KCLM 050953Z AUTO 24013KT 10SM CLR 04/02 A3012 RMK AO2 SLP201
     T00440017

2001/11/05 09:45
KCNC 050945Z AUTO 14005KT 10SM CLR 08/03 A3030 RMK AO1

2001/11/05 09:55
KCOE 050955Z AUTO 16005KT 10SM CLR 06/05 A2995 RMK AO1

2001/11/05 09:53
KCOT 050953Z AUTO 04005KT 10SM CLR 17/12 A3021 RMK AO2 SLP221
     T01720122

2001/11/05 09:53
KCRS 050953Z AUTO 00000KT 1/4SM FG BKN003 OVC007 14/14 A3024 RMK
     AO2 SLP237 T01440144

2001/11/05 09:53
KCSM 050953Z AUTO 24005KT 1/4SM FG BKN001 11/10 A3031 RMK AO2
     SLP255 T01060100 $

2001/11/05 09:53
KCUB 050953Z AUTO 00000KT 10SM CLR 07/06 A3010 RMK AO2 SLP191
     T00720056 TSNO

2001/11/05 09:55
KCVO 050955Z AUTO 29005KT 10SM OVC041 12/08 A3014 RMK AO1

2001/11/05 09:55
KCWI 050955Z AUTO 10005KT 10SM CLR 01/M03 A3035 RMK AO1

2001/11/05 09:53
KCXO 050953Z AUTO 00000KT 10SM CLR 10/09 A3020 RMK AO2 SLP223
     T01000094

2001/11/05 09:53
KDEQ 050953Z AUTO 00000KT 1/2SM FG CLR 06/06 A3026 RMK AO2 SLP244
     T00610061

2001/11/05 09:53
KDET 050953Z AUTO 32004KT 10SM CLR 03/M03 A3034 RMK AO2 SLP278
     T00281028

2001/11/05 09:53
KDFI 050953Z AUTO 35004KT 10SM CLR M01/M03 A3037 RMK AO2 SLP289
     T10061033 $

2001/11/05 09:53
KDHN 050953Z AUTO 03007KT 10SM CLR 12/06 A3011 RMK AO2 SLP192
     T01220056

2001/11/05 09:53
KDKK 050953Z AUTO 33010KT 10SM FEW031 OVC045 05/M02 A3023 RMK AO2
     SLP241 T00501017

2001/11/05 09:53
KDLN 050953Z AUTO 15008KT 10SM CLR 01/M08 A3011 RMK AO2 SLP178
     T00061078

2001/11/05 09:53
KDRO 050953Z AUTO 00000KT 10SM CLR 03/M01 A3036 RMK AO2 SLP244
     T00281011

2001/11/05 09:53
KDTO 050953Z AUTO 00000KT 1/4SM FG SCT001 OVC005 12/12 A3027 RMK
     AO2 SLP246 P0001 T01170117

2001/11/05 09:54
KDVN 050954Z AUTO 15003KT 10SM CLR 00/M02 A3035 RMK AO2 SLP280
     T00001022 $

2001/11/05 09:53
KDWH 050953Z 00000KT 10SM CLR 14/11 A3019 RMK AO2 SLP222
     T01390106

2001/11/05 09:55
KDYR 050955Z AUTO 00000KT 10SM CLR 08/05 A3026 RMK AO1

2001/11/05 09:45
KEBS 050945Z AUTO 16008KT 10SM CLR 05/02 A3028 RMK AO1

2001/11/05 09:53
KEEO 050953Z AUTO 05004KT 10SM CLR M01/M06 A3033 RMK AO2 SLP227
     T10061056

2001/11/05 09:55
KEHR 050955Z AUTO 03004KT 3SM CLR 08/01 A3030 RMK AO1

2001/11/05 09:55
KESC 050955Z AUTO 30003KT 10SM CLR M04/M05 A3038 RMK AO1

2001/11/05 09:53
KESF 050953Z AUTO 00000KT 10SM CLR 11/08 A3020 RMK AO2 SLP226
     T01060078

2001/11/05 09:53
KEVW 050953Z AUTO 17006KT 10SM OVC110 07/M04 A3028 RMK AO2 SLP195
     T00721039

2001/11/05 09:54
KEWN 050954Z AUTO 00000KT 3/4SM BR VV001 07/07 A3005 RMK AO2
     SLP177 T00670067

2001/11/05 09:53
KEYE 050953Z AUTO 00000KT 10SM CLR 03/M02 A3033 RMK AO2 SLP270
     T00281022 $

2001/11/05 09:55
KFAM 050955Z AUTO 06004KT 6SM CLR 08/07 A3030 RMK AO1

2001/11/05 09:53
KFDR 050953Z AUTO 00000KT 2 1/2SM BR BKN022 BKN036 14/14 A3026 RMK
     AO2 SLP239 T01390139 $

2001/11/05 09:55
KTTS 050955Z 03009G16KT 8SM FEW090 OVC220 23/18 A2983 RMK 2AC 8CS
     (7) SLP101 8/077 9/028

2001/11/05 09:54
KEVV 050954Z AUTO 05005KT 10SM CLR 06/01 A3031 RMK AO2 SLP263
     T00610006 $

2001/11/05 09:53
KRTN 050953Z AUTO 36006KT 9SM CLR 03/03 A3036 RMK AO2 SLP232
     T00330033 TSNO

2001/11/05 09:50
KFET 050950Z AUTO 00000KT 10SM CLR 04/M01 A3024 RMK AO1

2001/11/05 09:53
KFFT 050953Z AUTO 02007KT 10SM CLR 07/M03 A3029 RMK AO2 SLP254
     T00671033 $

2001/11/05 09:53
KFLL 050953Z 03024G29KT 9SM -RA SCT022 SCT028 OVC046 22/18 A2963
     RMK AO2 PK WND 04032/0932 SLP033 P0009 T02170183

2001/11/05 09:55
KFLP 050955Z AUTO 00000KT 9SM OVC038 11/07 A3030 RMK AO1

2001/11/05 09:53
KFMY 050953Z AUTO 34007KT 10SM FEW010 20/20 A2975 RMK AO2 SLP077
     T02000200

2001/11/05 09:53
KFPR 050953Z AUTO 07011G18KT 4SM RA BR BKN033 BKN055 OVC090 21/19
     A2976 RMK AO2 PK WND 06027/0935 SLP076 P0009 T02060194

2001/11/05 09:53
KFVE 050953Z AUTO 35005KT 10SM OVC048 03/01 A2990 RMK AO2 SLP133
     T00330011

2001/11/05 09:53
KFXE 050953Z 04013G23KT 10SM -RA FEW025 OVC035 21/18 A2965 RMK AO2
     SLP041 P0005 T02110178

2001/11/05 09:55
KGAD 050955Z AUTO 31003KT 10SM CLR 06/01 A3018 RMK AO1

2001/11/05 09:54
KGCN 050954Z 00000KT 10SM -RA BKN065 BKN075 BKN100 09/00 A3030 RMK
     AO2 SLP192 P0000 T00940000 $

2001/11/05 09:54
PGUM 050954Z 07006KT 10SM CLR 26/24 A2987 RMK AO2 SLP109
     T02610239

2001/11/05 09:54
PTTP 050954Z VRB04KT 15SM FEW018 BKN300 24/24 A2985 RMK SLP106
     T02430236

2001/11/05 09:55
PKMR 050955Z 09005KT 15SM FEW014 SCT120 OVC300 28/24 A2982 RMK
     SLP102 T02780241

2001/11/05 09:54
KGED 050954Z AUTO 31007KT 10SM CLR 09/M06 A3006 RMK AO2 SLP179
     T00891056 $

2001/11/05 09:53
KGEY 050953Z AUTO 00000KT 10SM CLR M04/M09 A3010 RMK AO2 SLP198
     T10391094 FZRANO

2001/11/05 09:53
KGEZ 050953Z AUTO 00000KT 10SM CLR M01/M02 A3031 RMK AO2 SLP267
     T10061017

2001/11/05 09:53
KGIF 050953Z AUTO 02011KT 10SM FEW013 21/19 A2985 RMK AO2 SLP105
     T02060189

2001/11/05 09:53
KGKJ 050953Z AUTO 35004KT 10SM FEW027 02/00 A3021 RMK AO2 SLP238
     T00170000

2001/11/05 09:53
KGNV 050953Z 01009KT 9SM BKN110 19/16 A2994 RMK AO2 SLP135
     T01890161 $

2001/11/05 09:53
KGPT 050953Z AUTO 01007KT 10SM CLR 14/05 A3009 RMK AO2 SLP187
     T01440050

2001/11/05 09:55
KGTR 050955Z AUTO 00000KT 10SM CLR 05/02 A3021 RMK AO2 PWINO
     FZRANO RVRNO

2001/11/05 09:53
KGUP 050953Z AUTO 00000KT 10SM CLR 08/02 A3031 RMK AO2 SLP158
     T00830017

2001/11/05 09:53
KGZH 050953Z AUTO 35005KT 10SM CLR 13/04 A3010 RMK AO2 SLP190
     T01280044

2001/11/05 09:53
KHAO 050953Z AUTO 00000KT 10SM CLR M01/M02 A3033 RMK AO2 SLP275
     T10061022

2001/11/05 09:53
KHBG 050953Z AUTO 30004KT 10SM CLR 10/07 A3015 RMK AO2 SLP206
     T01000067

2001/11/05 09:55
KHEF 050955Z 32011KT 10SM CLR 08/M04 A3017 RMK AO2 PWINO FZRANO
     RVRNO

2001/11/05 09:55
KHEZ 050955Z AUTO 36004KT 10SM CLR 08/06 A3016 RMK AO1

2001/11/05 09:53
KHFD 050953Z AUTO 33009KT 10SM BKN036 07/02 A2990 RMK AO2 SLP126
     T00670017

2001/11/05 09:55
KHNB 050955Z AUTO 05007KT 10SM CLR 07/M03 A3030 RMK AO1

2001/11/05 09:45
KHNR 050945Z AUTO 00000KT 10SM CLR 02/M01 A3030 RMK AO1

2001/11/05 09:53
KHOU 050953Z 03006KT 10SM CLR 15/09 A3018 RMK AO2 SLP225
     T01500094

2001/11/05 09:53
KHRL 050953Z AUTO 32005KT 10SM BKN050 17/14 A3014 RMK AO2 SLP206
     T01670144 $

2001/11/05 09:53
KHUF 050953Z 06004KT 10SM CLR 01/M03 A3035 RMK AO2 SLP277
     T00111033

2001/11/05 09:53
KHUL 050953Z AUTO 01003KT 10SM OVC055 04/02 A2987 RMK AO2 SLP121
     T00390022

2001/11/05 09:54
KHWD 050954Z 07003KT 10SM CLR 11/10 A3006 RMK AO2 SLP188
     T01110100

2001/11/05 09:53
KHWO 050953Z AUTO 04014G21KT 10SM -RA FEW022 BKN029 OVC048 22/19
     A2965 RMK AO2 SLP040 P0007 T02170194

2001/11/05 09:54
KCAR 050954Z AUTO 34003KT 10SM OVC050 04/03 A2989 RMK AO2 SLP129
     T00390028

2001/11/05 09:54
KILN 050954Z AUTO 36006KT 10SM CLR 01/M03 A3030 RMK AO2 SLP273
     T00111033 TSNO

2001/11/05 09:55
KIND 050955Z 06005KT 10SM CLR 03/M02 A3033 RMK AO2 SLP273
     T00331022

2001/11/05 09:54
KFWA 050954Z 02006KT 10SM CLR 01/M03 A3035 RMK AO2 SLP282
     T00111033 $

2001/11/05 09:54
KMTP 050954Z AUTO 32012KT 09/04 A2989 RMK AO2 SLP119 T00890039
     PWINO TSNO

2001/11/05 09:54
KSBN 050954Z 04003KT 10SM CLR M01/M03 A3037 RMK AO2 SLP292
     T10061028

2001/11/05 09:54
KDAY 050954Z 01006KT 10SM CLR 01/M02 A3033 RMK AO2 SLP274
     T00111017

2001/11/05 09:53
KCAO 050953Z AUTO 24010KT 10SM CLR 09/08 A3030 RMK AO2 SLP222
     T00940078 TSNO

2001/11/05 09:54
KWAL 050954Z AUTO 34018G23KT 10SM CLR 11/M03 A3004 RMK AO2 SLP168
     T01061028 TSNO

2001/11/05 09:54
KSYR 050954Z 31013KT 10SM FEW029 BKN038 OVC045 05/00 A3008 RMK AO2
     RAB41E51 SLP185 P0000 T00500000

2001/11/05 09:54
KGSO 050954Z 34004KT 10SM CLR 11/03 A3011 RMK AO2 SLP192
     T01110028

2001/11/05 09:53
KROW 050953Z AUTO 12005KT 10SM BKN080 14/14 A3030 RMK AO2 SLP217
     T01440144 TSNO

2001/11/05 09:54
KBFF 050954Z AUTO 00000KT 9SM CLR 01/M01 A3016 RMK AO2 SLP195
     T00111011

2001/11/05 09:53
KATL 050953Z 31004KT 10SM CLR 08/03 A3013 RMK AO2 SLP200
     T00830028

2001/11/05 09:54
KAVP 050954Z 33011KT 10SM SCT017 BKN022 BKN070 03/01 A3005 RMK AO2
     SLP173 T00330011

2001/11/05 09:54
KROA 050954Z 34009KT 10SM CLR 10/01 A3013 RMK AO2 SLP199 T01000011
     $

2001/11/05 09:55
KGSP 050955Z 00000KT 10SM CLR 11/02 A3011 RMK AO2 SLP191
     T01060022

2001/11/05 09:53
KGUY 050953Z AUTO 20012KT 6SM BR FEW004 11/10 A3026 RMK AO2 SLP221
     T01110100 TSNO

2001/11/05 09:54
KROC 050954Z 30009KT 10SM SCT026 OVC040 03/00 A3015 RMK AO2 SLP215
     T00330000

2001/11/05 09:54
KPHL 050954Z 32016G19KT 10SM CLR 09/M01 A3005 RMK AO2 SLP175
     T00891011 $

2001/11/05 09:54
KLEX 050954Z 02004KT 10SM CLR 05/M02 A3028 RMK AO2 SLP256
     T00501022

2001/11/05 09:54
KCOU 050954Z 07007KT 8SM BR CLR 07/07 A3031 RMK AO2 SLP264
     T00720070 $

2001/11/05 09:53
KMCO 050953Z 01015G21KT 10SM FEW012 SCT090 OVC250 20/19 A2984 RMK
     AO2 SLP103 T02000189

2001/11/05 09:54
KLNK 050954Z 00000KT 10SM CLR 02/M01 A3027 RMK AO2 SLP250
     T00171006

2001/11/05 09:54
KBWI 050954Z 28007KT 10SM CLR 06/M05 A3011 RMK AO2 SLP196
     T00561050

2001/11/05 09:54
KBUF 050954Z 32008KT 10SM OVC041 03/M01 A3020 RMK AO2 SLP232
     T00331006

2001/11/05 09:54
K12N 050954Z AUTO 00000KT 04/01 A3000 RMK AO2 SLP164 T00440011
     PWINO TSNO

2001/11/05 09:54
KRIC 050954Z 01014G23KT 10SM CLR 10/M01 A3010 RMK AO2 SLP199
     T01001006 $

2001/11/05 09:54
KLYH 050954Z AUTO VRB04KT 10SM CLR 08/02 A3012 RMK AO2 SLP199
     T00830022 TSNO

2001/11/05 09:54
KPNE 050954Z AUTO 30010KT 10SM CLR 08/01 A3004 RMK AO2 SLP171
     T00780006 TSNO

2001/11/05 09:54
KAKQ 050954Z AUTO 00000KT CLR 04/02 A3008 RMK AO2 SLP188 T00390017
     TSNO $

2001/11/05 09:53
KMSY 050953Z 04014KT 10SM FEW060 17/07 A3009 RMK AO2 SLP192
     T01670072 $

2001/11/05 09:54
KDMH 050954Z AUTO 09/M06 A3011 RMK AO2 SLP194 T00891056 PWINO
     TSNO

2001/11/05 09:54
KOFK 050954Z AUTO 20013KT 10SM CLR 09/01 A3020 RMK AO2 SLP224
     T00940011

2001/11/05 09:56
KBOI 050956Z 00000KT 10SM CLR 05/M01 A3006 RMK AO2 SLP175
     T00501006

2001/11/05 09:53
PABI 050953Z AUTO 23003KT 10SM SCT009 OVC100 M16/M17 A2995 RMK AO2
     SLP187 T11561167 TSNO

2001/11/05 09:54
KECG 050954Z AUTO 31009KT 8SM CLR 09/08 A3004 RMK AO2 SLP173
     T00940078

2001/11/05 09:55
KADW 050955Z 29009KT 7SM SKC 08/M05 A3012 RMK WND DATA ESTMD
     SLP203

2001/11/05 09:55
KBKF 050955Z 19009KT 25SM SKC 07/M02 A3024 RMK SLP195

2001/11/05 09:55
KCBM 050955Z 35006KT 7SM FEW250 07/04 A3021 RMK SLP231 8/001
     9/001

2001/11/05 09:55
KCOF 050955Z 04020KT 5SM HZ FEW030 SCT100 OVC240 24/19 A2980 RMK
     SLP093 8/177 9/228 WR//

2001/11/05 09:55
KGRF 050955Z 16001KT 7SM FEW010 BKN021 BKN080 09/07 A3013 RMK CIG
     RGD SLP208 8/570 9/530 WR//

2001/11/05 09:55
KGRK 050955Z 30004KT 7SM SKC 15/14 A3020 RMK SLP219

2001/11/05 09:55
KGUS 050955Z 03005KT 7SM SKC 03/M03 A3035 RMK SLP287

2001/11/05 09:55
KHOP 050955Z 03006KT 7SM SKC 11/06 A3025 RMK SLP245

2001/11/05 09:55
KNHZ 050955Z 00000KT 7SM OVC050 08/07 A2978 RMK SLP086
     T00830072

2001/11/05 09:55
KNKT 050955Z 00000KT 1/4SM FG BKN000 07/00 A3005 RMK FG BKN000
     SLP171 T00720000

2001/11/05 09:55
KOFF 050955Z 16002KT 7SM SKC 06/02 A3026 RMK SLP249

2001/11/05 09:55
KOZR 050955Z 03007KT 7SM SKC 13/04 A3008 RMK SLP185

2001/11/05 09:55
KSKF 050955Z 35003KT 7SM SKC 16/15 A3022 RMK SLP229

2001/11/05 09:55
KSZL 050955Z VRB01KT 1/8SM R01/M1000FT FG VV001 10/07 A3031 RMK
     SLP264

2001/11/05 09:55
KVAD 050955Z 03006KT 7SM OVC250 14/08 A3000 RMK SLP158 8/007
     9/008

2001/11/05 09:52
PJON 050952Z 07011KT 10SM FEW020 27/23 A2996 RMK SLP146

2001/11/05 09:54
KOKC 050954Z 12003KT 3SM R35R/2600V5500FT BR SCT001 BKN029 13/13
     A3029 RMK AO2

2001/11/05 09:53
KHZY 050953Z AUTO 01006KT 10SM SCT050 05/00 A3025 RMK AO2 SLP247
     T00500000

2001/11/05 09:53
KIAG 050953Z 32013KT 10SM OVC042 04/M03 A3021 RMK AO2 SLP239
     T00391033

2001/11/05 09:53
KIDA 050953Z AUTO 36006KT 10SM CLR M02/M04 A3017 RMK AO2 SLP214
     T10171044

2001/11/05 09:53
KINK 050953Z AUTO 09007KT 10SM CLR 14/11 A3027 RMK AO2 SLP219
     T01390111

2001/11/05 09:54
KINT 050954Z AUTO 30006KT 10SM CLR 12/03 A3012 RMK AO2 SLP196
     T01170028

2001/11/05 09:53
KITR 050953Z AUTO 21008KT 2 1/2SM BR CLR 03/03 A3021 RMK AO2
     SLP211 T00330028 $

2001/11/05 09:55
KIWD 050955Z AUTO 19006KT 10SM CLR 04/M09 A3023 RMK AO1

2001/11/05 09:53
KIWI 050953Z AUTO VRB04KT 10SM BKN013 BKN024 OVC038 09/07 A2979
     RMK AO2 SLP087 T00890072

2001/11/05 09:53
KJER 050953Z AUTO 04013KT 10SM CLR 05/M02 A3010 RMK AO2 SLP177
     T00501022 $

2001/11/05 09:55
KKLS 050955Z AUTO 33004KT 10SM OVC017 09/07 A3014 RMK AO1

2001/11/05 09:53
KLAA 050953Z AUTO 26005KT 8SM CLR 06/06 A3023 RMK AO2 SLP212
     T00610056

2001/11/05 09:54
KLAF 050954Z 33003KT 10SM CLR 01/M02 A3035 RMK AO2 SLP279
     T00061017

2001/11/05 09:54
KLBT 050954Z AUTO 00000KT 4SM BR CLR 04/04 A3008 RMK AO2 SLP184
     T00440039

2001/11/05 09:53
KLBX 050953Z AUTO 01005KT 10SM CLR 13/11 A3018 RMK AO2 SLP220
     T01280111

2001/11/05 09:53
KLEB 050953Z AUTO 01003KT 10SM SCT030 03/02 A2986 RMK AO2 SLP116
     T00330022

2001/11/05 09:53
KLEE 050953Z AUTO 02015G22KT 10SM FEW080 21/18 A2988 RMK AO2
     SLP117 T02060178

2001/11/05 09:53
KLFK 050953Z AUTO 00000KT 10SM CLR 10/09 A3023 RMK AO2 SLP235
     T01000089

2001/11/05 09:53
KLFT 050953Z AUTO 36007KT 10SM CLR 13/06 A3015 RMK AO2 SLP208
     T01330061

2001/11/05 09:55
KLGD 050955Z AUTO 35005KT 10SM CLR 05/00 A3003 RMK AO1

2001/11/05 09:53
KLHQ 050953Z AUTO 35004KT 10SM CLR 00/M03 A3030 RMK AO2 SLP263
     T00001028

2001/11/05 09:55
KLKV 050955Z AUTO 33003KT 10SM CLR M03/M04 A3016 RMK AO1

2001/11/05 09:53
KLOU 050953Z 00000KT 10SM CLR 06/M01 A3030 RMK AO2 SLP260
     T00611006

2001/11/05 09:53
KLOZ 050953Z AUTO 00000KT 10SM CLR 07/03 A3024 RMK AO2 SLP237
     T00720028 TSNO

2001/11/05 09:55
KLPC 050955Z AUTO 00000KT M1/4SM OVC001 13/12 A3002 RMK AO1

2001/11/05 09:53
KLPR 050953Z AUTO 36007KT 10SM BKN033 06/00 A3029 RMK AO2 SLP260
     T00560000

2001/11/05 09:53
KLUK 050953Z AUTO 00000KT 10SM CLR 01/M01 A3034 RMK AO2 SLP274
     T00111006

2001/11/05 09:53
KLVJ 050953Z AUTO 02003KT 10SM CLR 14/11 A3020 RMK AO2 SLP225
     T01390106

2001/11/05 09:53
KLVM 050953Z AUTO 27017KT 10SM CLR 12/M06 A3005 RMK AO2 PK WND
     27027/0918 SLP145 T01221061

2001/11/05 09:53
KLWV 050953Z AUTO 04008KT 10SM CLR 05/M03 A3031 RMK AO2 SLP264
     T00501033 $

2001/11/05 09:50
KLXN 050950Z AUTO 00000KT 10SM CLR 07/05 A3019 RMK AO1

2001/11/05 09:53
KMAI 050953Z AUTO 02004KT 10SM CLR 14/06 A3005 RMK AO2 SLP175
     T01390056

2001/11/05 09:55
KMBL 050955Z AUTO 11003KT 10SM CLR M04/M05 A3037 RMK AO1

2001/11/05 09:53
KMBS 050953Z 32005KT 10SM FEW120 SCT250 M01/M03 A3037 RMK AO2
     SLP288 T10061028

2001/11/05 09:53
KMCB 050953Z AUTO 02007KT 10SM CLR 14/04 A3016 RMK AO2 SLP209
     T01440044

2001/11/05 09:53
KMCK 050953Z AUTO 00000KT 5SM BR CLR 07/06 A3020 RMK AO2 SLP219
     T00670061

2001/11/05 09:53
KMFE 050953Z AUTO 29003KT 10SM FEW055 15/12 A3016 RMK AO2 SLP212
     T01500122

2001/11/05 09:53
KMGY 050953Z AUTO 03008KT 10SM CLR 02/M02 A3031 RMK AO2 SLP265
     T00221022

2001/11/05 09:53
KMHT 050953Z 29004KT 10SM BKN035 BKN070 06/05 A2982 RMK AO2
     RAB00E46 SLP112 P0000 T00560050

2001/11/05 09:53
KMIE 050953Z AUTO 04005KT 10SM CLR 01/M03 A3033 RMK AO2 SLP270
     T00111033

2001/11/05 09:54
KMIV 050954Z 28005KT 10SM CLR 04/01 A3003 RMK AO2 SLP168
     T00440011

2001/11/05 09:53
KMKO 050953Z AUTO 00000KT 1/4SM FG VV001 12/12 A3030 RMK AO2
     SLP258 T01220122

2001/11/05 09:53
KMLC 050953Z AUTO 00000KT 1/4SM FG VV001 11/11 A3028 RMK AO2
     SLP250 T01060106

2001/11/05 09:53
KMLS 050953Z AUTO 14011KT 10SM CLR 00/M06 A2995 RMK AO2 SLP147
     T00001061

2001/11/05 09:55
KMNM 050955Z AUTO 00000KT 10SM CLR M04/M08 A3038 RMK AO1

2001/11/05 09:53
KMNN 050953Z AUTO 34005KT 10SM CLR 02/M03 A3031 RMK AO2 SLP269
     T00171028

2001/11/05 09:55
KMRF 050955Z AUTO 05009KT 10SM CLR 08/05 A3037 RMK AO1

2001/11/05 09:54
KMRY 050954Z AUTO 14003KT 6SM BR OVC004 11/11 A3007 RMK AO2 SLP193
     T01060106

2001/11/05 09:53
KMSS 050953Z AUTO 31012KT 10SM BKN028 OVC048 03/00 A2998 RMK AO2
     SLP157 T00330000

2001/11/05 09:53
KMTH 050953Z AUTO 05022G33KT 6SM -RA BR OVC032 21/19 A2957 RMK AO2
     PK WND 04037/0941 SLP012 P0006 T02110189

2001/11/05 09:53
KMTJ 050953Z AUTO 15005KT 10SM CLR 04/M03 A3032 RMK AO2 SLP224
     T00391028

2001/11/05 09:55
KMTW 050955Z AUTO 00000KT 10SM CLR M01/M02 A3035 RMK AO1

2001/11/05 09:55
KMVN 050955Z AUTO 00000KT 10SM CLR 02/M01 A3034 RMK AO1

2001/11/05 09:53
KMVY 050953Z AUTO 31006KT 10SM FEW020 BKN039 OVC120 07/06 A2983
     RMK AO2 SLP101 T00670056

2001/11/05 09:47
KMWA 050947Z AUTO 03003KT 10SM CLR 09/05 A3029 RMK AO2

2001/11/05 09:45
KMXO 050945Z AUTO 00000KT 7SM CLR M01/M04 A3034 RMK AO1

2001/11/05 09:55
KMYR 050955Z 34005KT 10SM CLR 09/03 A3003 RMK AO1 METAR KMYR
     050247Z 01005KT 10SM SKC 13/06 A3011

2001/11/05 09:53
KNEW 050953Z 05019KT 10SM CLR 18/09 A3009 RMK AO2 SLP187
     T01830089

2001/11/05 09:55
KOAJ 050955Z AUTO 00000KT 10SM CLR 03/02 A3006 RMK AO1

2001/11/05 09:55
KOCF 050955Z AUTO 03009G18KT 010V070 10SM FEW023 SCT033 BKN110
     19/17 A2991 RMK AO1

2001/11/05 09:53
KOGD 050953Z AUTO 31004KT 10SM BKN100 BKN120 09/M01 A3016 RMK AO2
     SLP188 T00891006

2001/11/05 09:53
KOLF 050953Z AUTO 00000KT 10SM CLR M06/M08 A2990 RMK AO2 SLP138
     T10561078

2001/11/05 09:54
KOLS 050954Z AUTO 04006KT 10SM -RA FEW050 SCT095 BKN120 16/11
     A3009 RMK AO2 TSB0857E12RAB02 SLP127 P0000 T01560106

2001/11/05 09:53
KOMK 050953Z AUTO 15005KT 8SM OVC017 08/07 A2993 RMK AO2 SLP139
     T00780067

2001/11/05 09:53
KONO 050953Z AUTO 00000KT 6SM BR CLR 02/00 A3008 RMK AO2 SLP193
     T00220000

2001/11/05 09:53
KONT 050953Z 12005KT 3SM BR CLR 14/14 A2999 RMK AO2 SLP147 BR
     FEW000 T01390139

2001/11/05 09:53
KOPF 050953Z AUTO 03011G20KT 10SM -RA FEW023 BKN042 OVC060 21/18
     A2963 RMK AO2 SLP035 P0008 T02110183

2001/11/05 09:53
KORL 050953Z 02010KT 7SM RA FEW055 BKN075 BKN090 20/19 A2986 RMK
     AO2 RAB40 SLP113 P0000 T02000189

2001/11/05 09:53
KOSU 050953Z AUTO 35007KT 10SM CLR 02/M02 A3030 RMK AO2 SLP263
     T00221022

2001/11/05 09:55
KOTG 050955Z AUTO 20011KT 10SM CLR 07/M01 A3019 RMK AO1

2001/11/05 09:55
KOTH 050955Z 33005KT 10SM FEW016 OVC049 11/10 A3023 RMK AO1
     SLP237

2001/11/05 09:53
KOTM 050953Z AUTO 16003KT 10SM CLR 04/02 A3032 RMK AO2 SLP267
     T00440017 $

2001/11/05 09:53
KOWD 050953Z AUTO 31004KT 10SM OVC038 06/05 A2983 RMK AO2 SLP099
     T00610050

2001/11/05 09:53
KPEO 050953Z AUTO 31012G18KT 10SM FEW026 SCT050 OVC060 03/01 A3010
     RMK AO2 SLP200 T00330006

2001/11/05 09:53
KPFN 050953Z AUTO 05006KT 10SM CLR 16/09 A3002 RMK AO2 SLP167
     T01610089 $

2001/11/05 09:53
KPGD 050953Z AUTO 03007KT 10SM BKN016 OVC024 21/19 A2979 RMK AO2
     SLP088 T02060189

2001/11/05 09:53
KPHD 050953Z AUTO 36005KT 10SM CLR 04/00 A3029 RMK AO2 SLP261
     T00390000

2001/11/05 09:54
KPHF 050954Z 02006KT 10SM CLR 10/M01 A3007 RMK AO2 SLP180
     T01001006 $

2001/11/05 09:55
KPIB 050955Z AUTO 35006KT 10SM CLR 12/03 A3014 RMK AO1

2001/11/05 09:53
KPIE 050953Z 01015G19KT 10SM CLR 21/18 A2985 RMK AO2 SLP106
     T02060178 $

2001/11/05 09:53
KPIL 050953Z AUTO 33007KT 10SM CLR 18/16 A3014 RMK AO2 SLP205
     T01780156

2001/11/05 09:53
KPKB 050953Z AUTO 34005KT 10SM CLR 06/M01 A3028 RMK AO2 SLP252
     T00561006

2001/11/05 09:53
KPMP 050953Z AUTO 04021G27KT 9SM -RA BKN026 22/18 A2965 RMK AO2 PK
     WND 05033/0922 SLP041 P0005 T02170178

2001/11/05 09:53
KPQL 050953Z AUTO 36008KT 10SM FEW080 13/07 A3009 RMK AO2 SLP189
     T01330067

2001/11/05 09:53
KPSX 050953Z AUTO 01006KT 9SM FEW080 12/12 A3018 RMK AO2 SLP218
     T01220122 $

2001/11/05 09:53
KPTK 050953Z 30005KT 10SM CLR 01/M03 A3032 RMK AO2 SLP274
     T00061028

2001/11/05 09:55
KPTN 050955Z AUTO 01008KT 10SM 13/M07 A3014 RMK AO1

2001/11/05 09:55
KPTV 050955Z AUTO 07003KT 1 1/2SM CLR 11/09 A3004 RMK AO1

2001/11/05 09:53
KPUC 050953Z AUTO 36006KT 10SM CLR 05/M04 A3028 RMK AO2 SLP234
     T00501044

2001/11/05 09:55
KPWT 050955Z AUTO 00000KT 1/2SM BKN006 OVC060 04/03 A3015 RMK
     AO1

2001/11/05 09:54
KRDG 050954Z 30010KT 10SM CLR 06/00 A3005 RMK AO2 SLP182
     T00560000

2001/11/05 09:53
KJBR 050953Z 00000KT 10SM CLR 08/07 A3025 RMK AO2 SLP241 T00780067
     $

2001/11/05 09:55
KLIC 050955Z AUTO 36006KT 9SM CLR M03/M04 A3025 RMK AO2 SLP220
     T10281039 TSNO $

2001/11/05 09:55
KGCC 050955Z AUTO 23015KT 10SM CLR 11/M09 A3001 RMK AO2 SLP130
     T01111094 TSNO

2001/11/05 09:55
KHVR 050955Z AUTO 24012KT 10SM CLR 04/M07 A2987 RMK AO2 SLP116
     T00441067

2001/11/05 09:53
KMLU 050953Z 00000KT 10SM CLR 11/07 A3024 RMK AO2 SLP238
     T01060067

2001/11/05 09:55
KGTF 050955Z 20012KT 10SM CLR 11/M07 A2993 RMK AO2 SLP123
     T01061072 $

2001/11/05 09:55
KCNK 050955Z AUTO 00000KT 10SM CLR 10/08 A3027 RMK AO2 SLP244
     T01000078

2001/11/05 09:56
KGRB 050956Z 00000KT 10SM CLR M02/M04 A3036 RMK AO2 SLP289
     T10221039

2001/11/05 09:56
KPDT 050956Z 13005KT 10SM CLR 06/04 A2999 RMK AO2 SLP156
     T00560039

2001/11/05 09:56
KORD 050956Z 00000KT 10SM CLR 01/00 A3036 RMK AO2 SLP285 T00060000
     $

2001/11/05 09:56
KJKL 050956Z VRB06KT 10SM CLR 08/00 A3024 RMK AO2 SLP238
     T00780000

2001/11/05 09:55
KANJ 050955Z AUTO 02003KT 10SM CLR 01/M04 A3034 RMK AO2 SLP278
     T00061044

2001/11/05 09:55
KAST 050955Z AUTO 23003KT 4SM BR FEW013 SCT029 06/06 A3016 RMK AO2
     VIS 1/2 RWY 08 SLP213 T00610061

2001/11/05 09:56
KPAH 050956Z 00000KT 10SM CLR 09/08 A3027 RMK AO2 SLP248
     T00940083

2001/11/05 09:55
KHTL 050955Z AUTO 32004KT 10SM CLR M02/M03 A3035 RMK AO2 SLP289
     T10221033

2001/11/05 09:56
KGEG 050956Z 00000KT 10SM OVC110 06/04 A2995 RMK AO2 SLP146
     T00610039

2001/11/05 09:56
KSHV 050956Z 34003KT 10SM CLR 11/08 A3023 RMK AO2 SLP235
     T01110078

2001/11/05 09:55
KDLH 050955Z 18008KT 10SM CLR 03/M05 A3017 RMK AO2 SLP230
     T00331050

2001/11/05 09:55
KLAN 050955Z 26003KT 10SM CLR M03/M05 A3036 RMK AO2 SLP289
     T10281050

2001/11/05 09:55
KMKG 050955Z 00000KT 10SM CLR M03/M04 A3039 RMK AO2 SLP296
     T10281044

2001/11/05 09:56
KSDF 050956Z 36005KT 10SM CLR 06/00 A3030 RMK AO2 SLP260
     T00560000

2001/11/05 09:55
KTUS 050955Z 28009KT 10SM SCT095 BKN110 21/11 A3009 RMK AO2
     RAE01B18E31 PRESRR SLP145 P0000 T02060106

2001/11/05 09:56
KRIW 050956Z AUTO 00000KT 10SM CLR 02/M11 A3016 RMK AO2 SLP194
     T00221111 TSNO $

2001/11/05 09:54
K1V4 050954Z AUTO 00000KT 03/02 A2983 RMK AO2 SLP105 T00330022
     PWINO TSNO

2001/11/05 09:55
KPDX 050955Z 31005KT 10SM -RA OVC044 11/09 A3014 RMK AO2 SLP205
     P0000 T01060094

2001/11/05 09:55
KPOF 050955Z AUTO A3027 RMK AO2 SLPNO PWINO FZRANO TSNO $

2001/11/05 09:55
KIRK 050955Z AUTO 10005KT 10SM CLR 07/03 A3031 RMK AO2 SLP267
     T00670028 TSNO $

2001/11/05 09:56
KBRO 050956Z 34006KT 8SM CLR 17/15 A3014 RMK AO2 SLP204 T01720150
     $

2001/11/05 09:56
KDDC 050956Z 20007KT 6SM BR CLR 09/08 A3028 RMK AO2 SLP240
     T00890083

2001/11/05 09:56
KFSD 050956Z 20008KT 10SM CLR 10/01 A3016 RMK AO2 SLP212 T01000006
     $

2001/11/05 09:56
KGRR 050956Z 00000KT 10SM CLR M01/M04 A3038 RMK AO2 SLP292
     T10061039

2001/11/05 09:56
KJAX 050956Z 02009KT 10SM OVC120 18/15 A2997 RMK AO2 SLP150
     T01780150 $

2001/11/05 09:56
KGJT 050956Z VRB05KT 10SM CLR 07/M03 A3026 RMK AO2 SLP209
     T00721028

2001/11/05 09:56
KGLD 050956Z 22010KT 6SM BR CLR 09/08 A3021 RMK AO2 SLP208
     T00890078 $

2001/11/05 09:55
KMBG 050955Z AUTO 15005KT 10SM CLR 04/02 A2994 RMK AO2 SLP143
     T00390022 TSNO

2001/11/05 09:55
KDBQ 050955Z AUTO 18003KT 10SM 04/M03 A3034 RMK AO2 SLP279
     T00441033 TSNO $

2001/11/05 09:55
KHON 050955Z 19010KT 10SM CLR 08/01 A3006 RMK AO2 SLP180
     T00830006

2001/11/05 09:56
KCYS 050956Z 28009KT 10SM CLR 06/M07 A3025 RMK AO2 SLP193
     T00561067 $

2001/11/05 09:55
KPHP 050955Z AUTO 28005KT 10SM CLR 04/02 A2999 RMK AO2 SLP149
     T00440022 TSNO

2001/11/05 09:56
KCHS 050956Z 02006KT 10SM FEW140 BKN250 10/07 A3005 RMK AO2 SLP174
     T01000067

2001/11/05 09:55
KINL 050955Z AUTO 18009KT 10SM CLR 06/M03 A3003 RMK AO2 SLP179
     T00561033

2001/11/05 09:56
KABR 050956Z 18009KT 10SM CLR 07/01 A3002 RMK AO2 SLP166
     T00670011

2001/11/05 09:55
KFCA 050955Z AUTO 00000KT 7SM FEW110 M02/M03 A2998 RMK AO2 SLP166
     T10171028 $

2001/11/05 09:56
KABQ 050956Z 35007KT 10SM FEW050 SCT075 OVC100 13/07 A3032 RMK AO2
     SLP206 T01280072

2001/11/05 09:45
KRDK 050945Z AUTO 00000KT 10SM CLR 02/M01 A3027 RMK AO1

2001/11/05 09:53
KRIL 050953Z AUTO 00000KT 10SM CLR 02/M06 A3032 RMK AO2 SLP233
     T00171056

2001/11/05 09:53
KRKP 050953Z AUTO 01006KT 10SM CLR 17/16 A3017 RMK AO2 SLP218
     T01720161

2001/11/05 09:52
KRKR 050952Z AUTO 00000KT 1/4SM FG 11/08 A3030 RMK AO2

2001/11/05 09:55
KROG 050955Z AUTO 00000KT 7SM CLR 11/09 A3030 RMK AO1

2001/11/05 09:53
KRSW 050953Z AUTO 03008KT 10SM FEW120 20/19 A2976 RMK AO2 SLP073
     T02000194 $

2001/11/05 09:53
KRWL 050953Z AUTO 00000KT 10SM CLR 03/M06 A3028 RMK AO2 SLP203
     T00331061

2001/11/05 09:53
KRXE 050953Z AUTO 06006KT 10SM CLR M01/M03 A3019 RMK AO2 SLP218
     T10111033

2001/11/05 09:54
KRZZ 050954Z AUTO 34004KT 10SM CLR 10/03 A3008 RMK AO2 SLP184
     T01000033

2001/11/05 09:54
KSBY 050954Z AUTO 31008KT 10SM CLR 06/M06 A3006 RMK AO2 SLP182
     T00611061

2001/11/05 09:55
KSGJ 050955Z AUTO 02016G21KT 8SM SCT080 21/17 A2992 RMK AO1

2001/11/05 09:53
KSGR 050953Z AUTO 01004KT 10SM CLR 12/11 A3019 RMK AO2 SLP231
     T01220106

2001/11/05 09:55
KSGT 050955Z 34003KT 5SM CLR 09/06 A3027 RMK AO1

2001/11/05 09:55
KSKX 050955Z AUTO 34003KT 10SM CLR M01/M06 A3037 RMK AO1

2001/11/05 09:55
KSLG 050955Z AUTO 08004KT 2 1/2SM CLR 11/10 A3030 RMK AO1

2001/11/05 09:48
KSLO 050948Z AUTO 05004KT 10SM CLR 08/M02 A3031 RMK AO2

2001/11/05 09:53
KSNY 050953Z AUTO 27006KT 10SM CLR 01/M01 A3019 RMK AO2 SLP207
     T00061006 $

2001/11/05 09:55
KSOP 050955Z AUTO 30004KT 10SM CLR 07/01 A3010 RMK AO1

2001/11/05 09:53
KSPG 050953Z AUTO 01020G24KT 10SM CLR 21/19 A2982 RMK AO2 PK WND
     02026/0859 SLP097 T02110189

2001/11/05 09:55
KSQI 050955Z AUTO 00000KT 10SM CLR 01/M02 A3035 RMK AO1

2001/11/05 09:53
KSRC 050953Z AUTO 08004KT 10SM CLR 09/07 A3026 RMK AO2 SLP247
     T00890067 $

2001/11/05 09:53
KSRQ 050953Z AUTO 01010KT 10SM FEW013 21/19 A2981 RMK AO2 SLP093
     T02060189

2001/11/05 09:53
KSSF 050953Z AUTO 02003KT 10SM CLR 17/14 A3022 RMK AO2 SLP225
     T01670139

2001/11/05 09:55
KSUE 050955Z AUTO 00000KT 7SM CLR 01/M01 A3034 RMK AO1

2001/11/05 09:53
KTDZ 050953Z AUTO 35005KT 10SM CLR 02/M02 A3034 RMK AO2 SLP277
     T00221022

2001/11/05 09:53
KTKI 050953Z AUTO 00000KT 1/4SM FG BKN001 OVC007 12/11 A3026 RMK
     AO2 SLP251 T01170111 TSNO

2001/11/05 09:53
KTMB 050953Z 04015KT 8SM -RA FEW023 BKN036 OVC060 21/19 A2961 RMK
     AO2 SLP027 P0008 T02060189 $

2001/11/05 09:53
KTOR 050953Z AUTO 00000KT 10SM CLR 01/M03 A3015 RMK AO2 SLP193
     T00111033

2001/11/05 09:53
KTRL 050953Z AUTO 02004KT 1/2SM FG BKN001 OVC007 12/12 A3026 RMK
     AO2 SLP244 T01220122

2001/11/05 09:54
KTRM 050954Z AUTO 34005KT 8SM CLR 17/11 A2989 RMK AO2 SLP124
     T01720106

2001/11/05 09:55
KTVF 050955Z AUTO 18007KT 10SM CLR 06/01 A2997 RMK AO1

2001/11/05 09:53
KTWF 050953Z AUTO 14008KT 10SM CLR 11/00 A3009 RMK AO2 SLP154
     T01060000 $

2001/11/05 09:53
KTYR 050953Z 00000KT 6SM BR CLR 11/10 A3026 RMK AO2 SLP242
     T01110100

2001/11/05 09:53
KUAO 050953Z AUTO 36003KT 2 1/2SM -RA BR FEW017 BKN023 OVC032
     10/10 A3014 RMK AO2 SLP206 P0011 T01000100

2001/11/05 09:55
KUDG 050955Z AUTO 32005KT 10SM CLR 07/03 A3009 RMK AO1

2001/11/05 09:53
KUTS 050953Z AUTO 00000KT 8SM CLR 11/10 A3023 RMK AO2 SLP233
     T01110100

2001/11/05 09:53
KUUU 050953Z AUTO 29008KT 10SM CLR 07/04 A2985 RMK AO2 SLP107
     T00670044

2001/11/05 09:54
KUZA 050954Z AUTO 36003KT 9SM FEW110 06/03 A3011 RMK AO2 SLP193
     T00560028

2001/11/05 09:54
KVAY 050954Z AUTO 29007KT 240V310 10SM CLR 08/01 A3002 RMK AO2
     SLP165 T00780006 TSNO

2001/11/05 09:55
KVBT 050955Z AUTO 00000KT 1/4SM VV002 08/07 A3032 RMK AO1

2001/11/05 09:53
KVCB 050953Z AUTO 00000KT 10SM CLR 09/07 A3001 RMK AO2 SLP162
     T00890072

2001/11/05 09:53
KVEL 050953Z AUTO 00000KT 10SM OVC110 01/M02 A3030 RMK AO2 SLP245
     T00111022

2001/11/05 09:55
KVIS 050955Z 00000KT 1 3/4SM CLR 11/10 A3005 RMK AO1

2001/11/05 09:53
KVRB 050953Z AUTO 10012KT 10SM FEW060 SCT110 22/20 A2976 RMK AO2
     RAB08E18 SLP077 P0000 T02220200

2001/11/05 09:53
KWRL 050953Z AUTO 00000KT 10SM CLR M04/M11 A3010 RMK AO2 SLP195
     T10391111 FZRANO

2001/11/05 09:53
KWST 050953Z AUTO 27003KT 10SM CLR 05/04 A2987 RMK AO2 SLP115
     T00500044

2001/11/05 09:53
KYIP 050953Z 32007KT 10SM CLR M01/M04 A3034 RMK AO2 SLP303
     T10061039

2001/11/05 09:55
KYKN 050955Z AUTO 21007KT 10SM CLR 12/00 A3016 RMK AO1

2001/11/05 09:53
KZZV 050953Z AUTO 34005KT 10SM CLR 03/M01 A3028 RMK AO2 SLP253
     T00331011

2001/11/05 09:53
TISX 050953Z AUTO 06003KT 10SM FEW021 25/23 A2984 RMK AO2 SLP102
     T02500228 TSNO

2001/11/05 09:53
TIST 050953Z 14007KT 10SM FEW026 27/23 A2983 RMK AO2 SLP103
     T02720228

2001/11/05 09:54
PHMK 050954Z AUTO 06014G18KT 10SM CLR 23/19 A3004 RMK AO2 SLP173
     T02330194 402780222 TSNO

2001/11/05 09:54
KIPT 050954Z AUTO 30009KT 10SM CLR 06/M03 A3010 RMK AO2 SLP195
     T00561033 $

2001/11/05 09:46
KENL 050946Z AUTO 00000KT 10SM CLR 06/01 A3030 RMK AO2

2001/11/05 09:48
KIGQ 050948Z AUTO 00000KT 10SM CLR 01/01 A3035 RMK AO2

2001/11/05 09:46
KOLY 050946Z AUTO 03003KT 10SM CLR 07/M04 A3031 RMK AO2

2001/11/05 09:54
KSPI 050954Z AUTO 10007KT 10SM CLR 05/M02 A3035 RMK AO2 SLP278
     T00501022

2001/11/05 09:54
KSUX 050954Z AUTO 10008KT 10SM CLR 04/01 A3024 RMK AO2 SLP241
     T00440006

2001/11/05 09:54
KRST 050954Z AUTO 18010KT 10SM CLR 04/M03 A3028 RMK AO2 SLP261
     T00441033

2001/11/05 09:52
K1F0 050952Z AUTO 00000KT 1/4SM FG OVC001 A3029 RMK AO2

2001/11/05 09:54
KAAO 050954Z AUTO 23004KT 1/4SM FG VV002 10/09 A3028 RMK AO2
     SLP250 T01000094

2001/11/05 09:55
KAFJ 050955Z AUTO 00000KT 10SM CLR 02/M01 A3021 RMK AO1 TSNO

2001/11/05 09:53
KAKO 050953Z AUTO 25013KT 10SM CLR 07/M01 A3020 RMK AO2 SLP195
     T00721006 $

2001/11/05 09:54
KAKR 050954Z AUTO 00000KT 10SM FEW024 SCT034 03/01 A3025 RMK AO2
     SLP287 T00330006 TSNO

2001/11/05 09:53
KAPA 050953Z 24004KT 10SM CLR 05/M05 A3025 RMK AO2 SLP205
     T00501050

2001/11/05 09:50
KAUH 050950Z AUTO 19010KT 10SM CLR 09/01 A3023 RMK AO1

2001/11/05 09:54
KAUW 050954Z AUTO 10003KT 10SM CLR M03/M06 A3032 RMK AO2 SLP282
     T10281061

2001/11/05 09:51
KAVK 050951Z AUTO 16004KT 3SM BR CLR 09/08 A3029 RMK AO2

2001/11/05 09:55
KBHB 050955Z AUTO 01004KT 10SM BKN055 OVC065 06/02 A2986 RMK
     AO1

2001/11/05 09:55
KBID 050955Z AUTO 31013G17KT 10SM FEW017 08/04 A2986 RMK AO1

2001/11/05 09:55
KBJI 050955Z 19008KT 10SM CLR 08/M03 A3002 RMK AO1

2001/11/05 09:55
KBKX 050955Z 18010KT 10SM CLR 09/00 A3012 RMK AO1

2001/11/05 09:55
KBLM 050955Z AUTO 10SM CLR 06/M01 RMK AO1

2001/11/05 09:45
KBNW 050945Z AUTO 15004KT 10SM CLR 07/03 A3029 RMK AO1

2001/11/05 09:53
KCEZ 050953Z AUTO 00000KT 10SM CLR 04/M02 A3031 RMK AO2 SLP220
     T00441022

2001/11/05 09:55
KCOD 050955Z 14006KT CLR 09/M07 A3008 RMK AO1

2001/11/05 09:45
KCSQ 050945Z AUTO 15006KT 10SM CLR 09/02 A3027 RMK AO1

2001/11/05 09:54
KDDH 050954Z AUTO 26004KT 10SM OVC042 03/02 A2991 RMK AO2 SLP135
     T00280017

2001/11/05 09:54
KDEC 050954Z AUTO 07003KT 10SM CLR 01/M01 A3035 RMK AO2 SLP280
     T00111011 $

2001/11/05 09:53
KDGW 050953Z AUTO 00000KT 10SM CLR M01/M06 A3014 RMK AO2 SLP190
     T10061061

2001/11/05 09:54
KDSV 050954Z AUTO 31013KT 10SM OVC024 04/01 A3016 RMK AO2 SLP225
     T00440011

2001/11/05 09:53
KDUC 050953Z AUTO 00000KT 5SM BR CLR 12/12 A3031 RMK AO1

2001/11/05 09:54
KDYL 050954Z AUTO 31007KT 10SM FEW095 06/02 A3002 RMK AO2 SLP166
     T00560017

2001/11/05 09:55
KEEN 050955Z AUTO 00000KT 10SM SCT050 02/02 A2985 RMK AO1

2001/11/05 09:55
KEGE 050955Z 12003KT 10SM CLR M02/M08 A3043 RMK AO1

2001/11/05 09:55
KENV 050955Z AUTO 00000KT 10SM FEW120 07/M01 A3017 RMK AO1

2001/11/05 09:55
KEUL 050955Z AUTO 08003KT 10SM CLR 00/M03 A3007 RMK AO1

2001/11/05 09:55
KEWK 050955Z AUTO 20004KT M1/4SM VV000 09/08 A3028 RMK AO1

2001/11/05 09:54
KFIG 050954Z AUTO 32011KT 10SM FEW080 02/M01 A3014 RMK AO2 SLP215
     T00221011 FZRANO

2001/11/05 09:55
KFKL 050955Z 34004KT 10SM CLR 02/M01 A3021 RMK AO1 52014

2001/11/05 09:55
KFNL 050955Z AUTO 15005KT 10SM CLR 06/M08 A3022 RMK AO1

2001/11/05 09:55
KFOD 050955Z AUTO 17008KT 10SM CLR 09/01 A3027 RMK AO1

2001/11/05 09:55
KFRM 050955Z AUTO 18011KT 10SM CLR 05/M01 A3026 RMK AO1

2001/11/05 09:45
KFSW 050945Z AUTO 15006KT 10SM CLR 09/02 A3033 RMK AO1

2001/11/05 09:54
KFZY 050954Z AUTO 32011KT 10SM -RA BKN028 OVC034 04/00 A3009 RMK
     AO2 RAB27 SLP191 P0000 T00440000

2001/11/05 09:55
KGBD 050955Z AUTO 20008KT 8SM CLR 10/09 A3026 RMK AO1

2001/11/05 09:54
KGCK 050954Z AUTO 18007KT 5SM BR CLR 09/08 A3026 RMK AO2 SLP234
     T00890083 $

2001/11/05 09:55
KGDV 050955Z AUTO 21005KT 10SM CLR 01/M06 A2993 RMK AO1

2001/11/05 09:55
KGUC 050955Z AUTO 10SM CLR M02/M08 A3045 RMK AO1

2001/11/05 09:54
PGSN 050954Z 07011KT 10SM FEW020 27/24 A2987 RMK AO2 SLP112
     T02670239 $

2001/11/05 09:55
KGXY 050955Z AUTO 00000KT 10SM CLR M03/M07 A3022 RMK AO1

2001/11/05 09:55
KHDN 050955Z AUTO 13009KT 10SM FEW085 03/M06 A3036 RMK AO1

2001/11/05 09:55
KHYI 050955Z AUTO 34007KT 10SM CLR 15/12 A3023 RMK AO1

2001/11/05 09:55
KHYS 050955Z AUTO 00000KT 4SM CLR 08/07 A3024 RMK AO1

2001/11/05 09:54
KIMT 050954Z AUTO 00000KT 10SM CLR M06/M09 A3033 RMK AO2 SLP286
     T10611089

2001/11/05 09:54
KISW 050954Z AUTO 00000KT 10SM CLR M03/M06 A3034 RMK AO2 SLP285
     T10331056

2001/11/05 09:54
KIZG 050954Z AUTO 00000KT 5SM -RA BR BKN014 OVC018 04/03 A2981 RMK
     AO2 SLP099 P0007 T00390033

2001/11/05 09:55
KJAC 050955Z AUTO 02006KT 10SM CLR M05/M08 A3026 RMK AO1

2001/11/05 09:55
KJHW 050955Z 34010KT 10SM FEW030 OVC042 02/M02 A3017 RMK AO1
     52017

2001/11/05 09:54
KJST 050954Z AUTO 31011KT 10SM FEW018 00/M02 A3014 RMK AO2 SLP218
     T00001022 FZRANO $

2001/11/05 09:55
KLBL 050955Z AUTO 20008KT 4SM CLR 07/07 A3027 RMK AO1

2001/11/05 09:55
KLCI 050955Z AUTO 26004KT 10SM BKN035 BKN043 OVC049 05/02 A2981
     RMK AO1

2001/11/05 09:55
KLEW 050955Z AUTO 31005KT 4SM FEW001 OVC026 05/03 A2979 RMK AO2
     PWINO FZRANO RVRNO

2001/11/05 09:54
KLWC 050954Z AUTO 00000KT 1/4SM FG VV001 08/07 A3029 RMK AO2
     SLP256 T00780072 $

2001/11/05 09:54
KLWM 050954Z AUTO 30005KT 10SM SCT039 OVC045 06/04 A2983 RMK AO2
     SLP103 T00610044 $

2001/11/05 09:54
KLWT 050954Z AUTO 22016KT 10SM CLR 11/M08 A2998 RMK AO2 SLP124
     T01061083

2001/11/05 09:54
KMDH 050954Z AUTO 00000KT 8SM CLR 08/06 A3031 RMK AO2 SLP264
     T00830061

2001/11/05 09:54
KMFI 050954Z AUTO 14003KT 10SM CLR M02/M06 A3032 RMK AO2 SLP278
     T10171061 FZRANO

2001/11/05 09:54
KMGJ 050954Z AUTO 31009KT 10SM FEW120 06/M02 A2997 RMK AO2 SLP148
     T00561017

2001/11/05 09:54
KMKC 050954Z 00000KT 1/4SM FG VV001 09/09 A3029 RMK AO2 SLP256
     T00890089

2001/11/05 09:55
KMKT 050955Z AUTO 17009KT 10SM CLR 06/M02 A3024 RMK AO1

2001/11/05 09:55
KMML 050955Z AUTO 21016KT 10SM CLR 11/M01 A3011 RMK AO1

2001/11/05 09:54
KMOT 050954Z AUTO 24011KT 10SM CLR 07/M05 A2988 RMK AO2 SLP122
     T00721050

2001/11/05 09:54
KVTA 050954Z AUTO 33003KT 10SM CLR 01/M03 A3029 RMK AO2 SLP259
     T00061028

2001/11/05 09:54
KWLD 050954Z AUTO 00000KT 1/4SM FG VV001 10/09 A3030 RMK AO2
     SLP255 T01000094

2001/11/05 09:55
KWVL 050955Z AUTO 36004KT 10SM OVC048 06/02 A2978 RMK AO1

2001/11/05 09:55
KWWD 050955Z 32011G19KT 10SM CLR 10/01 A3004 RMK AO1

2001/11/05 09:55
KYKN 050955Z AUTO 21007KT 10SM CLR 12/00 A3016 RMK AO1

2001/11/05 09:56
KTOP 050956Z 00000KT 1/4SM FG VV001 08/08 A3029 RMK AO2 SLP256
     T00780078

2001/11/05 09:56
KMIA 050956Z 05015G21KT 10SM -RA FEW017 BKN028 OVC060 21/20 A2963
     RMK AO2 SLP033 P0008 T02110200

2001/11/05 09:56
KGGW 050956Z 13005KT 10SM CLR 02/M06 A2989 RMK AO2 SLP127
     T00171061 $

2001/11/05 09:55
KAAT 050955Z AUTO 08003KT 7SM CLR M02/M03 A3015 RMK AO2 SLP195
     T10171033 FZRANO TSNO

2001/11/05 09:56
KMOB 050956Z 02008KT 10SM CLR 13/06 A3010 RMK AO2 SLP189
     T01330061

2001/11/05 09:56
KBGM 050956Z 32008KT 10SM SCT007 BKN012 OVC017 02/01 A3004 RMK AO2
     RAB22E41UPB37E40SNB26E37 SLP180 P0001 T00170011

2001/11/05 09:56
KPIH 050956Z 00000KT 10SM CLR M01/M04 A3016 RMK AO2 SLP202
     T10111039

2001/11/05 09:56
KCAE 050956Z 00000KT 10SM FEW100 SCT220 04/03 A3009 RMK AO2 SLP188
     T00440033 $

2001/11/05 09:56
KMSO 050956Z 27003KT 10SM CLR M02/M02 A3006 RMK AO2 SLP198
     T10171022

2001/11/05 09:56
KLAS 050956Z 34004KT 10SM FEW080 OVC110 17/13 A3011 RMK AO2
     RAB03E46 SLP177 P0000 T01720133

2001/11/05 09:56
KLBF 050956Z 16003KT 8SM CLR 07/07 A3018 RMK AO2 SLP215 T00670067
     $

2001/11/05 09:56
KSLC 050956Z 18005KT 10SM SCT100 OVC110 09/06 A3015 RMK AO2 SLP186
     T00940056

2001/11/05 09:53
PHTO 050953Z 26005KT 10SM FEW032 SCT039 BKN055 22/20 A3007 RMK AO2
     SLP181 T02170200 402670211

2001/11/05 09:54
PHOG 050954Z AUTO 04015KT 10SM CLR 23/20 A3003 RMK AO2 SLP175
     T02330200 402830217 TSNO

2001/11/05 09:51
KBVE 050951Z AUTO 03011KT 340V050 10SM CLR 19/14 A3004 RMK AO2
     SLP173 T01940139 TSNO

2001/11/05 09:54
KCNU 050954Z AUTO 09003KT 1/4SM FG VV001 09/09 A3028 RMK AO2
     SLP249 T00940094

2001/11/05 09:55
KDVL 050955Z AUTO 00000KT 10SM CLR 07/01 A2992 RMK AO1

2001/11/05 09:55
KEAR 050955Z AUTO 18005KT 10SM CLR 07/05 A3022 RMK AO1

2001/11/05 09:53
KELY 050953Z AUTO 19009KT 10SM SCT110 03/00 A3023 RMK AO2 SLP183
     T00330000 $

2001/11/05 09:56
KINW 050956Z AUTO 00000KT 10SM BKN100 OVC120 12/01 A3020 RMK AO2
     SLP178 T01170006 TSNO

2001/11/05 09:56
KPGA 050956Z AUTO 00000KT 10SM OVC110 14/02 A3018 RMK AO2 SLP178
     T01390017 TSNO

2001/11/05 09:56
KSXT 050956Z AUTO 00000KT 3SM -RA BR BKN006 OVC020 07/06 A3016 RMK
     AO2 RAB42 SLP196 P0000 T00720061 TSNO $

2001/11/05 09:55
KGPZ 050955Z AUTO 16011KT 10SM CLR 06/M04 A3010 RMK AO1

2001/11/05 09:54
KMHK 050954Z AUTO 00000KT 10SM CLR 04/03 A3028 RMK AO2 SLP252
     T00390033

2001/11/05 09:53
KBNO 050953Z AUTO 00000KT 10SM CLR M02/M04 A3008 RMK AO2 SLP184
     T10171039 TSNO $

2001/11/05 09:55
KNZY 050955Z 050955Z 06005KT 4SM BR BKN060 BKN120 17/17 A2995 RMK
     SLP143 T01720172

2001/11/05 09:52
KTIK 050952Z 18003KT 2SM BR FEW004 SCT020 13/13 A3029

2001/11/05 09:52
MMAA 050952Z 36005KT 7SM SKC 25/23 A2977 RMK HZY

2001/11/05 09:47
MMGL 050947Z 00000KT 15SM SKC 09/05 A3019

2001/11/05 09:45
MMMX 050945Z 30006KT 12SM BKN015 OVC025 11/06 A3038 RMK 5///9 LWR
     ST ARND BINOVC

2001/11/05 09:47
MMPR 050947Z 00000KT 10SM SKC 23/20 A2982 RMK

2001/11/05 09:45
MMVR 050945Z 35025KT 7SM OVC080 25/18 A2999 RMK 07/90

2001/11/05 09:47
MMGL 050947Z 00000KT 15SM SKC 09/05 A3019

2001/11/05 09:45
MMTO 050945Z 00000KT 5SM HZBR SKC 02/02 A3037 RMK

2001/11/05 09:45
MMZC 050945Z 00000KT 10SM SCT020 07/03 A3024 RMK 40009

2001/11/05 09:45
MMLO 050945Z 00000KT 8SM SKC 09/04 A3027

2001/11/05 09:56
KLLJ 050956Z AUTO 00000KT 10SM CLR M02/M07 A3015 RMK AO2 SLP207
     T10221072 TSNO

2001/11/05 09:55
KMSV 050955Z 29008KT 10SM SCT025 BKN032 02/M01 A2997 RMK AO1

2001/11/05 09:55
KOCH 050955Z 00000KT 10SM CLR 09/08 A3021 RMK AO1

2001/11/05 09:54
KOFP 050954Z AUTO 02010G17KT 10SM CLR 11/M06 A3013 RMK AO2 SLP202
     T01061056

2001/11/05 09:55
KOLU 050955Z AUTO 21005KT 10SM CLR 10/01 A3024 RMK AO1

2001/11/05 09:45
KOLZ 050945Z AUTO 14006KT 10SM CLR 04/M02 A3034 RMK AO1

2001/11/05 09:50
KONL 050950Z AUTO 18009KT 10SM CLR 09/02 A3015 RMK AO1

2001/11/05 09:55
KOTG 050955Z AUTO 20011KT 10SM CLR 07/M01 A3019 RMK AO1

2001/11/05 09:51
KOUN 050951Z AUTO 00000KT M1/4SM FG OVC001 11/11 A3030 RMK AO2

2001/11/05 09:55
KOXC 050955Z AUTO 35011G15KT 10SM CLR 03/M01 A2992 RMK AO1

2001/11/05 09:54
KPLN 050954Z AUTO 00000KT 10SM CLR M06/M06 A3036 RMK AO2 SLP292
     T10561061

2001/11/05 09:55
KPQI 050955Z AUTO 01005KT 10SM OVC050 04/02 A2986 RMK AO1

2001/11/05 09:55
KPRX 050955Z AUTO 36005KT 1/2SM VV005 10/09 A3028 RMK AO1

2001/11/05 09:54
KPTW 050954Z AUTO 29008KT 10SM CLR 06/M01 A3006 RMK AO2 SLP176
     T00561006

2001/11/05 09:55
KPVC 050955Z 30007KT 10SM FEW014 BKN047 07/M02 A2980 RMK AO1
     P0005

2001/11/05 09:55
KPVU 050955Z AUTO 00000KT 10SM FEW095 05/02 A3020 RMK AO1

2001/11/05 09:55
KPWG 050955Z AUTO 00000KT 7SM CLR 13/12 A3024 RMK AO1

2001/11/05 09:55
KRKD 050955Z 12008KT 10SM BKN085 09/04 A2980 RMK AO1

2001/11/05 09:54
KRKS 050954Z AUTO VRB03KT 10SM CLR 02/M09 A3028 RMK AO2 SLP219
     T00171089

2001/11/05 09:55
KRUT 050955Z AUTO 31004KT 10SM FEW020 BKN024 OVC039 03/01 A2990
     RMK AO1

2001/11/05 09:55
KSDY 050955Z AUTO 21013KT 10SM CLR 02/M06 A2988 RMK AO1

2001/11/05 09:54
KSET 050954Z AUTO 06004KT 10SM CLR 07/04 A3033 RMK AO2 SLP268
     T00720044 $

2001/11/05 09:55
KSFM 050955Z AUTO 34007KT 10SM FEW022 SCT028 BKN033 06/04 A2978
     RMK AO1 P0098

2001/11/05 09:55
KSFZ 050955Z AUTO 29006KT 10SM BKN034 BKN042 05/04 A2982 RMK
     AO1

2001/11/05 09:55
KSGU 050955Z AUTO 00000KT 10SM BKN090 17/03 A3012 RMK AO1

2001/11/05 09:45
KSHL 050945Z AUTO 17005KT 10SM CLR 06/02 A3022 RMK AO1

2001/11/05 09:54
KSJN 050954Z AUTO 09008KT 10SM CLR 12/03 A3023 RMK AO2 SLP167
     T01170033

2001/11/05 09:55
KSMN 050955Z AUTO 00000KT 5SM CLR M03/M06 A3015 RMK AO1

2001/11/05 09:50
KSVC 050950Z AUTO 08012G17KT 10SM SCT085 15/08 A3027 RMK AO1

2001/11/05 09:55
KTPL 050955Z AUTO 35004KT 6SM CLR 13/12 A3025 RMK AO1

2001/11/05 09:54
KTQE 050954Z AUTO 19004KT 10SM CLR 02/M01 A3025 RMK AO2 SLP241
     T00221006 $

2001/11/05 09:52
KTQH 050952Z AUTO 00000KT 1SM BR VV007 11/11 A3028 RMK AO2

2001/11/05 09:55
KTVF 050955Z AUTO 18007KT 10SM CLR 06/01 A2997 RMK AO1

2001/11/05 09:55
KUGN 050955Z AUTO 29005KT 8SM CLR 01/00 A3036 RMK AO2 SLP287
     T00110000 FZRANO $

2001/11/05 09:54
KUIN 050954Z AUTO 13008KT 10SM CLR 07/02 A3033 RMK AO2 SLP270
     T00670022 $

2001/11/05 09:54
KVAY 050954Z AUTO 29007KT 240V310 10SM CLR 08/01 A3002 RMK AO2
     SLP165 T00780006 TSNO

2001/11/05 09:50
KVDI 050950Z AUTO 02005KT 10SM CLR 12/06 A3007 RMK AO1

2001/11/05 09:54
KVSF 050954Z AUTO 30006KT 10SM CLR 04/00 A2987 RMK AO2 SLP120
     T00440000

2001/11/05 09:55
PAWS 050955Z AUTO 00000KT 3SM BKN001 OVC006 M07/M07 A2985 RMK
     AO1

2001/11/05 09:55
PAZK 050955Z AUTO 00000KT 5SM CLR M10/M13 A2967 RMK AO1

2001/11/05 09:55
PFYU 050955Z 05005KT 10SM CLR M16/M18 A3007 RMK AO1

2001/11/05 09:55
PAAK 050955Z AUTO 14033G40KT 3/4SM OVC001 05/04 A2947 RMK AO1

2001/11/05 09:55
PABL 050955Z AUTO 00000KT 10SM CLR M24/M43 A3016 RMK AO1 TSNO

2001/11/05 09:55
PABV 050955Z AUTO 17004KT 1SM OVC001 M06/M07 A2986 RMK AO1

2001/11/05 09:55
PADL 050955Z 36008KT 10SM CLR M11/M17 A3002 RMK AO1

2001/11/05 09:55
PADU 050955Z AUTO 17005KT 10SM OVC035 02/M05 A3003 RMK AO1

2001/11/05 09:55
PAEM 050955Z AUTO 14005KT 10SM FEW006 OVC015 M13/M13 A3009 RMK
     AO1

2001/11/05 09:55
PAFE 050955Z AUTO 09007KT 10SM SCT030 BKN050 02/M01 A2984 RMK AO1
     P0001

2001/11/05 09:55
PAFM 050955Z AUTO 00000KT 10SM CLR M22/M31 A3018 RMK AO1

2001/11/05 09:55
PAGL 050955Z AUTO 29003KT 10SM SCT001 BKN010 OVC016 M15/M18 A3013
     RMK AO1

2001/11/05 09:55
PAGM 050955Z AUTO 16006KT 10SM FEW003 OVC025 01/M01 A2997 RMK
     AO1

2001/11/05 09:54
PAHN 050954Z AUTO 31009KT 10SM OVC060 01/M01 A2984 RMK AO2 SLP107
     T00111006 TSNO

2001/11/05 09:55
PAHP 050955Z AUTO 12005KT 10SM OVC019 M06/M09 A3012 RMK AO1

2001/11/05 09:55
PAHS 050955Z AUTO 00000KT 10SM OVC060 M17/M21 A3011 RMK AO1
     TSNO

2001/11/05 09:55
PAII 050955Z AUTO 35008KT 10SM CLR M10/M14 A3000 RMK AO1

2001/11/05 09:55
PAIN 050955Z AUTO 00000KT 10SM SCT008 SCT014 BKN021 M16/M18 A2988
     RMK AO1

2001/11/05 09:55
PAJC 050955Z AUTO 6SM FEW003 FEW012 BKN025 M02/M07 A2997 RMK
     AO1

2001/11/05 09:55
PAKK 050955Z AUTO 00000KT 10SM CLR M19/M24 A3009 RMK AO1

2001/11/05 09:55
PAKP 050955Z AUTO 19012KT 10SM OVC048 M18/M23 A2993 RMK AO1
     TSNO

2001/11/05 09:55
PAMD 050955Z AUTO 23005KT 10SM CLR 02/M03 A2979 RMK AO1

2001/11/05 09:55
PAMH 050955Z AUTO 00000KT 10SM CLR M13/M16 A3002 RMK AO1

2001/11/05 09:55
PAMM 050955Z AUTO 15003KT 10SM FEW028 FEW047 SCT050 04/02 A2988
     RMK AO1 TSNO

2001/11/05 09:55
PAMY 050955Z AUTO 10004KT 10SM OVC017 M06/M08 A3008 RMK AO1

2001/11/05 09:55
PANI 050955Z AUTO 00000KT 10SM CLR M22/M22 A3010 RMK AO1

2001/11/05 09:55
PANV 050955Z AUTO 00000KT 10SM CLR M15/M22 A3009 RMK AO1

2001/11/05 09:55
PAPG 050955Z AUTO 28003KT 10SM SCT025 BKN048 BKN065 02/00 A2987
     RMK AO1 TSNO

2001/11/05 09:55
PAPH 050955Z AUTO 06008KT 10SM SCT021 OVC029 M05/M08 A3000 RMK
     AO1

2001/11/05 09:55
PAPO 050955Z AUTO 13017G23KT 10SM OVC012 M08/M09 A3004 RMK AO1

2001/11/05 09:55
PASA 050955Z AUTO 20005KT 10SM OVC025 00/M03 A3004 RMK AO1

2001/11/05 09:55
PASD 050955Z AUTO 35016KT 10SM CLR M01/M08 A3005 RMK AO1

2001/11/05 09:55
PASH 050955Z AUTO 12009KT 10SM BKN090 M14/M17 A3006 RMK AO1

2001/11/05 09:55
PASK 050955Z AUTO 07004KT 10SM CLR M25/M26 A3020 RMK AO1

2001/11/05 09:55
PASL 050955Z AUTO 32004KT 10SM CLR M14/M18 A3004 RMK AO2 PWINO
     FZRANO RVRNO

2001/11/05 09:55
PASM 050955Z AUTO 04005KT 10SM CLR M16/M17 A3011 RMK AO1

2001/11/05 09:55
PASX 050955Z AUTO 09006KT 10SM OVC008 M03/M04 A2985 RMK AO1

2001/11/05 09:55
PATG 050955Z AUTO 36005KT 10SM CLR M13/M14 A3005 RMK AO1

2001/11/05 09:55
PAUN 050955Z AUTO 13005KT 10SM CLR M20/M24 A3015 RMK AO1 TSNO

2001/11/05 09:55
PAVD 050955Z 00000KT 10SM BKN065 M03/M07 A2983 RMK AO1

2001/11/05 09:55
PAWG 050955Z 10011KT 10SM FEW019 BKN046 OVC060 03/01 A2987 RMK AO1
     TSNO

2001/11/05 09:55
PAWN 050955Z AUTO 35006KT 10SM CLR M24/M28 A3012 RMK AO1

2001/11/05 09:47
KJOT 050947Z AUTO 00000KT 2 1/2SM BR CLR 00/M01 A3034 RMK AO2

2001/11/05 09:45
KVVG 050945Z AUTO 02013G19KT 8SM 19/17 A2989 RMK A02 P000

2001/11/05 09:45
KADU 050945Z AUTO 00000KT 10SM CLR 00/M01 A3027 RMK AO1

2001/11/05 09:55
KANE 050955Z AUTO 16008KT 10SM CLR 08/M02 A3021 RMK AO2

2001/11/05 09:50
KAQR 050950Z AUTO 00000KT 1/4SM FG OVC001 13/12 A3028 RMK AO2

2001/11/05 09:55
KCMA 050955Z AUTO 06006KT 1 3/4SM HZ OVC001 14/M01 A2996 RMK AO2
     SLP153 T01441006 $

2001/11/05 09:50
KDUA 050950Z AUTO 33003KT 1/4SM FG OVC001 13/13 A3027 RMK AO2

2001/11/05 09:55
KEAT 050955Z AUTO 06003KT 3SM BR OVC004 07/06 A2995 RMK AO2 SLP147
     T00670061

2001/11/05 09:48
KLRU 050948Z AUTO 15005KT 10SM OVC100 16/08 A3027 RMK AO2

2001/11/05 09:50
KOGA 050950Z AUTO 00000KT 1 1/2SM CLR 02/01 A3017 RMK AO1 VIS
     3/4V5

2001/11/05 09:54
KORB 050954Z AUTO 17010KT 10SM OVC002 06/M04 A3006 RMK AO2

2001/11/05 09:52
KPVJ 050952Z AUTO 00000KT M1/4SM FG OVC001 13/12 A3030 RMK AO2
     P0001

2001/11/05 09:52
KSNL 050952Z AUTO 00000KT 1/4SM FG OVC001 12/12 A3029 RMK AO2

2001/11/05 09:54
KTAD 050954Z AUTO 23012KT 10SM CLR 09/05 A3028 RMK AO2 SLP197
     T00890050

2001/11/05 09:49
KTEX 050949Z AUTO 13006KT 10SM CLR 02/M04 A3044 RMK AO1

2001/11/05 09:48
K1H2 050948Z AUTO 00000KT 10SM 06/M03 A3034 RMK AO1

2001/11/05 09:48
KTIP 050948Z AUTO 06003KT 10SM CLR 03/M01 A3035 RMK AO1

2001/11/05 09:56
KAND 050956Z 00000KT 10SM CLR 04/03 A3013 RMK AO2 SLP200
     T00390028

2001/11/05 09:55
KARV 050955Z AUTO 14003KT 10SM CLR 00/M06 A3029 RMK AO2

2001/11/05 09:56
KBLH 050956Z AUTO 36009KT 10SM CLR 22/13 A2993 RMK AO2 SLP129
     T02220133

2001/11/05 09:56
KCEC 050956Z AUTO 03003KT 1SM -RA BR FEW001 BKN014 OVC019 11/11
     A3020 RMK AO2 RAB40 SLP226 P0000 T01060106

2001/11/05 09:50
KCQB 050950Z AUTO 00000KT 1/4SM FG OVC001 11/11 A3029 RMK AO2

2001/11/05 09:56
KCXY 050956Z AUTO 31011KT 10SM CLR 07/M01 A3010 RMK AO2 SLP194
     T00721011

2001/11/05 09:56
KDAN 050956Z AUTO 31006KT 10SM CLR 07/01 A3010 RMK AO2 SLP188
     T00720011

2001/11/05 09:56
KDIK 050956Z AUTO 25005KT 10SM CLR 04/M04 A2992 RMK AO2 SLP131
     T00441044

2001/11/05 09:45
KDNS 050945Z AUTO 36001KT 10SM CLR 09/02 A3028 RMK AO1

2001/11/05 09:56
KDUJ 050956Z 31005KT 10SM CLR 00/M01 A3015 RMK AO2 SLP220
     T00001011

2001/11/05 09:54
KDXX 050954Z AUTO 20011KT 10SM CLR 11/01 A3009 RMK AO2

2001/11/05 09:56
KEAU 050956Z AUTO 00000KT 10SM CLR M02/M03 A3028 RMK AO2 SLP261
     T10171033

2001/11/05 09:56
KEED 050956Z AUTO VRB04KT 10SM CLR 23/14 A2999 RMK AO2 SLP126
     T02280139 $

2001/11/05 09:56
KEKO 050956Z AUTO 08005KT 10SM SCT100 02/M07 A3017 RMK AO2 SLP197
     T00221072

2001/11/05 09:56
KGRD 050956Z AUTO 00000KT 10SM CLR 04/02 A3012 RMK AO2 SLP198
     T00440022

2001/11/05 09:56
KHPN 050956Z 33013KT 10SM SCT200 06/02 A2992 RMK AO2 SLP135
     T00610022

2001/11/05 09:56
KHWV 050956Z AUTO 30005KT 10SM CLR 05/03 A2992 RMK AO2 SLP131
     T00500033

2001/11/05 09:56
KIGX 050956Z AUTO 00000KT 10SM CLR 07/03 A3009 RMK AO2 SLP189
     T00670028

2001/11/05 09:56
KJMS 050956Z AUTO 17007KT 10SM CLR 01/M01 A2995 RMK AO2 SLP151
     T00061011

2001/11/05 09:56
KJWG 050956Z AUTO 00000KT 1/4SM FG OVC001 08/07 A3031 RMK AO2

2001/11/05 09:56
KLNR 050956Z AUTO 00000KT 10SM CLR M04/M06 A3036 RMK AO2 SLP281
     T10391056

2001/11/05 09:45
KLRJ 050945Z AUTO 00000KT 10SM CLR 07/02 A3020 RMK AO1

2001/11/05 09:56
KMDT 050956Z 31011KT 10SM CLR 07/00 A3009 RMK AO2 SLP190
     T00720000

2001/11/05 09:56
KMRH 050956Z AUTO 00000KT 1/4SM FG VV001 09/09 A3004 RMK AO2
     SLP174 T00940094

2001/11/05 09:56
KOKB 050956Z AUTO 00000KT 1 1/2SM BR CLR 16/16 A2996 RMK AO2
     SLP145 T01610161

2001/11/05 09:55
KPQN 050955Z AUTO 19009KT 10SM CLR 08/M01 A3014 RMK AO2

2001/11/05 09:56
KSBP 050956Z 00000KT 1/2SM FG VV001 12/12 A3002 RMK AO2 SLP162
     T01220122

2001/11/05 09:56
KTPH 050956Z AUTO 36007KT 10SM CLR 06/00 A3020 RMK AO2 SLP187
     T00610000

2001/11/05 09:56
KUKI 050956Z AUTO 00000KT 10SM CLR 07/06 A3008 RMK AO2 SLP181
     T00720056

2001/11/05 09:56
KULM 050956Z AUTO 16011KT 10SM CLR 07/01 A3019 RMK AO2

2001/11/05 09:56
KVVV 050956Z AUTO 18006KT 10SM CLR 11/02 A3007 RMK AO2

2001/11/05 09:56
KWJF 050956Z 00000KT 10SM CLR 07/05 A3006 RMK AO2 SLP177
     T00720050

2001/11/05 09:55
K07G 050955Z AUTO 00000KT 10SM CLR 00/M02 A3036 RMK AO2

2001/11/05 09:47
KHSB 050947Z AUTO 00000KT 10SM CLR 08/02 A3030 RMK AO2

2001/11/05 09:51
KALM 050951Z AUTO 00000KT 10SM CLR 15/10 A3027 RMK AO2

2001/11/05 09:56
KART 050956Z AUTO 32012KT 10SM OVC036 04/M02 A3006 RMK AO2 SLP181
     T00391017

2001/11/05 09:56
KBED 050956Z AUTO 29005KT 10SM -RA BKN037 BKN049 OVC065 06/05
     A2983 RMK AO2 RAB55 SLP114 P0000 T00610050

2001/11/05 09:56
KBUU 050956Z AUTO 00000KT 7SM CLR M01/M01 A3036 RMK AO2

2001/11/05 09:56
KCTB 050956Z AUTO 24008KT 10SM CLR 11/M06 A2990 RMK AO2 SLP108
     T01111061

2001/11/05 09:56
KCXY 050956Z AUTO 31011KT 10SM CLR 07/M01 A3010 RMK AO2 SLP194
     T00721011

2001/11/05 09:56
KDLL 050956Z AUTO 00000KT 10SM CLR M01/M03 A3034 RMK AO2

2001/11/05 09:56
KDUG 050956Z AUTO 17005KT 10SM CLR 18/M02 A3011 RMK AO2 SLP133
     T01781017

2001/11/05 09:57
KDYT 050957Z AUTO 03004KT 10SM CLR 03/02 A3020 RMK AO2

2001/11/05 09:56
KEAU 050956Z AUTO 00000KT 10SM CLR M02/M03 A3028 RMK AO2 SLP261
     T10171033

2001/11/05 09:56
KELZ 050956Z AUTO 32013KT 10SM FEW019 OVC027 01/M03 A3012 RMK AO2
     SLP213 T00061028

2001/11/05 09:56
KFDY 050956Z AUTO 35006KT 10SM CLR 02/M03 A3032 RMK AO2 SLP268
     T00171028

2001/11/05 09:56
KGON 050956Z AUTO 31011KT 10SM CLR 06/04 A2987 RMK AO2 SLP116
     T00610039

2001/11/05 09:56
KHYA 050956Z 28007KT 10SM OVC110 A2981 RMK AO2 RAE28 SLPNO P0002
     $

2001/11/05 09:56
KISP 050956Z 30006KT 10SM CLR 06/03 A2991 RMK AO2 SLP142
     T00610033

2001/11/05 09:56
KJWG 050956Z AUTO 00000KT 1/4SM FG OVC001 08/07 A3031 RMK AO2

2001/11/05 09:56
KJXN 050956Z 00000KT 10SM CLR M03/M04 A3035 RMK AO2 SLP285
     T10281039

2001/11/05 09:56
KLAR 050956Z AUTO 18004KT 10SM CLR M03/M07 A3031 RMK AO2 SLP211
     T10281072 $

2001/11/05 09:55
KMCD 050955Z AUTO 00000KT 10SM CLR M02/M02 A3035 RMK AO2

2001/11/05 09:56
KMMK 050956Z AUTO 35006KT 10SM FEW028 04/02 A2991 RMK AO2 SLP127
     T00440022

2001/11/05 09:56
KMPO 050956Z AUTO 31009G14KT 260V010 10SM FEW008 BKN012 OVC024
     01/00 A2998 RMK AO2 SNE02 SLP163 P0003 T00110000 $

2001/11/05 09:56
KRDM 050956Z AUTO 05004KT 10SM BKN120 04/M01 A3004 RMK AO2 SLP166
     T00441006

2001/11/05 09:56
KSIY 050956Z AUTO 00000KT 10SM CLR 01/M01 A3015 RMK AO2 SLP220
     T00111006

2001/11/05 09:56
KUCA 050956Z AUTO 29007KT 10SM OVC041 03/01 A3003 RMK AO2 SLP175
     T00280006

2001/11/05 09:49
KVWU 050949Z AUTO 16008KT 10SM CLR 09/00 A3001 RMK AO2

2001/11/05 09:53
KBUR 050953Z 12003KT 2 1/2SM BR SCT001 13/13 A2997 RMK AO2 SLP141
     T01280128

2001/11/05 09:53
KTOI 050953Z AUTO 01006KT 10SM CLR 13/03 A3010 RMK AO2 SLP190
     T01280033

2001/11/05 09:56
KRDD 050956Z 36003KT 10SM CLR 08/07 A3005 RMK AO2 SLP172
     T00830067

2001/11/05 09:56
KSPD 050956Z AUTO 20008KT 08/07 A3023 RMK AO2 SLP198 T00830067
     PWINO TSNO $

2001/11/05 09:56
KLXV 050956Z AUTO 00000KT 10SM CLR M03/M08 A3048 RMK AO2 SLP221
     T10331078 FZRANO TSNO

2001/11/05 09:56
KSCK 050956Z AUTO 00000KT 2 1/2SM BR CLR 10/09 A3003 RMK AO2
     SLP168 T01000089 TSNO

2001/11/05 09:56
KP60 050956Z AUTO 34003KT M06/M07 A3030 RMK AO2 SLP253 T10561067
     PWINO FZRANO TSNO

2001/11/05 09:56
KCDJ 050956Z AUTO 00000KT 06/06 A3032 RMK AO2 SLP267 P0001
     T00610061 PWINO TSNO

2001/11/05 09:56
KSFO 050956Z 28011KT 10SM FEW008 12/11 A3006 RMK AO2 SLP180
     T01220106

2001/11/05 09:56
KP28 050956Z AUTO 00000KT 08/ A3028 RMK AO2 SLP251 T0078 PWINO
     TSNO $

2001/11/05 09:56
KP75 050956Z AUTO 00000KT M02/M02 A3035 RMK AO2 SLP285 T10171022
     PWINO FZRANO TSNO

2001/11/05 09:56
KRNO 050956Z 00000KT 10SM CLR 04/M01 A3015 RMK AO2 SLP184
     T00441011

2001/11/05 09:56
KLGB 050956Z 00000KT 1 1/4SM BR SCT008 14/14 A2997 RMK AO2 TWR VIS
     3 SLP149 T01440139

2001/11/05 09:56
KLWD 050956Z AUTO 15005KT 10SM CLR 09/03 A3029 RMK AO2 SLP256
     T00940028 TSNO $

2001/11/05 09:56
KMHS 050956Z AUTO 00000KT 10SM CLR 02/01 A3013 RMK AO2 SLP212
     T00220006 TSNO

2001/11/05 09:56
KSHN 050956Z AUTO 23003KT 10SM OVC008 07/06 A3012 RMK AO2 SLP202
     T00670061 TSNO $

2001/11/05 09:56
KSDM 050956Z AUTO 30004KT 1 1/2SM BR SCT100 16/15 A2995 RMK AO2
     SLP139 T01560150 TSNO

2001/11/05 09:56
KMEH 050956Z AUTO 00000KT 10SM CLR M01/M01 A3002 RMK AO2 SLP168
     T10061011 TSNO $

2001/11/05 09:56
KSEA 050956Z 00000KT 10SM DZ BKN045 BKN060 07/05 A3013 RMK AO2
     DZB54 SLP203 P0000 T00670050

2001/11/05 09:56
KSMP 050956Z AUTO 27008KT 2SM HZ BKN005 BKN010 OVC014 01/M33 A3001
     RMK AO2 RAB0857E02UPB09E14FZRAB14E36SNB02E09B36E54 SLP173
     P0002 T00061333 TSNO $

2001/11/05 09:56
KGNA 050956Z AUTO 02003KT 00/M03 A3024 RMK AO2 SLP250 T00001033
     PWINO FZRANO TSNO $

2001/11/05 09:56
KPHX 050956Z 32010KT 10SM -RA SCT060 BKN100 OVC180 22/13 A3002 RMK
     AO2 RAB18 SLP148 P0001 T02170133 $

2001/11/05 09:56
KMFR 050956Z 00000KT 10SM OVC060 06/03 A3016 RMK AO2 SLP214
     T00610028

2001/11/05 09:56
KWMC 050956Z AUTO 08003KT 10SM CLR 01/M04 A3012 RMK AO2 SLP180
     T00111044

2001/11/05 09:56
KAAF 050956Z AUTO 04007KT 10SM CLR 17/13 A3000 RMK AO2 SLP158
     T01670128 TSNO $

2001/11/05 09:54
KSUS 050954Z 00000KT 3SM BR CLR 03/03 A3031 RMK AO2 SLP265 VIS 1 W
     T00330033

2001/11/05 09:56
KBZN 050956Z AUTO 13010KT 10SM CLR M01/M06 A3008 RMK AO2 SLP183
     T10061061

2001/11/05 09:57
KCLI 050957Z AUTO 00000KT 10SM CLR M02/M04 A3036 RMK AO2

2001/11/05 09:56
KIGM 050956Z AUTO 08009G22KT 10SM -RA BKN070 OVC085 13/13 A3014
     RMK AO2 SLP146 P0008 T01330128 TSNO $

2001/11/05 09:56
KFLG 050956Z AUTO 05004KT 10SM OVC070 08/07 A3029 RMK AO2 RAB33E44
     SLP186 P0000 T00830067 TSNO

2001/11/05 09:56
KYKM 050956Z AUTO 00000KT 1/4SM FG VV001 06/06 A2999 RMK AO2
     SLP158 T00610056 TSNO $

2001/11/05 09:56
KBIL 050956Z 24009KT 10SM CLR 09/M08 A3000 RMK AO2 SLP145
     T00891083

2001/11/05 09:56
KDFW 050956Z 35006KT 1/4SM R17C/0700V1000FT FG OVC004 14/14 A3026
     RMK AO2 TWR VIS 3 SLP240 T01390139 $

2001/11/05 09:56
KD07 050956Z AUTO 20007KT 04/M06 A2995 RMK AO2 SLP145 T00441061
     PWINO TSNO $

2001/11/05 09:56
K2WX 050956Z AUTO 26005KT 09/M04 A2993 RMK AO2 SLP124 T00891039
     PWINO TSNO $

2001/11/05 09:56
K8D3 050956Z AUTO 21012KT 14/02 A3002 RMK AO2 SLP160 T01390017
     PWINO TSNO

2001/11/05 09:53
KUIL 050953Z AUTO 07004KT 10SM FEW036 SCT050 OVC065 03/03 A3013
     RMK AO2 SLP204 T00280028 TSNO

2001/11/05 09:55
KBLV 050955Z 01004KT 7SM SKC 05/03 A3033 RMK WND DATA ESTMD
     SLP272

2001/11/05 09:55
KCVS 050955Z 18008KT 1/4SM R22/RVRNOFT FG VV000 12/12 A3034 RMK
     ESTMD WND SLP241

2001/11/05 09:55
KDMA 050955Z 29011KT 20SM FEW070CB BKN100 OVC200 21/10 A3004 RMK
     OCNL LTGIC DSNT W-NW CB DSNT W-NW MOV NW SLP131 8/363
     9/233

2001/11/05 09:53
KDTS 050953Z AUTO 01007KT 10SM CLR 18/09 A3004 RMK AO2 SLP172
     T01780089

2001/11/05 09:55
KFFO 050955Z VRB02KT 7SM SKC 01/M02 A3031 RMK SLP269

2001/11/05 09:55
KHRT 050955Z 36007KT 7SM SKC 15/08 A3005 RMK SLP177

2001/11/05 09:55
KLFI 050955Z 35010KT 7SM FEW250 11/05 A3007 RMK SLP184 8/008
     9/002

2001/11/05 09:55
KMTC 050955Z 28007KT 10SM SKC 00/M03 A3032 RMK SLP276

2001/11/05 09:56
KNCA 050956Z 00000KT 7SM FEW200 05/04 A3006 RMK SLP178
     T00500044

2001/11/05 09:55
KPOB 050955Z 22004KT 7SM SKC 06/05 A3008 RMK WND DATA ESTMD
     SLP188

2001/11/05 09:55
KRIV 050955Z 23004KT 1/4SM R32/RVRNOFT FG VV001 14/14 A3001 RMK
     R32/M1000FT INSTANTANEOUS READING SLP154

2001/11/05 09:55
KRIV 050955Z COR 23004KT 1/4SM R32/RVRNOFT FG VV001 14/14 A3001
     RMK R32/M1000FT INSTANTANEOUS READING SLP154

2001/11/05 09:55
KVPS 050955Z 36007KT 7SM SKC 16/07 A3005 RMK ESTMD WND SLP176

2001/11/05 09:55
KWRI 050955Z 32006KT 7SM SKC 07/02 A3002 RMK SLP170

2001/11/05 09:55
PGUA 050955Z 06007KT 7SM FEW020 FEW035 SCT090 BKN300 27/25 A2987
     RMK SLP106 8/472 9/236 WR//

2001/11/05 09:50
PWAK 050950Z 06024G29KT 10SM SCT025 28/24 A3000

2001/11/05 09:55
KCFV 050955Z AUTO 00000KT 2SM BR FEW001 OVC049 09/09 A3030 RMK
     AO2

2001/11/05 09:55
KHBR 050955Z AUTO 00000KT 3SM -RA BR FEW001 OVC035 11/11 A3031 RMK
     AO2 P0000 $

2001/11/05 09:56
KJLN 050956Z AUTO 00000KT 1 3/4SM BR CLR 09/09 A3029 RMK AO2

2001/11/05 09:56
KSUS 050956Z 00000KT 1 3/4SM BR CLR 03/03 A3031 RMK AO2 VIS
     1V5

2001/11/05 09:58
PTKK 050958Z VRB04KT 15SM FEW014 BKN120 OVC280 26/25 A2978 RMK
     SLP088 T02610250

2001/11/05 09:55
PTRO 050955Z 18009KT 13SM SCT016TCU BKN120 OVC300 28/24 A2974 RMK
     TCU VC ALQDS

2001/11/05 09:58
KADC 050958Z AUTO 18004KT 10SM CLR 06/02 A3007 RMK AO2

2001/11/05 09:45
KAWG 050945Z AUTO 13004KT 10SM CLR 04/01 A3033 RMK AO1

2001/11/05 09:57
KCBG 050957Z AUTO 16006KT 10SM CLR 07/M02 A3022 RMK AO2

2001/11/05 09:56
KCMY 050956Z AUTO 00000KT 10SM CLR M03/M06 A3033 RMK AO2

2001/11/05 09:56
KCVX 050956Z AUTO 00000KT 10SM CLR 05/M01 A3038 RMK AO2

2001/11/05 09:50
KGCM 050950Z AUTO 01003KT M1/4SM FG OVC001 10/09 A3029 RMK AO2

2001/11/05 09:53
KGHW 050953Z AUTO 19008KT 10SM CLR 08/01 A3012 RMK AO2

2001/11/05 09:54
KJSV 050954Z AUTO 00000KT 11/08 A3028 RMK AO2 PWINO

2001/11/05 09:46
KLRD 050946Z 05003KT 10SM SKC 17/08 A3022

2001/11/05 09:45
KMHR 050945Z 21005KT 15SM SKC 11/07 A3004

2001/11/05 09:55
KSAW 050955Z AUTO 00000KT 10SM CLR M05/M07 A3031 RMK AO2

2001/11/05 09:51
KUNV 050951Z 32004KT 20SM FEW030 04/M02 A3012

2001/11/05 09:51
KWWR 050951Z AUTO 21008KT 5SM BR CLR 09/08 A3028 RMK AO2

2001/11/05 09:56
K55D 050956Z AUTO 00000KT 10SM CLR M06/M07 A3034 RMK AO2

2001/11/05 09:55
KAEL 050955Z AUTO 16004KT 10SM CLR 07/M02 A3026 RMK AO2

2001/11/05 09:55
KAMN 050955Z AUTO 29003KT 10SM CLR M04/M05 A3036 RMK AO2

2001/11/05 09:45
KCAV 050945Z AUTO 15009KT CLR 08/03 A3027 RMK AO1

2001/11/05 09:57
KCCU 050957Z AUTO 26005KT 10SM CLR M02/M09 A3056 RMK AO2

2001/11/05 09:45
KCIN 050945Z AUTO 17005KT 10SM CLR 07/02 A3027 RMK AO1

2001/11/05 09:57
KEFT 050957Z AUTO 00000KT 10SM CLR 04/M02 A3038 RMK AO2

2001/11/05 09:57
KLJF 050957Z AUTO 17005KT 10SM CLR 07/01 A3018 RMK AO2

2001/11/05 09:45
KOXV 050945Z AUTO 13006KT 10SM CLR 08/03 A3030 RMK AO1

2001/11/05 09:56
KRRT 050956Z AUTO 18006KT 10SM CLR 06/02 A2994 RMK AO2

2001/11/05 09:50
PAVW 050950Z 03003KT 20SM FEW050 FEW070 BKN100 M01/M05 A2983 RMK
     SLP103 ARPT WND VRB03KT T10131053

2001/11/05 09:55
PAWR 050955Z 16003KT 3SM BR OVC015 01/00 A2983 RMK SLP101
     400191004 NOSPECI

2001/11/05 09:50
PAVW 050950Z 03003KT 20SM FEW050 FEW070 BKN100 M01/M05 A2983 RMK
     SLP103 ARPT WND VRB03KT T10131053

2001/11/05 09:58
KCKN 050958Z AUTO 17014KT 10SM CLR 07/02 A2997 RMK AO2

2001/11/05 09:56
KCOQ 050956Z AUTO 14004KT 10SM CLR 04/M04 A3017 RMK AO2

2001/11/05 09:56
KELO 050956Z AUTO 19007KT 10SM CLR 07/M03 A3013 RMK AO2

2001/11/05 09:58
KFSE 050958Z AUTO 16010KT 10SM CLR 07/01 A3000 RMK AO2

2001/11/05 09:57
KHCD 050957Z AUTO 17006KT 10SM CLR 07/00 RMK AO2 PWINO

2001/11/05 09:53
KHCO 050953Z AUTO 15013KT 10SM CLR 04/01 A2992 RMK AO2

2001/11/05 09:50
KHDE 050950Z AUTO 19008KT 10SM CLR 08/06 A3021 RMK AO1

2001/11/05 09:58
KMLT 050958Z AUTO 00000KT 10SM OVC055 04/02 A2988 RMK AO2 SLP127
     T00390017

2001/11/05 09:57
KMWM 050957Z AUTO 19006KT 10SM CLR 09/02 A3019 RMK AO2

2001/11/05 09:55
KOEB 050955Z AUTO 00000KT 10SM CLR 00/M02 A3035 RMK AO2

2001/11/05 09:52
KSRR 050952Z AUTO 12005KT 10SM SCT022 SCT100 08/08 A3039 RMK
     AO2

2001/11/05 10:00
KSWF 050950X 29012G20KT 10SM BKN080 05/02 A2995

2001/11/05 09:47
KPRG 050947Z AUTO 08004KT 10SM CLR 02/00 A3034 RMK AO1

2001/11/05 09:56
KAIT 050956Z AUTO 17010KT 10SM CLR 07/00 A3012 RMK AO2

2001/11/05 09:55
KBAX 050955Z AUTO 32004KT 10SM OVC036 02/00 A3031 RMK AO2

2001/11/05 09:57
KBFW 050957Z AUTO 00000KT 10SM CLR M07/M08 A3020 RMK AO2

2001/11/05 09:46
KDNV 050946Z AUTO 00000KT 10SM CLR 01/M01 A3037 RMK AO1

2001/11/05 09:57
KETB 050957Z AUTO 00000KT 10SM CLR M01/M01 A3035 RMK AO2

2001/11/05 09:57
KILL 050957Z AUTO 15006KT 10SM CLR 08/00 A3013 RMK AO2

2001/11/05 09:56
KMJQ 050956Z AUTO 18008KT 10SM CLR 05/M01 A3022 RMK AO2

2001/11/05 09:55
KMOP 050955Z AUTO 00000KT 10SM CLR M02/M03 A3036 RMK AO2

2001/11/05 09:56
KRGK 050956Z AUTO 13006KT 10SM CLR 06/M02 A3026 RMK AO2

2001/11/05 09:53
KLND 050953Z AUTO 36004KT 10SM CLR 06/M08 A3015 RMK AO2 SLP178
     T00611078

2001/11/05 09:53
KMWT 050953Z AUTO 00000KT 10SM CLR 06/05 A3026 RMK AO2 SLP244
     T00560050 TSNO

2001/11/05 09:53
KLND 050953Z AUTO 36004KT 10SM CLR 06/M08 A3015 RMK AO2 SLP178
     T00611078

2001/11/05 09:53
KMWT 050953Z AUTO 00000KT 10SM CLR 06/05 A3026 RMK AO2 SLP244
     T00560050 TSNO

2001/11/05 09:56
KLWS 050956Z AUTO 00000KT 10SM CLR 06/06 A2999 RMK AO2 SLP158
     T00610056 TSNO

2001/11/05 09:56
KICT 050956Z 00000KT 1/4SM R01L/0600V1000FT FG VV001 08/08 A3028
     RMK AO2 SLP250 T00830083 $

2001/11/05 09:50
K3A6 050950Z AUTO 13002KT 14/08 A3001 RMK AO1 SLP173 T01420077

2001/11/05 09:56
KDRA 050956Z 32005KT 10SM OVC110 14/05 A3009 RMK AO2 SLP157
     T01390050

2001/11/05 09:55
KJQF 050955Z AUTO 00000KT 10SM CLR 03/02 A3012 RMK

2001/11/05 09:54
TJSJ 050954Z 00000KT 10SM BKN130 23/23 A2981 RMK AO2 SLP093
     T02330233

2001/11/05 09:55
KHVR 050955Z AUTO 24012KT 10SM CLR 04/M07 A2987 RMK AO2 SLP116
     T00441067

2001/11/05 10:00
PMDY 050950 07008KT 10SM FEW016 SCT026 BKN050 24/19 A3026

2001/11/05 09:52
PJON 050952Z 07011KT 10SM FEW020 27/23 A2996 RMK SLP146

2001/11/05 09:50
PWAK 050950Z 06024G29KT 10SM SCT025 28/24 A3000

2001/11/05 09:57
KONT 050957Z 12005KT 2SM BR FEW001 14/14 A2999 RMK AO2 BR
     FEW000

2001/11/05 09:58
KSLK 050958Z AUTO 32008KT 270V360 2SM -SN BR BKN009 BKN014 OVC019
     00/M01 A2989 RMK AO2 P0000

2001/11/05 09:58
KUAO 050958Z AUTO VRB03KT 3SM -RA BR FEW017 BKN030 OVC040 10/10
     A3015 RMK AO2 P0000

2001/11/05 09:58
KSAN 050958Z 15004KT 3SM BR CLR 17/17 A2997 RMK AO2

2001/11/05 09:58
PAJN 050958Z 12009KT 7SM -RASN SCT009 BKN035 OVC042 03/01 A2981
     RMK AO2 SNB58 MOON DMLY VSBL P0000

2001/11/05 09:55
CYQM 050955Z 00000KT 15SM BKN010 OVC032 RMK SF6SC2

2001/11/05 09:50
LOWG 050950Z VRB02KT 6000 FEW110 SCT270 08/05 Q1021 NOSIG

2001/11/05 09:50
LOWI 050950Z VRB01KT 9999 FEW040 06/04 Q1023 NOSIG

2001/11/05 09:50
LOWK 050950Z VRB01KT 1000 R28/P1500 BCFG FEW001 OVC004 03/03 Q1021
     BECMG 2000 BR FEW002 BKN005

2001/11/05 09:50
LOWL 050950Z 29008KT 250V320 6000 FEW017 SCT021 BKN045 08/04 Q1023
     NOSIG

2001/11/05 09:50
LOWS 050950Z VRB02KT 8000 BKN017 06/04 Q1024 NOSIG

2001/11/05 09:50
LOWW 050950Z 30011KT 9999 FEW027 BKN048 10/05 Q1021 NOSIG

2001/11/05 09:50
ENCN 050950Z VRB07KT 9999 FEW030 06/M04 Q1011

2001/11/05 09:50
ENHD 050950Z 12007KT 9999 -SHRASN FEW010 BKN015CB 01/01 Q1013 PAST
     VIS 4000

2001/11/05 09:50
ENSB 050950Z 28017KT 9999 FEW030 BKN180 M16/M22 Q1004 NOSIG

2001/11/05 09:50
ENTC 050950Z 04006KT 9999 FEW025 M03/M06 Q1001 TEMPO 1500 SHSN
     VV010

2001/11/05 09:55
RODN 050955Z 28006KT 9999 FEW030 FEW070 27/24 A3005 RMK SLP175
     8/170 9/110

2001/11/05 09:55
EHDL 050955Z 25006KT 9999 FEW050 10/05 Q1024 BLU

2001/11/05 09:55
EHEH 050955Z 22003KT 9999 SCT050 09/06 Q1025 BLU BLU

2001/11/05 09:55
EHGR 050955Z VRB03KT 9999 FEW032 10/05 Q1025 BLU BLU

2001/11/05 09:55
EHKD 050955Z VRB03KT 9999 FEW023 10/03 Q1023 BLU BLU TEMPO WHT

2001/11/05 09:55
EHLW 050955Z 27005KT 9999 VCSH FEW018CB 10/05 Q1023 BLU BLU

2001/11/05 09:55
EHSB 050955Z 26004KT 9999 FEW033 BKN050 11/05 Q1024 BLU BLU

2001/11/05 09:55
EHTW 050955Z 25005KT 9999 FEW050 09/05 Q1023 BLU

2001/11/05 09:55
EHVB 050955Z 28004KT 9999 FEW030CB SCT060 09/06 Q1025 BLU BLU

2001/11/05 09:55
EHVL 050955Z 31013KT 9999 VCSH FEW025CB 10/03 Q1023 BLU

2001/11/05 09:55
EHWO 050955Z 33004KT 9999 FEW025 SCT060 12/04 Q1025 BLU BLU

2001/11/05 09:50
ENAL 050950Z 28022G33KT 9999 FEW010CB BKN025 05/M00 Q1005 RERA

2001/11/05 09:50
ENAT 050950Z 12004KT 070V190 9999 3000NNE -SHSN FEW012 SCT025
     BKN035 M05/M07 Q1000

2001/11/05 09:50
ENBL 050950Z VRB02KT 9999 FEW010 SCT020TCU 01/M01 Q1008

2001/11/05 09:50
ENBN 050950Z 06005KT 9999 FEW050 03/M01 Q0999

2001/11/05 09:50
ENBV 050950Z 32014KT 9999 FEW012 SCT020 BKN040 M03/M07 Q0996

2001/11/05 09:50
ENDI 050950Z 24013KT 9999 FEW020 M03/M08 Q1005

2001/11/05 09:50
ENEV 050950Z 03002KT 9999 FEW010 SCT040 M03/M04 Q1001

2001/11/05 09:50
ENFG 050950Z 27011KT 9999 FEW018 M02/M09 Q1003

2001/11/05 09:50
ENFL 050950Z 32019KT 9999 -SHRAGS FEW010 FEW020CB BKN025 02/01
     Q1010

2001/11/05 09:50
ENHF 050950Z 35010KT 9999 VCSH SCT020 BKN045 M04/M08 Q0998

2001/11/05 09:50
ENKB 050950Z 25023G36KT 9999 -SHRAGS FEW009 SCT015CB BKN025 03/02
     Q1001

2001/11/05 09:50
ENLI 050950Z 30012KT 9999 FEW012 SCT015TCU 05/00 Q1014

2001/11/05 09:50
ENLK 050950Z 03005KT 9999 SCT030 M02/M05 Q1002

2001/11/05 09:50
ENML 050950Z 22020KT 4000 -SHRASNGS VV008 03/01 Q1004

2001/11/05 09:50
ENMS 050950Z 00000KT 9999 SCT005 SCT030 M02/M02 Q1000

2001/11/05 09:50
ENNA 050950Z 33007KT 9999 VCSH SCT018 BKN040 M03/M08 Q0999

2001/11/05 09:50
ENNK 050950Z 11003KT 9999 FEW010 FEW015CB SCT035 M03/M04 Q1000

2001/11/05 09:50
ENNM 050950Z VRB02KT 9999 SCT013 BKN022 01/01 Q0998

2001/11/05 09:50
ENOV 050950Z 20008KT 120V270 6000 -SHSN FEW001 SCT008 BKN018
     01/M01 Q1007

2001/11/05 09:50
ENRA 050950Z 15004KT 9999 FEW005 SCT050 M02/M03 Q1001

2001/11/05 09:50
ENRO 050950Z 26005KT CAVOK M03/M07 Q1000

2001/11/05 09:50
ENRY 050950Z 29006KT 260V320 9999 FEW020 05/M07 Q1007 NOSIG

2001/11/05 09:50
ENSD 050950Z VRB01KT 2000 SHSN VV008 01/M00 Q1009

2001/11/05 09:50
ENSG 050950Z 25011KT 9999 -SHSN FEW025 BKN035 XX/XX Q1007

2001/11/05 09:50
ENSH 050950Z 35005KT 9999 FEW020 M01/M06 Q1001

2001/11/05 09:50
ENSK 050950Z 35003KT 9999 FEW025 M03/M05 Q1001

2001/11/05 09:50
ENSN 050950Z 29008KT CAVOK 05/M06 Q1008

2001/11/05 09:50
ENSO 050950Z VRB02KT 9999 -SHRA FEW005 SCT010CB SCT020 02/XX
     Q1011

2001/11/05 09:50
ENSR 050950Z VRB02KT 5000 2500W SHSN FEW015 SCT025 M04/M05
     Q1000

2001/11/05 09:50
ENST 050950Z 06008KT 9999 FEW040 02/M02 Q1000

2001/11/05 09:50
ENTO 050950Z 27007KT CAVOK 04/M06 Q1008

2001/11/05 09:50
ENVD 050950Z 35014KT 9999 FEW012 M06/M08 Q0995

2001/11/05 09:50
ESKN 050950Z 30010KT CAVOK 01/M01 Q1001

2001/11/05 10:00
LELC 051000Z 36005KT 9999 -RA FEW020 SCT050 OVC080 18/116 Q1016
     NOSIG

2001/11/05 10:00
LELC 051000Z 36005KT 9999 -RA FEW020 SCT050 OVC080 18/16 Q1016
     NOSIG

2001/11/05 09:53
KBAF 050953Z AUTO 34011KT 10SM SCT046 06/01 A2987 RMK AO2 SLP119
     T00560011

2001/11/05 09:53
PASC 050953Z 36005KT 10SM -SN BR OVC013 M16/M18 A3026 RMK AO2
     SLP249 P0000 T11611183 $

2001/11/05 09:53
PHJR 050953Z AUTO 05007KT 10SM CLR 24/18 A3004 RMK AO2 SLP179
     T02390183 403000228 TSNO

2001/11/05 09:53
KMEI 050953Z 00000KT 10SM CLR 07/06 A3018 RMK AO2 SLP219
     T00720056

2001/11/05 09:55
PAGA 050955Z AUTO 00000KT 10SM CLR M23/M26 A3013 RMK AO1
     T12281255

2001/11/05 09:55
PAIM 050955Z AUTO 00000KT 10SM OVC070 M11/M17 A3004 RMK AO1
     T11111172

2001/11/05 09:57
KSJX 050957Z AUTO 00000KT 10SM CLR M01/M03 A3036 RMK AO2

2001/11/05 09:50
KATS 050950Z AUTO 15004KT 10SM CLR 13/13 A3030 RMK AO2

2001/11/05 09:58
KCKC 050958Z AUTO 19004KT 10SM CLR 03/M06 A3021 RMK AO2

2001/11/05 09:56
KCQM 050956Z AUTO 18007KT 10SM CLR 08/M04 A3010 RMK AO2

2001/11/05 09:56
KFFM 050956Z AUTO 14008KT 10SM CLR 08/01 A3004 RMK AO2

2001/11/05 09:59
KMHE 050959Z AUTO 15010KT 10SM CLR 07/01 A3010 RMK AO2 SLP192
     T00720006

2001/11/05 09:57
KMVE 050957Z AUTO 17006KT 10SM CLR 08/01 A3011 RMK AO2

2001/11/05 10:00
KOEO 051000Z AUTO 10006KT 10SM CLR 06/M04 A3022 RMK AO2

2001/11/05 09:58
KONA 050958Z AUTO 00000KT 10SM CLR 02/M01 A3030 RMK AO2

2001/11/05 09:54
KOVL 050954Z AUTO 16008KT 10SM CLR 06/01 A3015 RMK AO2

2001/11/05 09:58
KTEW 050958Z AUTO 28003KT 10SM CLR M02/M05 RMK AO2

2001/11/05 09:46
KFWC 050946Z AUTO 01004KT 10SM CLR 07/00 A3031 RMK AO2

2001/11/05 09:57
KEGV 050957Z AUTO 00000KT 10SM CLR M05/M06 A3029 RMK AO2

2001/11/05 09:55
KEVM 050955Z AUTO 04004KT 10SM CLR M02/M04 A3015 RMK AO2

2001/11/05 09:57
KJYG 050957Z AUTO 17011KT 10SM 07/01 A3020 RMK AO2

2001/11/05 09:58
KMGG 050958Z AUTO 16007KT 10SM CLR 06/M01 A3017 RMK AO2 LTG DATA
     MISG

2001/11/05 09:58
KPWC 050958Z AUTO 16006KT 10SM CLR 04/M01 A3010 RMK AO2

2001/11/05 09:59
KRPD 050959Z AUTO 13003KT 10SM CLR 02/M02 A3027 RMK AO2

2001/11/05 09:57
KRZN 050957Z AUTO 16006KT 10SM CLR 06/M03 A3022 RMK AO2

2001/11/05 10:00
KSUW 051000Z AUTO 00000KT 5SM BR CLR M03/M03 A3019 RMK AO2

2001/11/05 09:56
KBIH 050956Z AUTO 36005KT 10SM CLR 06/M01 A3014 RMK AO2 SLP177
     T00561011 TSNO

2001/11/05 09:56
KLWS 050956Z AUTO 00000KT 10SM CLR 06/06 A2999 RMK AO2 SLP158
     T00610056 TSNO

2001/11/05 09:56
KFAT 050956Z 00000KT 2SM BR CLR 13/11 A3004 RMK AO2 TWR VIS 2 1/2
     SLP171 T01280111

2001/11/05 09:55
KBAB 050955Z 07001KT 15SM SKC 11/10 A3004 RMK SLP173

2001/11/05 09:55
KCEF 050955Z 29006KT 25SM SCT035 06/01 A2988 RMK SLP122 8/500
     9/400

2001/11/05 09:55
KFCS 050955Z 33005KT 7SM SKC 04/M04 A3027 RMK SLP287 ESTMD SLP

2001/11/05 09:55
KFMH 050955Z 28006KT 10SM SCT009 OVC100 06/05 A2982 RMK SLP099
     8/57/ 9/48/ WR//

2001/11/05 09:55
KFTK 050955Z 04006KT 7SM SKC 06/M01 A3028 RMK SLP249

2001/11/05 09:55
KGTB 050955Z 31007G15KT 280V020 7SM BKN026 OVC033 02/M01 A3004 RMK
     SLP176 8/8// 9/8// RCRNR

2001/11/05 09:55
KHST 050955Z 06017KT 6SM -RA FEW010 SCT020 OVC035 21/20 A2962 RMK
     SLP030 8/7// 9/8// WR//

2001/11/05 09:55
KLRF 050955Z 24004KT 7SM SKC 09/09 A3026 RMK SLP247

2001/11/05 09:55
KMGE 050955Z 33005KT 7SM SKC 08/02 A3015 RMK SLP208

2001/11/05 09:55
KNIP 050955Z 02016G22KT 7SM SCT090 OVC300 19/17 A2996 RMK SLP140
     T01940167 PA:-10 DA:500

2001/11/05 09:55
KNYG 050955Z 31006KT 7SM SKC 08/M06 A3015 RMK SLP211 T00781055

2001/11/05 09:55
KPSM 050955Z 28008KT 5SM -RA BR BKN005 OVC028 06/05 A2981 RMK
     SLP096 8/72/ 9/58/

2001/11/05 09:55
KRDR 050955Z 17005KT 7SM FEW120 BKN250 03/03 A2993 RMK WND DATA
     ESTMD SLP144 8/071 9/025

2001/11/05 09:55
KTIK 050955Z 19004KT 2SM BR FEW004 SCT020 13/13 A3029 RMK SLP256
     8/600 9/300

2001/11/05 09:53
PABI 050953Z AUTO 23003KT 10SM SCT009 OVC100 M16/M17 A2995 RMK AO2
     SLP187 T11561167 TSNO

2001/11/05 09:56
KNUQ 050956Z AUTO 00000KT 10SM CLR 11/09 A3007 RMK AO2 SLP186
     T01110094 TSNO

2001/11/05 09:59
KPNC 050959Z AUTO 00000KT 3/4SM BR VV001 09/09 A3028 RMK AO2

2001/11/05 09:59
KRNM 050959Z AUTO 20003KT 3/4SM BR SCT001 SCT017 12/12 A2998 RMK
     AO2 TSNO

2001/11/05 09:59
PTKR 050959Z 17008KT 15SM SCT017CB SCT110 OVC290 27/25 A2975 RMK
     SHRAE12 CB VC N-NE MOV N SLP074 T02710246

2001/11/05 09:54
KAIG 050954Z AUTO 16005KT 10SM CLR 01/M03 A3031 RMK AO2

2001/11/05 09:57
KAQP 050957Z AUTO 16006KT 10SM CLR 07/02 A3009 RMK AO2

2001/11/05 09:58
KAUM 050958Z AUTO 16004KT 10SM CLR 04/M04 A3028 RMK AO2

2001/11/05 10:00
KERY 051000Z AUTO 00000KT 10SM CLR M03/M04 A3035 RMK AO2

2001/11/05 09:58
KJVL 050958Z AUTO 00000KT 10SM CLR 00/M01 A3036 RMK AO2

2001/11/05 09:55
KMOX 050955Z AUTO 14010KT 10SM CLR 06/02 A3008 RMK AO2

2001/11/05 09:58
KPDC 050958Z AUTO 11005KT 10SM CLR 01/00 A3033 RMK AO2

2001/11/05 10:00
KSUW 051000Z AUTO 00000KT 5SM BR CLR M03/M03 A3019 RMK AO2

2001/11/05 09:59
KTWM 050959Z AUTO 01003KT 10SM CLR M03/M03 A3020 RMK AO2

2001/11/05 09:45
KGLE 050945Z AUTO 00000KT 1/4SM FG OVC001 11/11 A3031 RMK AO2
     P0001

2001/11/05 09:58
KY15 050958Z AUTO 00000KT 10SM CLR 02/01 A3035 RMK AO2

2001/11/05 09:55
KACB 050955Z AUTO 00000KT 10SM CLR M03/M04 A3036 RMK AO2

2001/11/05 10:00
KIRS 051000Z AUTO 01004KT 10SM CLR M01/M04 A3037 RMK AO2

2001/11/05 09:57
KJKJ 050957Z AUTO 16011KT 10SM CLR 07/02 A2999 RMK AO2

2001/11/05 09:59
KLCK 050959Z AUTO 36007KT 10SM CLR 04/00 A3029 RMK AO2

2001/11/05 09:58
KLDM 050958Z AUTO 00000KT 10SM CLR M04/M06 A3037 RMK AO2

2001/11/05 09:52
KMZH 050952Z AUTO 20007KT 10SM CLR 05/M03 A3017 RMK AO2

2001/11/05 09:59
KSGS 050959Z AUTO 14003KT 10SM CLR 04/M01 A3021 RMK AO2

2001/11/05 09:55
KTTF 050955Z AUTO 00000KT 10SM CLR 01/M01 A3033 RMK AO2

2001/11/05 09:56
KWJF 050956Z 00000KT 10SM CLR 07/05 A3006 RMK AO2 SLP177
     T00720050

2001/11/05 09:53
TIST 050953Z 14007KT 10SM FEW026 27/23 A2983 RMK AO2 SLP103
     T02720228

2001/11/05 09:53
TISX 050953Z AUTO 06003KT 10SM FEW021 25/23 A2984 RMK AO2 SLP102
     T02500228 TSNO

2001/11/05 10:01
KSME 051001Z AUTO 00000KT 10SM CLR 09/01 A3024 RMK AO2

2001/11/05 10:05
KTNB 051005Z AUTO 31013G16KT 10SM CLR 10/01 A3014 RMK AO2

2001/11/05 10:01
KFKN 051001Z AUTO 00000KT 10SM CLR 03/02 A3007 RMK AO1

2001/11/05 09:53
KUIL 050953Z AUTO 07004KT 10SM FEW036 SCT050 OVC065 03/03 A3013
     RMK AO2 SLP204 T00280028 TSNO

2001/11/05 09:58
KDOV 050958Z 28005KT 7SM SKC 05/M04 A3007 RMK WND DATA ESTMD
     SLP182

2001/11/05 09:55
KFBG 050955Z 34003KT 7SM FEW300 09/04 A3008 RMK SLP185 ESTMD SLP
     8/006 9/002

2001/11/05 09:55
KIAB 050955Z 23002KT 1/16SM R19/M1000FT FG BKN000 07/07 A3029 RMK
     WND DATA ESTMD FG BKN000 SLP258

2001/11/05 09:58
KLSF 050958Z 28005KT 7SM SKC 09/06 A3011 RMK SLP198

2001/11/05 09:55
KNFW 050955Z 33004KT 2SM BR SCT002 SCT250 15/14 A3025 RMK SLP243
     T01500144

2001/11/05 09:56
KNGP 050956Z 35007KT 7SM FEW030 20/17 A3016 RMK SLP211
     T02000172

2001/11/05 09:56
KNQI 050956Z AUTO 31005KT 8SM CLR 14/12 A3018 RMK AO2 SLP216
     T0144012 2 TSNO $

2001/11/05 09:56
KNTU 050956Z 34006KT 7SM SKC 08/06 A3005 RMK SLP176 T00780061

2001/11/05 09:55
KNXP 050955Z 12003KT 7SM FEW050 SCT100 SCT200 16/08 A3006 RMK
     SLP151 T01560078

2001/11/05 09:55
KSKA 050955Z VRB03KT 7SM OVC110 06/06 A2995 RMK WND DATA ESTMD
     SLP149 8/07/ 9/08/

2001/11/05 09:55
KSVN 050955Z 02009KT 7SM SCT200 14/08 A3004 RMK SLP173 8/001
     9/004

2001/11/05 09:55
KTCM 050955Z VRB02KT 7SM SCT010 BKN023 BKN050 BKN090 07/05 A3013
     RMK WND DATA ESTMD SLP208 ESTMD SLP 8/570 9/070 WR//

2001/11/05 09:59
PAED 050959Z 07004KT 3SM IC BR FEW000 SCT002 OVC006 M05/M05 A2984
     RMK VIS NW-NE 3/4 CIG LWR DER SLP109 8/6// 9/8// 51015 WR//
     WITH CHEMICALS

2001/11/05 09:59
KAIA 050959Z AUTO 22004KT 1 1/4SM BR CLR M03/M04 A3013 RMK AO2
     $

2001/11/05 10:00
KEWN 051000Z AUTO 31003KT 1 1/4SM BR FEW001 07/06 A3005 RMK
     AO2

2001/11/05 10:00
KFDR 051000Z AUTO 05003KT 3SM BR BKN022 OVC036 13/13 A3026 RMK AO2
     $

2001/11/05 10:00
KIZG 051000Z AUTO 00000KT 3SM -RA BR FEW006 BKN016 OVC020 04/03
     A2981 RMK AO2 P0000

2001/11/05 10:00
KONT 051000Z 13005KT 3/4SM BR SCT001 13/13 A2999 RMK AO2 BR
     SCT000

2001/11/05 10:00
KPWA 051000Z AUTO 19003KT 1/4SM FG SCT001 OVC035 11/11 A3031 RMK
     AO2 $

2001/11/05 10:01
KBVO 051001Z AUTO 00000KT 1/2SM FG BKN001 OVC006 08/08 A3030 RMK
     AO2

2001/11/05 10:01
KIXD 051001Z AUTO 13006KT 1/4SM FG SCT001 OVC009 08/08 A3029 RMK
     AO2

2001/11/05 10:00
KTUL 051000Z 00000KT 1SM BR CLR 11/11 A3028 RMK AO2

2001/11/05 10:00
GMFF 051000Z 02004KT 9999 FEW013 BKN040 18/12 Q1020 NOSIG

2001/11/05 10:00
GMFO 051000Z 04006KT CAVOK 19/14 Q1022 NOSIG

2001/11/05 10:00
GMMN 051000Z 18008KT 8000 SCT020 BKN080 19/17 Q1018 RERA NOSIG

2001/11/05 10:00
GMMX 051000Z 20003KT 8000 SCT026 BKN100 20/13 Q1019 NSG

2001/11/05 10:00
GMTA 051000Z 04004KT 9999 SCT016 BKN026 20/16 Q1019

2001/11/05 09:50
LTAC 050950Z 16012KT 9999 FEW040 SCT100 18/11 Q1017 NOSIG RMK
     RWY21 15012KT

2001/11/05 09:50
LTAF 050950Z 16006KT 120V200 CAVOK 26/06 Q1016 NOSIG RMK RWY23
     15005KT 120V200

2001/11/05 09:50
LTAI 050950Z 09008KT 5000 SHRA FEW020CB SCT030 BKN090 15/14 Q1014
     BECMG 3000 TSRA

2001/11/05 09:50
LTBA 050950Z 04014KT 9999 SCT030 BKN100 14/12 Q1014 NOSIG RMK
     RWY18 04015KT

2001/11/05 09:50
LTBJ 050950Z 19006KT 9999 SCT030 BKN100 15/14 Q1012 NOSIG

2001/11/05 09:50
LTBS 050950Z 11010KT 9999 SCT025 19/13 Q1012 NOSIG

2001/11/05 10:00
OJAI 051000Z 28004KT CAVOK 24/08 Q1018

2001/11/05 10:00
OJAM 051000Z 20004KT CAVOK 22/07 Q1019

2001/11/05 10:00
OLBA 051000Z 23007KT 9999 FEW026 25/17 Q1018 NOSIG

2001/11/05 10:00
OEJN 051000Z 24010KT CAVOK 37/18 Q1013 NOSIG

2001/11/05 10:00
OEMA 051000Z 32007KT CAVOK 33/08 Q1017 NOSIG

2001/11/05 09:50
LTAJ 050950Z 06002KT CAVOK 21/11 Q1018 NOSIG

2001/11/05 09:50
LTCE 050950Z 02006KT 9999 FEW030 13/M04 Q1022 NOSIG

2001/11/05 09:50
LTCG 050950Z 05007KT CAVOK 17/14 Q1017 NOSIG RMK RWY29 07005KT

2001/11/05 09:50
LTCI 050950Z 33008KT 9999 SCT035 16/05 Q1024 NOSIG

2001/11/05 09:50
LTFE 050950Z 27004KT 9999 SCT030 BKN080 15/14 Q1012 RERA NOSIG RMK
     RWY11 05002KT

2001/11/05 10:00
OJAQ 051000Z 36006KT 8000 SKC 27/22 Q1014

2001/11/05 09:50
EBAW 050950Z 25003KT CAVOK 12/04 Q1025

2001/11/05 09:50
EBBR 050950Z VRB01KT 9999 FEW029 11/03 Q1026 NOSIG

2001/11/05 09:50
EBCI 050950Z 36003KT 9999 FEW030 09/07 Q1026

2001/11/05 09:50
EBLG 050950Z 32001KT 9999 FEW015 09/02 Q1025 NOSIG

2001/11/05 09:50
EBOS 050950Z 35007KT 9999 FEW030 11/04 Q1026

2001/11/05 09:50
ELLX 050950Z VRB02KT 7000 FEW015 BKN048 09/05 Q1024 NOSIG

2001/11/05 09:50
EDDF 050950Z 22005KT 9999 FEW020 BKN060 08/08 Q1024 NOSIG

2001/11/05 09:50
EDDH 050950Z 29011KT 9999 -SHRA FEW025TCU SCT050 06/03 Q1019 TEMPO
     29015G25KT 4500 SHRAGS BKN010CB

2001/11/05 09:50
EDDK 050950Z 30006KT 9999 FEW020 10/04 Q1024 NOSIG

2001/11/05 09:50
EDDL 050950Z 27006KT CAVOK 10/04 Q1024 NOSIG

2001/11/05 09:50
EDDM 050950Z 26006KT 9999 FEW040 SCT120 08/04 Q1024 NOSIG

2001/11/05 09:50
EDDN 050950Z 28006KT 9999 BKN022 07/04 Q1023 NOSIG

2001/11/05 09:50
EDDS 050950Z 26003KT 9999 FEW025 BKN048 BKN120 09/04 Q1023
     NOSIG

2001/11/05 09:50
EDDW 050950Z 29012KT 9999 FEW028 09/03 Q1021 NOSIG

2001/11/05 09:50
EDBM 050950Z 29018KT 9999 FEW030 09/02 Q1020

2001/11/05 09:50
EDBM 050950Z 29018KT 9999 FEW030 09/02 Q1020

2001/11/05 09:50
EDDB 050950Z 28016KT 9999 SCT024 08/03 Q1017 NOSIG

2001/11/05 09:50
EDDC 050950Z 29012G25KT 9999 FEW022 BKN068 08/03 Q1019 NOSIG

2001/11/05 09:50
EDDG 050950Z 27007KT CAVOK 09/04 Q1023 NOSIG

2001/11/05 09:50
EDDI 050950Z 29015KT 9999 SCT023 08/03 Q1017 NOSIG

2001/11/05 09:50
EDDP 050950Z 29021G33KT 9999 BKN033 09/03 Q1020 NOSIG

2001/11/05 09:50
EDDR 050950Z 24002KT 2200E VCFG FEW003 BKN060 06/06 Q1024 BECMG
     3000

2001/11/05 09:50
EDDT 050950Z 29014KT 9999 FEW024 08/02 Q1017 NOSIG

2001/11/05 09:50
EDDV 050950Z 28012KT 9999 FEW020 09/04 Q1021 NOSIG

2001/11/05 09:50
EDDW 050950Z 29012KT 9999 FEW028 09/03 Q1021 NOSIG

2001/11/05 09:50
EDXW 050950Z 31022KT 9999 VCSH FEW010 SCT030 08/M02 Q1017

2001/11/05 09:50
EKTS 050950Z 31020KT 9999 SCT030 08/02 Q1012

2001/11/05 10:00
EPKK 051000Z 25008MPS 9999 FEW026 BKN043 10/04 Q1016 741.2

2001/11/05 10:00
EPRZ 051000Z 21007MPS CAVOK 07/02 Q1015 743.0

2001/11/05 10:00
EPSC 051000Z 29008G13MPS 9999 BKN027 08/02 Q1014 756.7

2001/11/05 10:00
UMMM 051000Z 24010G15MPS 6000 BR OYC014 07/03 Q1001 NOSIG RMK QFE
     732 30290055

2001/11/05 10:00
LBBG 051000Z VRB01MPS 9999 BKN022 11/01 Q1018 NOSIG

2001/11/05 10:00
LBPD 051000Z VRB02MPS 9999 BKN050 09/M02 Q1018 NOSIG

2001/11/05 10:00
LBSF 051000Z VRB01MPS 6000 SKC 07/M04 Q1018 NOSIG

2001/11/05 10:00
LBWN 051000Z 24003MPS 210V280 9999 BKN033 10/M00 Q1018 NOSIG

2001/11/05 10:00
LHBP 051000Z 22004KT 8000 NSC 08/03 Q1019 NOSIG

2001/11/05 10:00
LWOH 051000Z 11003KT CAVOK 13/04 Q1016

2001/11/05 10:00
LZIB 051000Z 32005MPS 9999 FEW026 SCT200 12/05 Q1020 NOSIG

2001/11/05 10:00
LZKZ 051000Z 21003MPS 170V270 8000 BKN078 05/M00 Q1019 NOSIG

2001/11/05 10:00
LZTT 051000Z 26009MPS 9999 BKN030 06/00 Q1016 NOSIG

2001/11/05 10:00
EFTP 051000Z 35005KT 300V040 9999 BKN018 01/M02 Q0993 2419//69

2001/11/05 09:50
ENBO 050950Z 04007KT 350V100 9999 VCSH FEW015TCU BKN200 M00/M07
     Q1001 NOSIG

2001/11/05 09:50
ENBR 050950Z VRB02KT 9999 FEW004 FEW012CB SCT035 01/01 Q1011 TEMPO
     3000 SHRASNGS VV010

2001/11/05 09:50
ENGM 050950Z 27005KT 210V310 CAVOK 04/M07 Q1005 NOSIG

2001/11/05 09:50
ENVA 050950Z 24011KT 220V280 9999 VCSH FEW018 BKN028 03/M01 Q1001
     TEMPO 3000 SHSNRAGS VV010

2001/11/05 09:50
ENZV 050950Z VRB02KT 9000SE VCSH FEW008 SCT015CB SCT025 01/M00
     Q1013 TEMPO 35020G30KT 5000 SHRASNGS BKN012CB

2001/11/05 09:50
LGAD 050950Z 36006KT 9999 FEW010 SCT025 BKN080 15/08 Q1012

2001/11/05 09:50
LGAL 050950Z 04012KT 9999 BKN020 OVC070 11/05 Q1016

2001/11/05 09:50
LGAT 050950Z 35011KT 8000 -RA FEW010 FEW020TCU BKN030 0VC080 11/10
     Q1012 NOSIG

2001/11/05 09:50
LGAV 050950Z 31009KT 6000 -RA SCT006 FEW015CB SCT018TCU BKN030
     12/10 Q1012 NOSIG

2001/11/05 09:50
LGEL 050950Z 30005KT 3000 RA SCT008 BKN020 OVC060 11/08 Q1013

2001/11/05 09:50
LGIR 050950Z 17010KT 9999 FEW020 SCT070 20/09 Q1009 NOSIG

2001/11/05 09:50
LGKL 050950Z 35016KT 9999 SCT025 SCT040 BKN090 17/07 Q1010

2001/11/05 09:50
LGKO 050950Z 17011KT 9999 FEW020TCU BKN030 18/12 Q1011

2001/11/05 09:50
LGKR 050950Z 00000KT 9999 FEW030 18/09 Q1013 NOSIG

2001/11/05 09:50
LGKV 050950Z 00000KT 9999 FEW020 BKN030 OVC070 13/07 Q1015

2001/11/05 09:50
LGLM 050950Z 03018G28KT 8000 -RA BKN015 OVC070 11/09 Q1014

2001/11/05 09:50
LGMT 050950Z 00000KT 6000 RA SCT013 SCT025 OVC080 14/13 Q1013

2001/11/05 09:50
LGSA 050950Z 00000KT 9999 FEW020 BKN030 BKN070 16/11 Q1009

2001/11/05 09:50
LGSM 050950Z 00000KT 7000 SCT014 BKN020 OVC070 16/14 Q1011

2001/11/05 09:50
LGSR 050950Z 11006KT 9999 FEW015 SCT020 BKN080 18/14 Q1009
     NOSIG

2001/11/05 09:50
LGTS 050950Z 35009KT 9999 BKN030 OVC080 13/02 Q1018 NOSIG

2001/11/05 09:50
LGRP 050950Z 18006KT 9999 SCT018TCU 20/11 Q1011 NOSIG

2001/11/05 09:50
LGPZ 050950Z 06008KT 9999 FEW020 SCT030 BKN080 17/09 Q1014
     NOSIG

2001/11/05 09:50
LGRX 050950Z 07010KT 9999 FEW008 SCT045 18/06 Q1012

2001/11/05 09:50
LGSK 050950Z 35019KT 3000 RA SCT010 OVC020 11/10 Q1014

2001/11/05 09:50
LGZA 050950Z 36008KT 9999 SCT025 BKN080 17/12 Q1012

2001/11/05 09:50
LIBD 050950Z 34005KT CAVOK 17/09 Q1017

2001/11/05 09:50
LIBR 050950Z 30015KT 9999 FEW025 17/13 Q1015 NOSIG

2001/11/05 09:50
LICC 050950Z VRB03KT CAVOK 18/06 Q1017

2001/11/05 09:50
LICJ 050950Z 25004KT 9999 SCT025 21/13 Q1019

2001/11/05 09:50
LIEA 050950Z VRB03KT 9999 SCT020 19/12 Q1021

2001/11/05 09:50
LIEE 050950Z 29009KT CAVOK 19/14 Q1019 NOSIG

2001/11/05 09:50
LIEO 050950Z 27007KT 9999 FEW020 20/12 Q1018

2001/11/05 09:50
LIMC 050950Z VRB02KT 2500 BR SCT090 11/11 Q1018 NOSIG

2001/11/05 09:50
LIME 050950Z VRB01KT 5000 BR SCT080 SCT200 13/07 Q1017

2001/11/05 09:50
LIMF 050950Z VRB01KT 2500 BR SCT160 10/07 Q1017

2001/11/05 09:50
LIMJ 050950Z 09010KT 9999 SCT025 BKN050 19/14 Q1017

2001/11/05 09:50
LIML 050950Z VRB01KT 2100 BR SCT090 12/09 Q1017 NOSIG

2001/11/05 09:50
LIPB 050950Z VRB01KT CAVOK 09/02 Q1018

2001/11/05 09:50
LIPE 050950Z VRB02KT 8000 SKC 13/06 Q1018

2001/11/05 09:50
LIPH 050950Z 00000KT CAVOK 14/06 Q1017

2001/11/05 09:50
LIPK 050950Z VRB02KT 8000 SKC 13/05 Q1018

2001/11/05 09:50
LIPQ 050950Z 32004KT CAVOK 14/01 Q1017

2001/11/05 09:50
LIPR 050950Z /////KT CAVOK 13/08 Q1017

2001/11/05 09:50
LIPX 050950Z 00000KT 7000 SKC 11/07 Q1017

2001/11/05 09:50
LIPZ 050950Z VRB01KT CAVOK 12/07 Q1017

2001/11/05 09:50
LIRA 050950Z 04005KT CAVOK 12/05 Q1017

2001/11/05 09:50
LIRF 050950Z VRB02KT CAVOK 16/05 Q1018 NOSIG

2001/11/05 09:50
LIRP 050950Z 11006KT 7000 SCT030 SCT040 11/10 Q1018 BECMG 9999

2001/11/05 09:50
LIMC 050950Z VRB02KT 2500 BR SCT090 11/11 Q1018 NOSIG

2001/11/05 09:50
LIPX 050950Z 00000KT 7000 SKC 11/07 Q1017

2001/11/05 09:50
LCEN 050950Z 18011KT 9999 FEW030 26/13 Q1015 NOSIG

2001/11/05 09:50
LCRA 050950Z 17014KT 9999 FEW025TCU FEW035CB 26/17 Q1015

2001/11/05 09:55
MMMZ 050955Z 02006KT 10SM SKC 19/16 A2978 RMK

2001/11/05 10:00
MNMG 051000Z 00000KT 9999 FEW020 23/22 Q1007 A2976

2001/11/05 09:47
MMTJ 050947Z 25003KT 1 1/2SM BR OVC008 17/16 A2999 RMK 7///9
     BINOVC

2001/11/05 09:55
EHAM 050955Z 32009KT 9999 -SHRA FEW030 SCT045 09/04 Q1024
     NOSIG

2001/11/05 09:55
EHBK 050955Z VRB03KT CAVOK 10/04 Q1025 NOSIG

2001/11/05 09:55
EHGG 050955Z 30007KT 260V350 9999 FEW020 SCT070 10/05 Q1023
     NOSIG

2001/11/05 09:55
EHRD 050955Z VRB02KT 9999 VCSH FEW025 SCT050 10/06 Q1025 TEMPO
     33012G25KT 7000 -SHRA

2001/11/05 09:50
ENAN 050950Z 01014KT 4000N -SHSN FEW009 FEW012CB BKN020 M02/M04
     Q1001 TEMPO 1000 SHSN VV008

2001/11/05 09:50
ENDU 050950Z VRB02KT 9999 FEW005 BKN040 M04/M05 Q1000 TEMPO 1500
     SHSN VV010

2001/11/05 09:50
ENEK 050950Z 30019KT 9999 -SHRA SCT015CB 08/00 Q1018

2001/11/05 09:50
ENGC 050950Z 34024KT 9999 VCSH FEW010CB BKN015 04/M01 Q1010

2001/11/05 09:50
ENOA 050950Z 32023KT 9999 VCSH BKN030TCU 04/M04 Q1012

2001/11/05 09:50
ENOL 050950Z 24022KT 9999 VCSH FEW008 BKN012CB 04/03 Q1000 TEMPO
     2000 SHRAGS VV010

2001/11/05 10:00
LEJR 051000Z 18004KT 060V290 4000 -SHRA SCT011CB BKN029 BKN060
     18/17 Q1016

2001/11/05 09:50
LSGC 050950Z 07010KT 9999 BKN006 05/03 Q1022

2001/11/05 09:50
LSGS 050950Z 11003KT 8000 06/03 Q1021

2001/11/05 09:50
LSZG 050950Z 05004KT 3500 BR SCT005 BKN052 06/05 Q1024 BECMG
     5000

2001/11/05 09:50
LSZR 050950Z 11001KT 4500 BR SCT008 BKN010 OVC031 09/07 Q1024
     NOSIG

2001/11/05 09:50
EGAA 050950Z 22013KT 9999 -RA SCT009 BKN030 OVC080 08/07 Q1021
     NOSIG

2001/11/05 09:50
EGBB 050950Z 26007KT CAVOK 09/06 Q1027

2001/11/05 09:50
EGCC 050950Z 20007KT 9999 SCT032 BKN220 08/05 Q1025 NOSIG

2001/11/05 09:50
EGFF 050950Z 36004KT 9999 FEW040 08/05 Q1028

2001/11/05 09:50
EGGD 050950Z 26004KT CAVOK 08/05 Q1028

2001/11/05 09:50
EGGW 050950Z 29005KT 7000 SKC 07/03 Q1027

2001/11/05 09:50
EGHD 050950Z 26003KT 230V320 9999 FEW030 09/07 Q1028

2001/11/05 09:50
EGHH 050950Z 00000KT CAVOK 09/06 Q1028

2001/11/05 09:50
EGJB 050950Z 02005KT 340V070 9999 FEW022 13/07 Q1028

2001/11/05 09:50
EGJJ 050950Z 06005KT 9999 FEW020 12/09 Q1028 NOSIG

2001/11/05 09:50
EGKA 050950Z 36006KT 7000 FEW200 07/06 Q1027

2001/11/05 09:50
EGKB 050950Z 33004KT CAVOK 03/01 Q1027

2001/11/05 09:50
EGKK 050950Z 30002KT 9000 SKC 07/04 Q1027

2001/11/05 09:50
EGLF 050950Z VRB02KT CAVOK 05/04 Q1028

2001/11/05 09:50
EGLL 050950Z 30002KT CAVOK 08/04 Q1027 NOSIG

2001/11/05 09:50
EGNJ 050950Z 20004KT CAVOK 05/03 Q1025

2001/11/05 09:50
EGNM 050950Z 22007KT 190V250 9999 FEW020 BKN120 06/03 Q1024

2001/11/05 09:50
EGNS 050950Z 25018KT 9999 -RA FEW012 OVC022 09/06 Q1023 NOSIG

2001/11/05 09:50
EGNT 050950Z 22002KT 9999 FEW015 SCT080 05/02 Q1022

2001/11/05 09:50
EGNV 050950Z 20008KT 9999 FEW040 SCT065 06/03 Q1023

2001/11/05 09:50
EGNX 050950Z 23006KT 9999 BKN043 07/05 Q1026

2001/11/05 09:50
EGPA 050950Z 18005KT 9999 FEW020 OVC060 04/02 Q1015

2001/11/05 09:50
EGPB 050950Z 00000KT 9999 FEW045 04/M01 Q1015

2001/11/05 09:50
EGPC 050950Z 19006KT 130V240 9999 FEW032 SCT045 05/M01 Q1015

2001/11/05 09:50
EGPD 050950Z 23006KT 9999 -RA SCT018 BKN030 04/00 Q1018 TEMPO 7000
     BKN010

2001/11/05 09:50
EGPF 050950Z 18007KT 5000 DZ FEW007 BKN009 07/06 Q1018

2001/11/05 09:50
EGPH 050950Z 23011KT 9999 DZ SCT035 BKN050 06/05 Q1019

2001/11/05 09:50
EGPK 050950Z 20008KT 5000 -RA FEW010 SCT020 BKN026 08/06 Q1019

2001/11/05 09:50
EGSH 050950Z 26006KT CAVOK 07/04 Q1026

2001/11/05 09:50
EGTE 050950Z VRB01KT 9999 FEW035 09/07 Q1029

2001/11/05 09:50
EGAC 050950Z 21013KT 9999 SCT018 BKN022 07/07 Q1022

2001/11/05 09:50
EGAE 050950Z 25017KT 9999 SHRA FEW024 SCT039 BKN060 10/08
     Q1020

2001/11/05 09:50
EGBJ 050950Z 23003KT 9999 FEW035 09/05 Q1028

2001/11/05 09:50
EGDL 050950Z 20002KT CAVOK 08/05 Q1027 NOSIG

2001/11/05 09:50
EGGW 050950Z 29005KT 7000 SKC 07/03 Q1027

2001/11/05 09:50
EGHE 050950Z 01005KT CAVOK 12/07 Q1030

2001/11/05 09:50
EGJA 050950Z 03006KT 9999 SCT030 11/// Q1027

2001/11/05 09:50
EGLC 050950Z VRB02KT CAVOK 08/02 Q1027

2001/11/05 09:50
EGNT 050950Z 22002KT 9999 FEW015 SCT080 05/02 Q1022

2001/11/05 09:50
EGPC 050950Z 19006KT 130V240 9999 FEW032 SCT045 05/M01 Q1015

2001/11/05 09:50
EGPE 050950Z 15007KT 110V180 9999 RA FEW008 SCT028 BKN040 03/02
     Q1015

2001/11/05 09:50
EGPF 050950Z 18007KT 5000 DZ FEW007 BKN009 07/06 Q1018

2001/11/05 09:50
EGPL 050950Z 25019KT 6000 -RA SCT008 BKN011 BKN016 11/10 Q1012

2001/11/05 09:50
EGPM 050950Z 27004KT 9999 SCT018 BKN220 03/M01 Q1014

2001/11/05 09:50
EGPN 050950Z 05001KT 9999 -RADZ FEW015 SCT025 BKN040 05/01
     Q1018

2001/11/05 09:50
EGPO 050950Z 17020KT 5000 RA FEW008 BKN012 08/07 Q1009

2001/11/05 09:50
EGSS 050950Z 29004KT CAVOK 06/03 Q1027

2001/11/05 09:50
EGTC 050950Z 25005KT 210V300 8000 SKC 07/04 Q1027

2001/11/05 09:55
KNZY 050955Z 050955Z 06005KT 4SM BR BKN060 BKN120 17/17 A2995 RMK
     SLP143 T01720172

2001/11/05 09:52
KTIK 050952Z 18003KT 2SM BR FEW004 SCT020 13/13 A3029

2001/11/05 10:00
KFGN 051000Z AUTO 16013KT 10SM CLR 04/02 A2993 RMK AO2

2001/11/05 09:58
KJYM 050958Z AUTO 00000KT 10SM CLR M01/M03 A3034 RMK AO2

2001/11/05 09:57
KLVN 050957Z AUTO 19009KT 10SM CLR 09/M02 A3022 RMK AO2

2001/11/05 09:58
KPNM 050958Z AUTO 15006KT 10SM CLR 07/M02 A3018 RMK AO2

2001/11/05 09:56
KTOB 050956Z AUTO 18011KT 10SM CLR 07/M01 A3026 RMK AO2

2001/11/05 09:59
KUNU 050959Z AUTO 00000KT 10SM CLR 01/M02 A3036 RMK AO2

2001/11/05 09:55
KCDD 050955Z AUTO 19006KT 10SM CLR 07/M05 A3009 RMK AO2

2001/11/05 10:00
KFQD 051000Z AUTO 17003KT 10SM CLR 04/01 A3012 RMK AO2

2001/11/05 09:53
KLNP 050953Z AUTO 32003KT 10SM CLR 06/00 A3021 RMK AO1

2001/11/05 09:58
KROX 050958Z AUTO 18012KT 10SM CLR 07/03 A2992 RMK AO2

2001/11/05 09:45
KSDA 050945Z AUTO 00000KT 10SM CLR 05/02 A3028 RMK AO1

2001/11/05 09:59
KUNU 050959Z AUTO 00000KT 10SM CLR 01/M02 A3036 RMK AO2

2001/11/05 09:56
K5G9 050956Z AUTO 00000KT 10SM CLR 00/M02 A3035 RMK AO2

2001/11/05 09:59
KAVC 050959Z AUTO 35007KT 7SM CLR 09/03 A3014 RMK AO1

2001/11/05 09:52
KBIE 050952Z AUTO 00000KT 10SM CLR 06/02 A3026 RMK AO1

2001/11/05 09:56
KFOZ 050956Z AUTO 17007KT 10SM CLR 07/M01 A3007 RMK AO2

2001/11/05 10:00
KHRJ 051000Z AUTO 00000KT 10SM CLR 05/03 A3008 RMK AO2

2001/11/05 09:58
KMYP 050958Z AUTO 22009KT 10SM CLR 00/M05 A3065 RMK AO2

2001/11/05 09:56
KBBB 050956Z AUTO 18007KT 10SM CLR 06/M01 A3011 RMK AO2

2001/11/05 09:45
KFFL 050945Z AUTO 13004KT 10SM CLR 05/01 A3033 RMK AO1

2001/11/05 10:00
KLWB 051000Z AUTO 35003KT 10SM CLR 04/M02 A3017 RMK AO2

2001/11/05 09:58
KRNH 050958Z AUTO 16006KT 10SM CLR 04/M04 A3023 RMK AO2

2001/11/05 10:00
KRRL 051000Z AUTO 00000KT 10SM CLR M06/M07 A3031 RMK AO2

2001/11/05 09:58
KSAZ 050958Z AUTO 17007KT 10SM CLR 06/02 A3009 RMK AO2

2001/11/05 10:00
KVTP 051000Z AUTO 25022KT 02/02 A3048 RMK AO2 PWINO

2001/11/05 10:01
KFDK 051001Z AUTO 29008KT 10SM SCT100 08/00 A3016 RMK AO2

2001/11/05 10:02
KCJR 051002Z AUTO 35004KT 10SM CLR 09/M03 A3016 RMK AO1

2001/11/05 10:02
KCPK 051002Z AUTO 00000KT 7SM CLR 06/04 A3006 RMK AO1

2001/11/05 10:01
KOKV 051001Z AUTO 31006KT 10SM CLR 06/M01 A3016 RMK AO1

2001/11/05 10:02
KHLX 051002Z AUTO 31014KT 10SM CLR 09/02 A3011 RMK AO1

2001/11/05 10:05
KLGC 051005Z AUTO 30003KT 10SM CLR 04/03 A3014 RMK A01 P000

2001/11/05 10:01
KMFV 051001Z AUTO 35016G28KT 10SM CLR 13/M03 A3005 RMK AO1

2001/11/05 10:02
KCPW 051002Z AUTO 26007KT 5SM BR SCT003 SCT008 02/01 A3056 RMK
     AO2

2001/11/05 10:02
KEZF 051002Z AUTO 35007G15KT 10SM CLR 09/M05 A3015 RMK AO1

2001/11/05 10:03
KJMR 051003Z AUTO 15003KT 10SM CLR 06/M02 A3019 RMK AO2

2001/11/05 10:02
KPBH 051002Z AUTO 00000KT 10SM CLR M01/M07 A3028 RMK AO2

2001/11/05 10:02
KFVX 051002Z AUTO 00000KT 10SM CLR 03/01 A3011 RMK AO1

2001/11/05 10:03
KGEV 051003Z AUTO 33010G18KT 10SM CLR 09/01 A3013 RMK AO2

2001/11/05 10:01
KMQI 051001Z AUTO 31004KT 10SM CLR 13/08 A3003 RMK AO2

2001/11/05 09:56
KYKM 050956Z AUTO 00000KT 1/4SM FG VV001 06/06 A2999 RMK AO2
     SLP158 T00610056 TSNO $

2001/11/05 10:00
KROS 051000Z AUTO VRB06KT 10SM CLR 04/M03 A3020 RMK

2001/11/05 09:56
KBIH 050956Z AUTO 36005KT 10SM CLR 06/M01 A3014 RMK AO2 SLP177
     T00561011 TSNO

2001/11/05 10:02
KMPV 051002Z AUTO 30010KT 10SM BKN013 OVC018 02/01 A2988 RMK
     AO2

2001/11/05 10:02
KOXR 051002Z AUTO 01007KT 1 1/2SM BR OVC001 13/13 A2997 RMK
     AO2

2001/11/05 10:03
KEWN 051003Z AUTO 30005KT 3SM BR FEW001 07/06 A3005 RMK AO2

2001/11/05 10:03
KSTS 051003Z AUTO 00000KT 1/2SM FG OVC001 07/07 A3006 RMK AO2

2001/11/05 10:03
KTTD 051003Z AUTO 24005KT 6SM -RA BR SCT009 BKN017 OVC042 10/09
     A3013 RMK AO2 P0000 TSNO

2001/11/05 10:00
KPBI 051000Z 04020G26KT 7SM -RA OVC037 21/19 A2969 RMK AO2 PK WND
     05026/0959 P0001

2001/11/05 10:00
KGUY 051000Z AUTO 20011KT 1 3/4SM BR BKN002 11/10 A3026 RMK AO2
     CIG 001V004 TSNO

2001/11/05 10:05
KSAN COR 050958Z COR 15004KT 3SM BR FEW014 BKN040 17/17 A2997 RMK
     AO2

2001/11/05 10:00
NFFN 051000Z 00000KT 10KM -RA SCT018 FEW020CB BKN048 OVC110 23/23
Q1012 SPECI CONDX CEASED

2001/11/05 09:59
EGQS 050959Z 15011KT 7000 RA FEW016 SCT022 OVC050 04/02 Q1016 WHT
NOSIG

2001/11/05 09:55
KCAD 050955Z AUTO 00000KT 10SM CLR M05/M07 A3035 RMK AO2

2001/11/05 10:00
KDNN 051000Z AUTO 00000KT 10SM CLR 08/02 A3017 RMK AO1

2001/11/05 09:58
KRYV 050958Z AUTO 00000KT 10SM CLR M02/M04 A3035 RMK AO2

2001/11/05 10:00
KGYL 051000Z AUTO VRB06KT 10SM CLR 07/00 A3019 RMK

2001/11/05 09:58
KISQ 050958Z AUTO 29003KT 10SM CLR M03/M03 A3036 RMK AO2

2001/11/05 10:00
KLXL 051000Z AUTO 14006KT 10SM CLR 06/M01 A3014 RMK AO2

2001/11/05 09:55
KOZW 050955Z AUTO 00000KT 10SM CLR M01/M03 A3034 RMK AO1

2001/11/05 10:00
KPHN 051000Z AUTO 29005KT 10SM SCT039 01/M02 A3032 RMK AO1

2001/11/05 10:00
KXVG 051000Z AUTO 16005KT 10SM CLR 07/M01 A3008 RMK AO2

2001/11/05 10:02
KTBR 051002Z AUTO 00000KT 10SM CLR 09/09 A3006 RMK AO1

2001/11/05 10:01
KBCB 051001Z AUTO 30006KT 10SM CLR 07/01 A3014 RMK AO1

2001/11/05 10:03
KDPL 051003Z AUTO 00000KT 7SM CLR 02/02 A3005 RMK AO2

2001/11/05 10:03
KPGV 051003Z AUTO 00000KT 7SM CLR 07/06 A3007 RMK AO2

2001/11/05 10:02
KRUQ 051002Z AUTO 00000KT 10SM CLR 02/01 A3011 RMK AO2

2001/11/05 10:02
KSHD 051002Z AUTO 05005KT 10SM CLR 06/00 A3015 RMK AO2

2001/11/05 10:01
KTTA 051001Z AUTO 00000KT 7SM CLR 02/01 A3009 RMK AO2

2001/11/05 10:04
KCTZ 051004Z AUTO 00000KT 10SM CLR 07/05 A3006 RMK AO2

2001/11/05 10:02
KEXX 051002Z AUTO 00000KT 10SM CLR 04/01 A3011 RMK AO2

2001/11/05 10:03
KJYO 051003Z AUTO 31016G22KT 10SM CLR 07/M02 A3013 RMK AO1

2001/11/05 10:03
KTZR 051003Z AUTO 36004KT 10SM CLR 03/M01 A3030 RMK AO2

2001/11/05 09:59
KMWN 050959Z 30017KT 1/16SM SHSN FZFG VV001 M07/M07 RMK
     SHPLESHSNB30 LGT ICG

2001/11/05 09:54
TJSJ 050954Z 00000KT 10SM BKN130 23/23 A2981 RMK AO2 SLP093
     T02330233

2001/11/05 09:55
KBIX 050955Z 03008KT 7SM FEW070 15/06 A3009 RMK SLP192 8/030
     9/010

2001/11/05 09:55
KGSB 050955Z 25004KT 7SM FEW250 07/07 A3006 RMK SLP181 8/001
     9/001

2001/11/05 09:55
KIAB 050955Z COR 23002KT 1/16SM R19/M1000FT FG BKN000 07/07 A3029
     RMK WND DATA ESTMD FG BKN000 SLP258

2001/11/05 09:55
KLSV 050955Z VRB06KT 10SM -SHRA BKN090 OVC120 16/15 A3008 RMK
     SLP170 8/57/ 9/71/ WR//

2001/11/05 09:55
KMCF 050955Z 02011KT 7SM FEW040 SCT100 OVC250 20/18 A2983 RMK WND
     DATA ESTMD SLP105 8/577 9/226

2001/11/05 09:55
KMUO 050955Z 15007KT 7SM SKC 02/M03 A3004 RMK SLP175 ESTMD SLP

2001/11/05 09:56
KNBC 050956Z 36004KT 7SM BKN250 11/08 A3005 RMK SLP176
     T01110078

2001/11/05 09:55
KNGU 050955Z 35009KT 7SM SKC 12/08 A3007 RMK SLP183 T01220078

2001/11/05 09:55
KPOE 050955Z 02006KT 7SM FEW080 14/07 A3020 RMK SLP226 8/070
     9/010

2001/11/05 09:55
KRCA 050955Z VRB02KT 10SM SKC 11/M08 A2999 RMK SLP144

2001/11/05 09:59
KSUU 050959Z 24011KT 25SM SKC 12/10 A3002 RMK WND DATA ESTMD
     SLP168

2001/11/05 09:55
KTCM 050955Z COR VRB02KT 7SM SCT010 BKN023 BKN050 BKN090 07/05
     A3013 RMK WND DATA ESTMD SLP208 ESTMD SLP 8/570 9/570 WR//
     COR 1000

2001/11/05 09:56
PHNG 050956Z 09009G18KT 7SM SCT025 BKN030 BKN220 24/20 A3005 RMK
     SLP1 74 T02390200 402890233

2001/11/05 10:04
KCFV 051004Z AUTO 00000KT 4SM BR FEW001 BKN049 09/09 A3029 RMK
     AO2

2001/11/05 10:05
KIML 051005Z AUTO 00000KT 1/2SM FG VV001 03/ A3018 RMK AO2 $

2001/11/05 10:04
KONT 051004Z 11005KT 1/4SM FG VV001 13/13 A2999 RMK AO2 $

2001/11/05 10:02
KOKC 051002Z 12003KT 1SM R35R/4500V6000FT BR BKN001 BKN029 13/13
     A3029 RMK AO2

2001/11/05 10:04
KCRQ 051004Z AUTO 00000KT 2SM BR FEW120 16/14 A2995 RMK AO2

2001/11/05 09:58
KSAN 050958Z COR 15004KT 3SM BR FEW014 BKN040 17/17 A2997 RMK
     AO2

2001/11/05 10:01
KDMA 051001Z 29009KT 20SM -SHRA SCT070CB BKN100 OVC200 21/11 A3006
     RMK OCNL LTGIC DSNT W-NW CB DSNT W-NW MOV NW PRESRR

2001/11/05 10:00
YMHB 051000Z 16008KT 9999 OVC006 15/13 Q1012

2001/11/05 10:03
CYMH 051003Z AUTO 07003KT 2 3/8SM OVC016 04/03 A3008 RMK VSBY VRBL
1.2V9.+

2001/11/05 10:01
EHGG 051001Z 32010KT 280V030 9999 FEW020 SCT070 09/05 Q1023 NOSIG

2001/11/05 10:00
NFFN 051000Z 00000KT 10KM -RA SCT018 FEW020CB BKN048 OVC110 23/23
Q1012 RETS SPECI CONDX CEASED

2001/11/05 10:00
KD87 051000Z AUTO 00000KT 10SM CLR M01/M03 A3035 RMK AO2

2001/11/05 09:45
KOMH 050945Z AUTO 01007KT 10SM CLR 09/M02 A3013 RMK AO1

2001/11/05 09:45
KIKV 050945Z AUTO 00000KT 10SM CLR 03/00 A3030 RMK AO1

2001/11/05 09:58
KMRJ 050958Z AUTO 15005KT 10SM CLR 06/M05 A3036 RMK AO2

2001/11/05 09:59
KOWA 050959Z AUTO 17014KT 10SM CLR 08/M03 A3022 RMK AO2

2001/11/05 09:55
PALU 050955Z AUTO 21023KT 10SM CLR M08/M13 A2998 RMK AO1
     T10781133

2001/11/05 10:02
KMKJ 051002Z AUTO 25006KT 10SM CLR 06/00 A3020 RMK AO1

2001/11/05 10:02
KPSK 051002Z AUTO 34004KT 10SM CLR 08/01 A3015 RMK AO1

2001/11/05 10:03
KUKF 051003Z AUTO 00000KT 10SM CLR 06/M01 A3013 RMK AO1

2001/11/05 10:03
KSUT 051003Z AUTO 01003KT 10SM CLR 10/05 A3005 RMK AO2

2001/11/05 10:01
KIPJ 051001Z AUTO 00000KT 10SM CLR 03/01 A3012 RMK AO1

2001/11/05 10:02
KAYS 051002Z AUTO 02006KT 10SM CLR 14/08 A3003 RMK AO1

2001/11/05 10:05
KHHR 051005Z AUTO 00000KT 2 1/2SM BR SCT005 14/14 A2997 RMK
     AO2

2001/11/05 10:00
KPBI 051000Z COR 04020G26KT 7SM -RA OVC037 21/19 A2969 RMK AO2 PK
     WND 05026/0959 P0001

2001/11/05 10:04
KSDM 051004Z AUTO 28003KT 1 1/2SM BR FEW004 SCT110 16/15 A2994 RMK
     AO2 TSNO

2001/11/05 10:04
KCON 051004Z AUTO 32005KT 10SM SCT027 OVC090 05/03 A2982 RMK
     AO2

2001/11/05 10:00
KPBI 051000Z COR 04020G26KT 7SM -RA SCT020 OVC037 21/19 A2969 RMK
     AO2 PK WND 05026/0959 P0001

2001/11/05 10:05
PABE 051005Z 00000KT 2SM BR FEW001 M17/M18 A3011 RMK AO2

2001/11/05 10:02
KRNM 051002Z AUTO 18003KT 1 1/4SM BR SCT001 12/12 A2998 RMK AO2
     TSNO

2001/11/05 10:00
RKSI 051000Z 32020KT 9999 BKN040 09/M00 Q1018 NOSIG

2001/11/05 10:00
RKPC 051000Z 36023KT 340V050  -RA SCT020 BKN030 OVC080
           14/10 Q1019 NOSIG

2001/11/05 10:00
RKPK 051000Z 32004KT 8000 -RA FEW020 BKN030 OVC100 14/12 Q1015

2001/11/05 10:00
RKTU 051000Z 21001KT 9999 BKN040 OVC100 08/06 Q1018

2001/11/05 09:50
FHAW 050950Z 12013KT 9999 SCT020 25/18 Q1015 WHT

2001/11/05 09:50
FHAW 050950Z 12013KT 9999 SCT020 25/18 Q1015

2001/11/05 09:55
FLLS 050955Z 03007KT CAVOK 31/15 Q1018 NSG

2001/11/05 10:00
FQMA 051000Z NIL

2001/11/05 10:00
FVHA 051000Z NIL

2001/11/05 10:00
FBMN 051000Z 36006KT 9999 FEW030 34/15 Q1015

2001/11/05 10:00
FBMP 051000Z 02013KT 9999 FEW030 35/12

2001/11/05 10:00
FBSK 051000Z 06006KT CAVOK 30/15 Q1017 NOSIG

2001/11/05 10:00
FDMS 051000Z 14009KT 9999 BKN030 BKN040 23/14 Q1019 NOSIG

2001/11/05 10:00
FYWH 051000Z 34008KT CAVOK 30/04 Q1021

2001/11/05 10:00
GMFF 051000Z 02004KT 9999 FEW013 BKN040 18/12 Q1020 NOSIG

2001/11/05 10:00
GMFO 051000Z 04006KT CAVOK 19/14 Q1022 NOSIG

2001/11/05 10:00
GMME 051000Z 12010KT 8000 SCT016 BKN080 20/17 Q1018 NOSIG

2001/11/05 10:00
GMMN 051000Z 18008KT 8000 SCT020 BKN080 19/17 Q1018 RERA NOSIG

2001/11/05 10:00
GMMX 051000Z 20003KT 8000 SCT026 BKN100 20/13 Q1019 NSG

2001/11/05 10:00
GMTA 051000Z 04004KT 9999 SCT016 BKN026 20/16 Q1019

2001/11/05 10:00
VHHH 051000Z 33016KT 6000 FEW025 27/22 Q1017 TEMPO 4000 HZ

2001/11/05 10:00
WMKJ 051000Z 35004KT 9999 FEW017CB BKN130 26/25 Q1009 RMK F25
     P00.1 R093 1CB NW

2001/11/05 10:00
WMKK 051000Z 32003KT 9999 FEW017CB SCT140 BKN270 29/24 Q1008 NOSIG
     RMK F05 P0.0 R74 2CB N NE E-SE S +NW HZ A/R

2001/11/05 10:00
WMKP 051000Z 26003KT 9999 TS FEW017CB SCT140 BKN270 30/24 Q1009
     RMK F17 P00.0 R071 2CB N-SE JTL NE

2001/11/05 10:00
WMSA 051000Z 33006KT 300V010 9999 FEW018 BKN280 29/24 Q1008 RMK
     F05 P00.0 R074

2001/11/05 10:00
WSSS 051000Z 33003KT 9999 FEW018 BKN140 25/24 Q1009 NOSIG

2001/11/05 10:00
WMKP 051000Z 26003KT 9999 TS FEW017CB SCT140 BKN270 30/24 Q1009
     RMK F17 P00.0 2CB N-SE JTL NE

2001/11/05 10:00
OJAI 051000Z 28004KT CAVOK 24/08 Q1018

2001/11/05 10:00
OJAM 051000Z 20004KT CAVOK 22/07 Q1019

2001/11/05 10:00
OLBA 051000Z 23007KT 9999 FEW026 25/17 Q1018 NOSIG

2001/11/05 10:00
OEDF 051000Z 34007KT 310V030 CAVOK 35/01 Q1015 NOSIG

2001/11/05 10:00
OEDR 051000Z 02007KT CAVOK 35/14 Q1015 NOSIG

2001/11/05 10:00
OEJN 051000Z 24010KT CAVOK 37/18 Q1013 NOSIG

2001/11/05 10:00
OEMA 051000Z 32007KT CAVOK 33/08 Q1017 NOSIG

2001/11/05 10:00
OSAP 1000Z 05002KT CAVOK 23/05 Q1016 NOSIG

2001/11/05 10:00
OSDI 1000Z 18012KT CAVOK 24/01 Q1017 NOSIG

2001/11/05 10:00
OSLK 1000Z 17004KT CAVOK 25/16 Q1015 NOSIG

2001/11/05 10:00
OOSA 051000Z 19009KT 160V220 CAVOK 32/16 Q1012 NOSIG

2001/11/05 09:50
OOMS 050950Z 36007KT 320V030 CAVOK 31/15 Q1014 NOSIG

2001/11/05 10:00
OPKC 051000Z 00000KT 5000 SKC 34/06 Q1012 NOSIG

2001/11/05 10:00
OPLA 051000Z 22505KT 7000 SKC 27/11 Q1012 A2989 NOSIG

2001/11/05 10:00
OJAQ 051000Z 36006KT 8000 SKC 27/22 Q1014

2001/11/05 10:00
SBBE 051000Z 11006KT 9999 FEW020 SCT300 26/25 Q1010

2001/11/05 10:00
SBBR 051000Z 31007KT 9999 SCT020 BKN100 20/19 Q1018

2001/11/05 10:00
SBBV 051000Z 10004KT CAVOK 26/24 Q1008

2001/11/05 10:00
SBCF 051000Z 01004KT 4000 BR BKN004 BKN070 19/19 Q1015

2001/11/05 10:00
SBCG 051000Z 09008KT 4000 BR BKN003 BKN005 BKN090 20/19 Q1013

2001/11/05 10:00
SBFI 051000Z 11004KT 9999 FEW006 19/17 Q1012

2001/11/05 10:00
SBFZ 051000Z 12014KT 9999 SCT020 28/22 Q1012

2001/11/05 10:00
SBGL 051000Z 00000KT 4000 -DZ SCT005 BKN010 OVC080 18/18 Q1014

2001/11/05 10:00
SBGR 051000Z 09004KT 4000E BR BKN006 BKN020 16/16 Q1015

2001/11/05 10:00
SBKP 051000Z 13009KT 6000 SCT080 17/15 Q1014

2001/11/05 10:00
SBNT 051000Z 12010KT 9999 BKN020 28/20 Q1014

2001/11/05 10:00
SBPA 051000Z 00000KT CAVOK 17/XX Q1012

2001/11/05 10:00
SBRF 051000Z 08010KT 9999 SCT020 29/23 Q1014

2001/11/05 10:00
SBSV 051000Z 30003KT 9999 FEW016 BKN300 26/23 Q1014

2001/11/05 10:00
SBCT 051000Z 17002KT 4000 BR OVC003 BKN005 13/13 Q1017

2001/11/05 10:00
SBCY 051000Z 00000KT 9999 FEW015 BKN100 25/23 Q1011

2001/11/05 10:00
SBFL 051000Z 36009KT 9999 SCT035 22/18 Q1012

2001/11/05 10:00
SBMO 051000Z 06005KT 9999 SCT020 26/24 Q1014

2001/11/05 10:00
SBPK 051000Z 03002KT 9999 FEW015 17/16 Q1012

2001/11/05 10:00
SBPV 051000Z 00000KT 5000 BR FEW006 BKN100 23/23 Q1010

2001/11/05 10:00
SBTE 051000Z 36004KT 9999 FEW020 25/23 Q1012

2001/11/05 10:00
SBUG 051000Z 00000KT CAVOK 18/14 Q1009

2001/11/05 10:00
MKJP 051000Z 21005KT 9999 BKN018 FEW20CB SCT200 27/24 Q1005

2001/11/05 10:00
MYEG 051000Z AUTO 15018G27KT 10SM SCT024 SCT033 SCT050 26/23 A2943
     RMK AO2

2001/11/05 09:50
MYEG 050950Z AUTO 15017G26KT 10SM SCT024 SCT031 BKN065 26/23 A2944
     RMK AO2 P0001

2001/11/05 09:53
TIST 050953Z 14007KT 10SM FEW026 27/23 A2983 RMK AO2 SLP103
     T02720228

2001/11/05 09:53
TISX 050953Z AUTO 06003KT 10SM FEW021 25/23 A2984 RMK AO2 SLP102
     T02500228 TSNO

2001/11/05 09:54
TJSJ 050954Z 00000KT 10SM BKN130 23/23 A2981 RMK AO2 SLP093
     T02330233

2001/11/05 10:00
TBPB 051000Z 09007KT 9999 SCT018 BKN300 26/24 Q1011

2001/11/05 10:00
TFFF 051000Z 09002KT 9999 FEW020 23/22 Q1011 NOSIG

2001/11/05 10:00
TFFR 051000Z 9999 SCT020 SCT300 24/23 Q1011 NOSIG

2001/11/05 10:00
TLPC 051000Z 00000KT 9999 FEW024 26/24 Q1011

2001/11/05 10:00
TLPL 051000Z 09011KT 9999 FEW020 27/25 Q1011

2001/11/05 10:00
MPTO 1000Z 00000KT 9999 SCT020TCU 25/24 Q1009

2001/11/05 10:00
MROC 051000Z 25003KT 0600 -DZ FG VV/// 20/19 A2988

2001/11/05 09:55
MUGM 050955Z 19029G35KT SCT010 BKN020 OVC040 26/25 A2964 RMK
     SLP037 T2 SET P0017 T02610250;

2001/11/05 10:00
MGGT 051000Z 36012KT 9999 BKN016 17/14 Q1019 FEW080 PACAYA AND
     FUEGO VOLCNO IS ON YELLOW WARNING

2001/11/05 10:00
MNMG 051000Z 00000KT 9999 FEW020 23/22 Q1007 A2976

2001/11/05 10:00
ZBAA 051000Z 35006MPS CAVOK 07/M06 Q1030 NOSIG

2001/11/05 10:00
ZBTJ 051000Z 33005MPS CAVOK 08/M09 Q1029 NOSIG

2001/11/05 10:00
ZBYN 051000Z 26002MPS CAVOK 07/M09 Q1029 NOSIG

2001/11/05 10:00
ZGGG 051000Z 36007MPS 330V030 CAVOK 21/14 Q1021 NOSIG

2001/11/05 10:00
ZGNN 051000Z 04003MPS 9999 -SHRA BKN011 BKN030 FEW030CB 18/16
     Q1022 NOSIG

2001/11/05 10:00
ZGSZ 051000Z 35006MPS 9999 FEW019 SCT070 26/18 Q1017 NOSIG

2001/11/05 10:00
ZMUB 051000Z VRB02MPS CAVOK M13/M16 Q1024 NOSIG

2001/11/05 10:00
ZPPP 051000Z 09004MPS 9999 FEW026 BKN040 16/09 Q1026 NOSIG

2001/11/05 10:00
ZSAM 051000Z 12002MPS 7000 BKN046 25/19 Q1018 NOSIG

2001/11/05 10:00
ZSHC 051000Z 31004MPS 4000 BR SCT020 OVC040 15/10 Q1026 NOSIG

2001/11/05 10:00
ZSPD 051000Z 33007MPS 5000 BR FEW020 OVC050 15/13 Q1025 NOSIG

2001/11/05 10:00
ZSSS 051000Z 32005MPS 2500 BR FEW016 OVC050 14/11 Q1025 NOSIG

2001/11/05 10:00
ZWWW 051000Z 35001MPS CAVOK 09/M03 Q1024 NOSIG

2001/11/05 10:00
ZYTL 051000Z 01006MPS 9999 SCT030 05/M06 Q1027 NOSIG

2001/11/05 10:00
EPKK 051000Z 25008MPS 9999 FEW026 BKN043 10/04 Q1016 741.2

2001/11/05 10:00
EPKT 051000Z 26005MPS 8000 -SHRA BKN033CB 08/05 Q1016 735.1

2001/11/05 10:00
EPRZ 051000Z 21007MPS CAVOK 07/02 Q1015 743.0

2001/11/05 10:00
EPSC 051000Z 29008G13MPS 9999 BKN027 08/02 Q1014 756.7

2001/11/05 10:00
UMMM 051000Z 24010G15MPS 6000 BR OYC014 07/03 Q1001 NOSIG RMK QFE
     732 30290055

2001/11/05 10:00
UMMS 051000Z 22004G10MPS 6000 OVC017 07/04 Q1001 NOSIG RMK
     31290060

2001/11/05 10:00
LBBG 051000Z VRB01MPS 9999 BKN022 11/01 Q1018 NOSIG

2001/11/05 10:00
LBPD 051000Z VRB02MPS 9999 BKN050 09/M02 Q1018 NOSIG

2001/11/05 10:00
LBSF 051000Z VRB01MPS 6000 SKC 07/M04 Q1018 NOSIG

2001/11/05 10:00
LBWN 051000Z 24003MPS 210V280 9999 BKN033 10/M00 Q1018 NOSIG

2001/11/05 10:00
LHBP 051000Z 22004KT 8000 NSC 08/03 Q1019 NOSIG

2001/11/05 10:00
LRAR 051000Z VRB01MPS CAVOK 10/00 Q1021 NOSIG

2001/11/05 10:00
LRBS 051000Z 25005MPS CAVOK 09/M01 Q1019 NOSIG 07000095

2001/11/05 10:00
LRCK 051000Z 26004MPS CAVOK 09/M02 Q1019 NOSIG

2001/11/05 10:00
LROP 051000Z 26005MPS 230V290 CAVOK 10/M03 Q1018 NOSIG

2001/11/05 10:00
LRTR 051000Z AUTO VRB02MPS 09/M00 Q1020 NOSIG

2001/11/05 10:00
LRTR 051000Z VRB02MPS CAVOK 09/00 Q1020 NOSIG

2001/11/05 10:00
LWOH 051000Z 11003KT CAVOK 13/04 Q1016

2001/11/05 10:00
LWSK 051000Z VRB02KT CAVOK 08/M04 Q1019 NOSIG

2001/11/05 10:00
LZIB 051000Z 32005MPS 9999 FEW026 SCT200 12/05 Q1020 NOSIG

2001/11/05 10:00
LZKZ 051000Z 21003MPS 170V270 8000 BKN078 05/M00 Q1019 NOSIG

2001/11/05 10:00
LZTT 051000Z 26009MPS 9999 BKN030 06/00 Q1016 NOSIG

2001/11/05 10:00
LPAZ 051000Z 055013KT 9999 -SHRA BKN018 BKN040 17/13 Q1024

2001/11/05 10:00
LPFR 051000Z 08006KT 9999 FEW018 FEW020CB SCT025 BKN100 19/19
     Q1014

2001/11/05 10:00
LPPD 051000Z 06005KT 040V130 9999 FEW020 18/14 Q1024

2001/11/05 10:00
LPPR 051000Z VRB03KT CAVOK 17/10 Q1021

2001/11/05 10:00
LPPS 051000Z 01011KT 9999 -SHRA BKN015 FEW020CB 18/17 Q1016

2001/11/05 10:00
LPPT 051000Z 03013KT 360V070 9999 FEW048 BKN250 16/13 Q1016
     NOSIG

2001/11/05 10:00
LFBD 051000Z 03007KT 340V060 3500 BR OVC006 08/06 Q1025 BECMG 5000
     BKN010

2001/11/05 10:00
LFBI 051000Z 03010KT 4000 BR BKN006 08/06 Q1026 NOSIG

2001/11/05 10:00
LFBO 051000Z 22003KT 6000 BKN020 BKN029 13/09 Q1023 NOSIG

2001/11/05 10:00
LFBZ 051000Z 27008KT 9000 FEW013 BKN030 13/10 Q1024 NOSIG

2001/11/05 10:00
LFKB 051000Z 24003KT CAVOK 20/08 Q1017 NOSIG

2001/11/05 10:00
LFKC 051000Z 21011KT 170V240 9999 FEW033 BKN250 20/09 Q1017
     NOSIG

2001/11/05 10:00
LFKJ 051000Z 20003KT 9999 FEW036 SCT250 20/11 Q1019 NOSIG

2001/11/05 10:00
LFLB 051000Z 36006KT 330V040 4500 BR OVC006 07/07 Q1022 NOSIG

2001/11/05 10:00
LFLL 051000Z 35009KT 1800 BR OVC002 06/06 Q1023 NOSIG

2001/11/05 10:00
LFLS 051000Z 34003KT 2000 BR OVC003 06/05 Q1022 BECMG 6000

2001/11/05 10:00
LFML 051000Z 34010KT 8000 FEW046 SCT100 BKN250 12/09 Q1018
     NOSIG

2001/11/05 10:00
LFMN 051000Z 32011KT 9999 FEW026 SCT060 BKN100 14/07 Q1017
     NOSIG

2001/11/05 10:00
LFOB 051000Z 35006KT 9999 FEW015 BKN053 11/07 Q1026 NOSIG

2001/11/05 10:00
LFOT 051000Z 07006KT 2500 BR BKN002 08/08 Q1026 NOSIG

2001/11/05 10:00
LFPB 051000Z 32002KT CAVOK 10/08 Q1026 NOSIG

2001/11/05 10:00
LFPG 051000Z 34006KT 9999 FEW022 SCT050 09/07 Q1026 NOSIG

2001/11/05 10:00
LFPN 051000Z 34004KT CAVOK 10/08 Q1026 NOSIG

2001/11/05 10:00
LFPO 051000Z 16003KT 4000 BR NSC 08/08 Q1026 BECMG 5000

2001/11/05 10:00
LFQQ 051000Z 30007KT CAVOK 09/07 Q1026 NOSIG

2001/11/05 10:00
LFRB 051000Z 01004KT 9999 FEW015 BKN050 12/11 Q1028 NOSIG

2001/11/05 10:00
LFRD 051000Z 24003KT 9999 SCT017 BKN043 11/10 Q1027 NOSIG

2001/11/05 10:00
LFRK 051000Z 02001KT 9999 SCT028 BKN043 12/09 Q1027 NOSIG

2001/11/05 10:00
LFRS 051000Z 06005KT CAVOK 12/08 Q1027 NOSIG

2001/11/05 10:00
LFRT 051000Z 31005KT 9999 BKN016 BKN044 11/10 Q1027 NOSIG

2001/11/05 10:00
LFRZ 051000Z 04005KT CAVOK 12/09 Q1028 NOSIG

2001/11/05 10:00
LFSB 051000Z 28001KT 3000 BR FEW006 BKN053 08/07 Q1024 NOSIG

2001/11/05 10:00
LFST 051000Z 36004KT 4000 BR NSC 09/07 Q1024 NOSIG

2001/11/05 10:00
LFBA 051000Z 32006KT 4000 BR BKN005 SCT030 11/10 Q1023 BECMG
     5000

2001/11/05 10:00
LFBC 051000Z 04007KT 1100 BR OVC002 07/07 Q1025

2001/11/05 10:00
LFBL 051000Z 08008KT 6000 BKN008 07/05 Q1024 BECMG SCT010

2001/11/05 10:00
LFKF 051000Z 28013KT 230V340 9999 SCT050 BKN200 20/11 Q1018
     NOSIG

2001/11/05 10:00
LFLD 051000Z 03007KT 6000 BKN009 08/06 Q1025

2001/11/05 10:00
LFLV 051000Z 34003KT 1200 BR BKN001 OVC003 05/05 Q1025

2001/11/05 10:00
LFOP 051000Z 01004KT CAVOK 10/08 Q1027 NOSIG

2001/11/05 10:00
LFPB 051000Z 32002KT CAVOK 10/08 Q1026 NOSIG

2001/11/05 10:00
LFPG 051000Z 34006KT 9999 FEW022 SCT050 09/07 Q1026 NOSIG

2001/11/05 10:00
LFQB 051000Z 36004KT 3000 BR OVC005 08/07 Q1026 NOSIG

2001/11/05 10:00
LFQQ 051000Z 30007KT CAVOK 09/07 Q1026 NOSIG

2001/11/05 10:00
LFRH 051000Z 03005KT CAVOK 12/10 Q1028

2001/11/05 10:00
LFRM 051000Z 14001KT 7000 FEW002 SCT040 BKN050 09/08 Q1027

2001/11/05 10:00
LFTH 051000Z 28003KT CAVOK 17/07 Q1017 NOSIG

2001/11/05 10:00
EICK 051000Z 25007KT 230V290 FEW028 BKN038 10/08 Q1028 NOSIG

2001/11/05 10:00
EIDW 051000Z 24016KT 9999 BKN013 BKN020 09/07 Q1024 NOSIG

2001/11/05 10:00
EIDW 051000Z 24016KT 9999 -DZ BKN013 BKN020 09/07 Q1024 NOSIG

2001/11/05 10:00
EIKN 051000Z 25010KT 220V280 9999 SCT017 BKN028 09/06 Q1024
     NOSIG

2001/11/05 10:00
EINN 051000Z 27012KT 9999 FEW010 BKN042 12/10 Q1027 NOSIG

2001/11/05 10:00
FIMP 051000Z 08009KT 9999 BKN013 26/22 Q1019

2001/11/05 09:55
FJDG 050955Z 27003KT 9999 BKN020 BKN200 BKN320 31/25 A2982 RMK
     SLP097 T03110245

2001/11/05 10:00
WBGG 051000Z 23006KT 9999 FEW015CB SCT022 BKN150 27/23 Q1009 RMK
     F15 P00.0 R079 2CB SE-W

2001/11/05 10:00
RJAA 051000Z 32002KT 8000 SCT030 BKN060 14/11 Q1020 NOSIG

2001/11/05 10:00
RJCC 051000Z 15010KT 9999 -SHRA FEW005 SCT015 BKN040 09/07
     Q1014

2001/11/05 10:00
RJCH 051000Z 17010KT 9999 FEW040 BKN060 BKN120 14/07 Q1014

2001/11/05 10:00
RJFF 051000Z 16005KT 120V190 6000 SHRA FEW002 SCT005 BKN018 16/15
     Q1014

2001/11/05 10:00
RJFK 051000Z VRB02KT 4500 -SHRA BR FEW001 SCT015 BKN030 18/17
     Q1014

2001/11/05 10:00
RJFT 051000Z 05004KT 2500 SHRA BCFG BR FEW001 SCT003 BKN020 15/15
     Q1015

2001/11/05 10:00
RJFU 051000Z VRB02KT 9999 -RA FEW007 SCT025 BKN050 17/16 Q1014

2001/11/05 10:00
RJNN 051000Z 35006KT 3000 SHRA BR FEW005 SCT015 BKN025 13/13
     Q1017

2001/11/05 10:00
RJOO 051000Z 05004KT 360V100 9000 FEW015 SCT030 BKN040 15/13
     Q1015

2001/11/05 10:00
RJSN 051000Z 17006KT 9999 -RA BKN040 BKN090 13/10 Q1017

2001/11/05 10:00
RJSS 051000Z 26004KT 220V300 9999 FEW040 BKN080 BKN120 12/09
     Q1018

2001/11/05 10:00
RJTT 051000Z 02008KT 9999 FEW025 BKN035 15/08 Q1019

2001/11/05 10:00
ROAH 051000Z 30009KT 9999 FEW015 26/21 Q1016

2001/11/05 09:55
RODN 050955Z 28006KT 9999 FEW030 FEW070 27/24 A3005 RMK SLP175
     8/170 9/110

2001/11/05 10:00
RJBD 051000Z VRB01KT 9999 FEW020 SCT040 BKN080 18/17 Q1015

2001/11/05 10:00
RJCB 051000Z 30003KT 9999 FEW030 SCT120 BKN/// 02/M01 Q1017

2001/11/05 10:00
RJCK 051000Z VRB01KT 9999 FEW020 BKN100 08/06 Q1017

2001/11/05 10:00
RJCM 051000Z 21006KT 9999 FEW040 BKN100 06/01 Q1016

2001/11/05 10:00
RJCN 051000Z 23003KT 9999 FEW035 SCT100 BKN120 04/02 Q1017

2001/11/05 10:00
RJCW 051000Z 14005KT 6000 SHRA FEW008 BKN010 06/05 Q1012

2001/11/05 10:00
RJDC 051000Z 30004KT 270V360 7000 -SHRA FEW010 SCT020 BKN035 16/15
     Q1014

2001/11/05 10:00
RJDT 051000Z 27004KT 240V300 9999 -RA FEW003 SCT035 OVC100 15/12
     Q1014

2001/11/05 10:00
RJEC 051000Z 18013KT 9999 -SHRA SCT030 BKN050 BKN080 08/02
     Q1013

2001/11/05 10:00
RJFM 051000Z 34002KT 9999 -RA FEW015 SCT050 BKN100 19/18 Q1013

2001/11/05 10:00
RJFO 051000Z 30007KT 9999 SHRA FEW010 SCT020 BKN025 17/16
     Q1014

2001/11/05 10:00
RJFR 051000Z VRB02KT 9999 FEW015 SCT020 BKN030 16/14 Q1015

2001/11/05 10:00
RJKA 051000Z VRB01KT 9999 FEW015 SCT020 BKN070 24/22 Q1015

2001/11/05 10:00
RJNT 051000Z 29007KT 220V300 9999 FEW015 SCT030 BKN040 13/12
     Q1014

2001/11/05 10:00
RJOA 051000Z 31004KT 5000 -SHRA BR FEW002 SCT008 BKN020 11/11
     Q1015

2001/11/05 10:00
RJOB 051000Z 05006KT 9999 -RA FEW015 SCT040 BKN060 13/10 Q1014

2001/11/05 10:00
RJOC 051000Z VRB03KT 5000 SHRA BR SCT005 BKN010 BKN025 14/14
     Q1013

2001/11/05 10:00
RJOK 051000Z 01004KT 9999 -RA FEW005 SCT025 BKN050 17/15 Q1014

2001/11/05 10:00
RJOM 051000Z 03007KT 350V070 7000 -RA FEW015 BKN040 BKN060 16/15
     Q1014

2001/11/05 10:00
RJOR 051000Z 20004KT 160V240 9999 -RA FEW040 BKN080 BKN100 17/12
     Q1012

2001/11/05 10:00
RJOT 051000Z VRB02KT 9999 FEW015 SCT030 BKN080 14/12 Q1014

2001/11/05 10:00
RJOY 051000Z 19004KT 140V220 9999 FEW015 SCT030 BKN080 14/12
     Q1016

2001/11/05 10:00
RJSA 051000Z 22015KT 9999 FEW030 SCT045 OVC120 15/02 Q1014

2001/11/05 10:00
RJSC 051000Z 27002KT 9999 FEW030 BKN080 BKN110 11/08 Q1019

2001/11/05 10:00
RJSI 051000Z VRB03KT 7000 RA FEW005 SCT010 BKN030 11/08 Q1019

2001/11/05 10:00
RJSK 051000Z 12011KT 9999 -RA FEW040 BKN050 BKN080 10/08 Q1016

2001/11/05 10:00
RJSM 051000Z 17009KT 9999 FEW030 SCT045 BKN100 12/05 Q1015 RMK
     1SC030 4SC045 6AC100 A2999 FCST 1016 BECMG 1011 FEW030CU
     BKN040SC BKN100AC BECMG 1213 BKN025CU BKN040SC OVC120AC TEMPO
     1316 BKN015CU BKN025CU BKN040SC

2001/11/05 09:55
EHVK 050955Z /////KT 9999 FEW020 SCT050 ///// Q//// BLU

2001/11/05 09:50
BGBW 050950Z 07002KT 2000 -RASN BCFG OVC020 00/00 Q1017

2001/11/05 09:50
BGGH 050950Z 19010KT 9999 BKN061 00/M02 Q1014

2001/11/05 09:50
BGJN 050950Z 18003KT 9999 FEW055 M14/M19 Q1018

2001/11/05 09:50
BGSF 050950Z 06007KT 9999 BKN050 BKN080 M12/M15 Q1017

2001/11/05 10:00
BIAR VRB02KT CAVOK M06/M07 Q1010

2001/11/05 10:00
BIEG 01010KT 9000 -SN FEW005 BKN020 OVC030 M03/// Q1009

2001/11/05 10:00
BIKF 01003KT 9999 SCT013 BKN017 02/00 Q1007

2001/11/05 10:00
LPLA 051000Z 07012KT 9999 SCT020 18/12 Q1027

2001/11/05 09:54
PGSN 050954Z 07011KT 10SM FEW020 27/24 A2987 RMK AO2 SLP112
     T02670239 $

2001/11/05 09:55
PGUA 050955Z 06007KT 7SM FEW020 FEW035 SCT090 BKN300 27/25 A2987
     RMK SLP106 8/472 9/236 WR//

2001/11/05 09:54
PGUM 050954Z 07006KT 10SM CLR 26/24 A2987 RMK AO2 SLP109
     T02610239

2001/11/05 09:53
PHJR 050953Z AUTO 05007KT 10SM CLR 24/18 A3004 RMK AO2 SLP179
     T02390183 403000228 TSNO

2001/11/05 09:54
PHMK 050954Z AUTO 06014G18KT 10SM CLR 23/19 A3004 RMK AO2 SLP173
     T02330194 402780222 TSNO

2001/11/05 09:52
PJON 050952Z 07011KT 10SM FEW020 27/23 A2996 RMK SLP146

2001/11/05 09:55
PKMR 050955Z 09005KT 15SM FEW014 SCT120 OVC300 28/24 A2982 RMK
     SLP102 T02780241

2001/11/05 10:00
PMDY 050950 07008KT 10SM FEW016 SCT026 BKN050 24/19 A3026

2001/11/05 09:58
PTKK 050958Z VRB04KT 15SM FEW014 BKN120 OVC280 26/25 A2978 RMK
     SLP088 T02610250

2001/11/05 09:59
PTKR 050959Z 17008KT 15SM SCT017CB SCT110 OVC290 27/25 A2975 RMK
     SHRAE12 CB VC N-NE MOV N SLP074 T02710246

2001/11/05 09:55
PTRO 050955Z 18009KT 13SM SCT016TCU BKN120 OVC300 28/24 A2974 RMK
     TCU VC ALQDS

2001/11/05 09:54
PTTP 050954Z VRB04KT 15SM FEW018 BKN300 24/24 A2985 RMK SLP106
     T02430236

2001/11/05 09:54
PTYA 050954Z 10006KT 12SM SCT016 BKN130 OVC300 27/25 A2978 RMK
     SLP083 T02720250

2001/11/05 09:50
PWAK 050950Z 06024G29KT 10SM SCT025 28/24 A3000

2001/11/05 10:00
NCRG 051000Z 11016KT 50KM SCT025 23/17 Q1020

2001/11/05 10:00
NFNA 051000Z 01004KT 30KM -RA SCT019 BKN045 OVC100 24/23 Q1012 RMK
     RR 0.2

2001/11/05 10:00
NFTF 051000Z 07009KT 30KM -SHRA FEW006 SCT010 BKN120 25/23
     Q1016

2001/11/05 10:00
NIUE 051000Z AUTO 09012KT //// ////// 24/16 Q1016

2001/11/05 09:54
NSTU 050954Z 09013KT 10SM -SHRA SCT017 OVC040 26/25 A2990 RMK PK
     WND 09032/45 SHRAB40 SLP125 T02630247

2001/11/05 10:00
NTAA 051000Z 16004KT 110V180 9999 FEW026 24/19 Q1012 NOSIG

2001/11/05 10:00
RPLL 051000Z 02008KT 9000 SCT023 SCT300 30/21 Q1011 NOSIG

2001/11/05 10:00
UAFM 051000Z 33001MPS CAVOK 14/01 Q1024 NOSIG RMK 880///70

2001/11/05 10:00
UBBB 051000Z 17012KT 9999 BKN038 18/11 Q1019 88CLRD70 NOSIG

2001/11/05 10:00
UHHH 051000Z 28004MPS CAVOK M06/M16 Q1016 NOSIG

2001/11/05 10:00
UHPP 051000Z 28008G13MPS 9999 FEW033CB BKN100 00/M08 Q1001 NOSIG
     RMK QFE747 SC07

2001/11/05 10:00
UHSS 051000Z 34002MPS 9999 -SHRA BKN020CB 03/01 Q1014 NOSIG RMK
     QFE759 01190065

2001/11/05 10:00
UHSS 051000Z 34002MPS 9999 BKN020CB 03/01 Q1014 NOSIG RMK QFE759
     01190065

2001/11/05 10:00
UMGG 051000Z 23007G11MPS P6000 BKN027 07/03 Q1006 NOSIG RMK
     29290350

2001/11/05 10:00
UMMM 051000Z 24010G15MPS 6000 BR OYC014 07/03 Q1001 NOSIG RMK QFE
     732 30290055

2001/11/05 10:00
UMMS 051000Z 22004G10MPS 6000 OVC017 07/04 Q1001 NOSIG RMK
     31290060

2001/11/05 10:04
UTAA 051004Z 14006MPS 9999 FEW050 20/06 Q1022 NOSIG

2001/11/05 10:00
UTAK 051000Z 14005MPS CAVOK 16/11 Q1023 NOSIG

2001/11/05 10:00
UTNU 051000Z VRB02MPS 8000 SKC 13/03 Q1027 NOSIG RMK QFE761
     31CLRD60

2001/11/05 10:00
SEQU 051000Z 00000KT 9999 SKC 07/05 Q1023

2001/11/05 10:00
SOCA 051000Z 00000KT 9999 SCT016 24/24 Q1010 NOSIG

2001/11/05 10:00
SPIM 051000Z 18004KT 7000 OVC012 16/15 Q1012 NOSIG PP000

2001/11/05 10:00
SPQT 051000Z 00000KT 9999 SCT013 23/22 Q1007 PP000

2001/11/05 10:00
SPQU 051000Z VRB02KT CAVOK 09/M01 Q1024 PP000

2001/11/05 10:00
SPSO 051000Z 00000KT 8000 FEW012 14/12 Q1010 PP000

2001/11/05 10:00
SPZO 051000Z 00000KT 9999 SCT200 07/04 Q1029 PP000

2001/11/05 10:00
SCAR 051000Z 19004KT 9999 OVC040 17/13 Q1014 NOSIG

2001/11/05 10:00
SCCI 051000Z 30012KT 9999 FEW016 SCT200 01/M02 Q0997 NOSIG

2001/11/05 10:00
SCDA 051000Z 17004KT 9999 OVC027 18/11 Q1015 NOSIG

2001/11/05 10:00
SCEL 051000Z 22004KT 7000 OVC017 10/05 Q1017 NOSIG

2001/11/05 10:00
SCFA 051000Z 19004KT 9999 OVC025 16/12 Q1016 NOSIG

2001/11/05 10:00
SCIE 051000Z 00000KT 9999 SCT030 06/05 Q1018 RERASH

2001/11/05 10:00
SCTE 051000Z 36010KT 9999 BKN040 SCT080 08/06 Q1013 NOSIG

2001/11/05 10:00
SGAS 051000Z 18004KT 7000 SKC 20/18 Q1010

2001/11/05 10:00
SGES 051000Z 00000KT 5000 BR SKC 20/18 Q1012

2001/11/05 10:00
SLCB 00000KT 8000 FEW200 10/09 Q1022

2001/11/05 10:00
SLLP 051000Z 08005KT 4000E VCFG FEW002 BKN200 01/00 Q1034

2001/11/05 10:00
SLVR 33005KT 9999 NSC 20/19 Q1009

2001/11/05 10:00
SEMT 051000Z 26006KT 9999 OVC020 21/19 Q1010

2001/11/05 10:00
OERY 051000Z 11006KT CAVOK 32/M03 Q1022 NOCIG

2001/11/05 10:00
LEJR 051000Z 18004KT 060V290 4000 -SHRA SCT011CB BKN029 BKN060
     18/17 Q1016

2001/11/05 10:00
LELC 051000Z 36005KT 9999 -RA FEW020 SCT050 OVC080 18/116 Q1016
     NOSIG

2001/11/05 10:00
LELC 051000Z 36005KT 9999 -RA FEW020 SCT050 OVC080 18/16 Q1016
     NOSIG

2001/11/05 10:00
DTMB 051000Z 30008KT 9999 FEW020 21/13 Q1021

2001/11/05 10:00
DTTA 051000Z 31010KT 9999 FEW020 SCT033 21/13 Q1020

2001/11/05 10:00
DTTJ 051000Z 35010KT 9999 FEW016 22/13 Q1021

2001/11/05 10:00
DTTX 051000Z 01004KT 9999 SCT026 22/13 Q1021

2001/11/05 10:00
DTTZ 051000Z 11004KT CAVOK 23/10 Q1021

2001/11/05 09:50
EGBE 050950Z 21005KT 180V250 CAVOK 07/05 Q1027

2001/11/05 09:50
EDDS 050950Z 26003KT 9999 FEW025 BKN048 BKN120 09/04 Q1023
     NOSIG

2001/11/05 09:50
EGPK 050950Z 20008KT 5000 -RA FEW010 SCT020 BKN026 08/06 Q1019

2001/11/05 10:00
LEMO 051000Z 20009KT 9999 SCT030 BKN065 19/17 Q1017

2001/11/05 10:00
LPLA 051000Z 07012KT 9999 SCT020 18/12 Q1027

2001/11/05 09:50
LTAC 050950Z 16012KT 9999 FEW040 SCT100 18/11 Q1017 NOSIG RMK
     RWY21 15012KT

2001/11/05 09:56
PHNG 050956Z 09009G18KT 7SM SCT025 BKN030 BKN220 24/20 A3005 RMK
     SLP1 74 T02390200 402890233

2001/11/05 09:52
PJON 050952Z 07011KT 10SM FEW020 27/23 A2996 RMK SLP146

2001/11/05 10:00
PMDY 050950 07008KT 10SM FEW016 SCT026 BKN050 24/19 A3026

2001/11/05 09:50
PWAK 050950Z 06024G29KT 10SM SCT025 28/24 A3000

2001/11/05 10:00
RJSM 051000Z 17009KT 9999 FEW030 SCT045 BKN100 12/05 Q1015 RMK
     1SC030 4SC045 6AC100 A2999 FCST 1016 BECMG 1011 FEW030CU
     BKN040SC BKN100AC BECMG 1213 BKN025CU BKN040SC OVC120AC TEMPO
     1316 BKN015CU BKN025CU BKN040SC

2001/11/05 09:55
RODN 050955Z 28006KT 9999 FEW030 FEW070 27/24 A3005 RMK SLP175
     8/170 9/110

2001/11/05 09:50
BGSS 050950Z 08002KT 9999 SCT180 M06/M16 Q1016

2001/11/05 09:50
BGUQ 050950Z 12013KT 9999 FEW038 BKN069 M10/M15 Q1018

2001/11/05 09:53
CWCI 050953Z AUTO 14005KT 04/01 RMK AO1 SLP281 T00370014 53001

2001/11/05 09:56
CWIC 050956Z AUTO 14010KT M20/M22 RMK AO1 SLP129 T12011221
     54000

2001/11/05 09:54
CWZL 050954Z AUTO 15011KT 06/ RMK AO1 PK WND 18016/0856 SLP127
     T0056 50001

2001/11/05 09:50
EDAC 050950Z 28011KT 9999 BKN048 08/06 Q1020

2001/11/05 09:50
EDDE 050950Z 29014KT 9999 BKN026 08/02 Q1021 NOSIG

2001/11/05 09:50
EDFH 050950Z 33006KT 6000 SCT005 BKN040 07/05 Q1024

2001/11/05 09:50
EDTL 050950Z 02003KT 8000 FEW018 BKN052 09/07 Q1024

2001/11/05 09:50
EETU 050950Z 24017KT 9999 OVC009 05/04 Q0987

2001/11/05 09:50
EFET 050950Z AUTO 19002KT CAVOK M12/M12 Q0997

2001/11/05 09:50
EFHA 050950Z 36008KT 330V050 9999 BKN017 M00/M03 Q0993

2001/11/05 09:50
EFJO 050950Z 34005KT 290V010 9999 VCSH SCT011 BKN015 BKN035 00/M01
     Q0991 10910162

2001/11/05 09:50
EFKA 050950Z 36006KT 320V060 9999 BKN008 BKN010 BKN016 M01/M03
     Q0996

2001/11/05 09:50
EFKI 050950Z 35007KT 310V030 9999 FEW013 M02/M07 Q0994

2001/11/05 09:50
EFKS 050950Z 33006KT 280V010 9999 FEW003 SCT006 M07/M09 Q0993

2001/11/05 09:50
EFKT 050950Z 33006KT CAVOK M08/M10 Q0997

2001/11/05 09:50
EFLP 050950Z 36007KT 320V040 9999 BKN030 02/M03 Q0990

2001/11/05 09:50
EFMI 050950Z AUTO 35006KT 310V030 9999 BKN024 OVC037 M00/M02
     Q0992

2001/11/05 09:50
EFSA 050950Z 34007KT 300V020 9999 FEW016 SCT022 OVC032 00/M02
     Q0991

2001/11/05 09:50
EFUT 050950Z 35008KT 320V030 9999 BKN033 01/M01 Q0990

2001/11/05 09:50
EGMH 050950Z 30007KT 9999 FEW017 09/05 Q1027

2001/11/05 09:50
EGSY 050950Z 23006KT CAVOK 08/03 Q1026

2001/11/05 09:50
EGVN 050950Z 24003KT 9999 FEW018 08/04 Q1027 NOSIG

2001/11/05 09:50
EGWU 050950Z 31004KT CAVOK 07/03 Q1027 NOSIG

2001/11/05 09:50
EGYP 050950Z 35005KT 9999 -RA FEW008 BKN110 BKN250 09/06 Q0998 BLU
     TEMPO 8000 SCT012 GRN

2001/11/05 09:50
EKGF 050950Z 31021KT 9999 FEW030 SCT090 08/00 Q1020

2001/11/05 09:50
ENBS 050950Z 31017KT 9999 BKN020 M04/M07 Q0993

2001/11/05 09:50
ENHE 050950Z 07025KT 9999 FEW020 BKN080 05/M06 Q1000

2001/11/05 09:50
ENHK 050950Z 34008KT 300V060 9999 FEW030 M03/M10 Q0999

2001/11/05 10:00
EPWR 051000Z 30005MPS 9999 FEW016CB FEW020 SCT080 09/04 Q1016
     752.0

2001/11/05 09:50
ESGR 050950Z 32008KT CAVOK 04/M00 Q1005

2001/11/05 09:50
ESGT 050950Z 30011KT CAVOK 05/M03 Q1007

2001/11/05 09:50
ESMQ 050950Z 29012KT CAVOK 05/M01 Q1005

2001/11/05 09:50
ESMT 050950Z 32006KT 9999 SCT020 07/01 Q1009

2001/11/05 09:50
ESNG 050950Z 31002KT 9999 -SN SCT010 BKN030 M04/M05 Q0997

2001/11/05 09:50
ESNK 050950Z 30001KT CAVOK M00/M01 Q1000

2001/11/05 09:50
ESOE 050950Z 27006KT CAVOK 02/M01 Q1003 19190095

2001/11/05 09:50
ESSK 050950Z 33005KT CAVOK 02/M01 Q1000

2001/11/05 09:50
ESSL 050950Z AUTO 30013KT //// SKC 04/M02 Q1003

2001/11/05 09:50
ESTL 050950Z 24003KT 9999 VCSH FEW007 SCT039 BKN059 02/01
     Q1010

2001/11/05 09:50
ETUO 050950Z 29009KT 9999 FEW025 09/03 Q1023 BLU NOSIG

2001/11/05 09:50
EVLA 050950Z 29026G38KT 4000 SHRA OVC016CB 06/03 Q0995
     25290095

2001/11/05 09:50
EYPA 050950Z 31026G36KT 9999-SHRA OVC014CB 05/04 Q0998 TEMPO
     27024G36KT 1500 SHRAGR 192///60

2001/11/05 10:00
FAAB 051000Z AUTO 22014KT //// // ////// 19/12 Q1013

2001/11/05 10:00
FABY 051000Z AUTO 27010KT //// // ////// 26/M02 Q1012

2001/11/05 10:00
FACV 051000Z 32015KT CAVOK 25/M01 Q1014

2001/11/05 10:00
FADY 051000Z 34011KT CAVOK 24/00 Q1018

2001/11/05 10:00
FAEO 051000Z 06012KT 9999 FEW015 21/14 Q1023

2001/11/05 10:00
FAER 051000Z AUTO 31006KT //// // ////// 35/// Q1013

2001/11/05 10:00
FAGY 051000Z AUTO 36009KT //// // ////// 21/// Q1020

2001/11/05 10:00
FAHS 051000Z AUTO 14015KT //// // ////// 26/15 Q1018

2001/11/05 10:00
FAIR 051000Z NIL

2001/11/05 10:00
FAKD 051000Z NIL

2001/11/05 10:00
FAKM 051000Z NIL

2001/11/05 10:00
FALT 051000Z NIL

2001/11/05 10:00
FALY 051000Z AUTO 07011KT //// // ////// 20/14 Q1020

2001/11/05 10:00
FAMG 051000Z AUTO 10007KT //// // ////// 24/18 Q1017

2001/11/05 10:00
FAMM 051000Z 31005KT CAVOK 29/01 Q1018

2001/11/05 10:00
FANC 051000Z AUTO 17002KT //// // ////// 18/// Q1021

2001/11/05 10:00
FANS 051000Z NIL

2001/11/05 10:00
FAPG 051000Z AUTO 11006KT //// // ////// 20/15 Q1012

2001/11/05 10:00
FAPH 051000Z NIL

2001/11/05 10:00
FAPM 051000Z AUTO 04006KT //// // ////// 25/17 Q1019

2001/11/05 10:00
FARB 051000Z AUTO 15007KT //// // ////// 26/// Q1017

2001/11/05 10:00
FASS 051000Z AUTO 22006KT //// // ////// 28/M09 Q1017

2001/11/05 10:00
FAUL 051000Z AUTO 05006KT //// // ////// 24/// Q1019

2001/11/05 10:00
FAUT 051000Z 03006KT CAVOK 23/07 Q1015

2001/11/05 10:00
FAVG 051000Z AUTO 09005KT //// // ////// 23/17 Q1017

2001/11/05 10:00
FAVV 051000Z AUTO 34010KT //// // ////// 29/// Q1020

2001/11/05 10:00
FAVY 051000Z AUTO 04005KT //// // ////// 18/14 Q1022

2001/11/05 10:00
FAWI 051000Z AUTO 01011G22KT //// // ////// 28/// Q1021

2001/11/05 10:00
FAWM 051000Z AUTO 34007KT //// // ////// 26/04 Q1018

2001/11/05 10:00
FBPA 051000Z 00000KT 9999 FEW030 FEW035TCU 32/15

2001/11/05 10:00
FBSN 051000Z 36004KT 9999 FEW030 FEW035TCU 36/13

2001/11/05 10:00
FXMM 051000Z 33007KT CAVOK 20/M00 Q1022 NOSIG

2001/11/05 10:00
FYGF 051000Z NIL

2001/11/05 10:00
FYKT 051000Z NIL

2001/11/05 10:00
FYRU 051000Z 35004KT CAVOK 31/14 Q1015

2001/11/05 10:00
FYWB 051000Z NIL

2001/11/05 10:00
FYWW 051000Z NIL

2001/11/05 10:00
GMAD 051000Z 06016KT 8000 BKN100 22/12 Q1017 NOSIG

2001/11/05 10:00
GMFM 051000Z 06004KT 8000 FEW013 SCT020 BKN080 18/14 Q1020

2001/11/05 10:00
GMML 051000Z 06002KT 8000 BKN100 24/16 Q1014

2001/11/05 10:00
GMMZ 051000Z 02008KT 9999 BKN040 SCT100 16/06 Q1025

2001/11/05 09:53
KAUD 050953Z MM/MM RMK T0MMM0MMM

2001/11/05 09:51
KBFU 050951Z AUTO 27003G05KT 08/M04 RMK AO1 RH 39

2001/11/05 09:51
KCMS 050951Z AUTO MMMMMG01KT M01/M08 RMK AO1 RH 61

2001/11/05 09:53
KDRC 050953Z AUTO 23007G11KT 12/M03 RMK AO1 RH 36

2001/11/05 09:50
KFIR 050950Z AUTO 27003G04KT 06/M04 RMK AO1 RH 46

2001/11/05 09:50
KIKA 050950Z AUTO 14009G09KT 06/M08 RMK AO1 RH 38

2001/11/05 09:55
KUDG 050955Z AUTO 32005KT 10SM CLR 07/03 A3009 RMK AO1

2001/11/05 10:00
LBGO 051000Z 00000MPS CAVOK 05/M00 Q1020 NOSIG

2001/11/05 10:00
LFBG 051000Z 05010KT 8000 BKN015 10/06 Q1025

2001/11/05 10:00
LKKV 051000Z 28008KT 230V310 9999 BKN011 05/04 Q1020 RMK REG QNH
     1016

2001/11/05 10:00
LLIB 15008KT CAVOK 24/12 Q1017

2001/11/05 10:00
LPFL 051000Z 08007KT 010V130 9999 BKN018 18/13 Q1028 RWY36 09005KT
     040V180

2001/11/05 10:00
LPHR 051000Z 05007KT 9999 FEW016 BKN040 17/12 Q1026

2001/11/05 10:00
LQMO 051000Z VRB01KT CAVOK 15/M04 Q1017

2001/11/05 09:55
LQTZ 050955Z VRB01KT 9000 HZ FEW020 FEW200 09/M02 A3013 RMK PK WND
     25 004/40 FU FEW020 SLPNO 8/001 9/001 BLU

2001/11/05 10:00
LROD 051000Z 31002MPS CAVOK 07/01 Q1021 NOSIG

2001/11/05 09:50
LTAZ 050950Z 29005KT 9999 FEW040 15/06 Q1018

2001/11/05 09:50
LTBU 050950Z 04017KT 9999 SCT030 BKN100 12/07 Q1017

2001/11/05 09:50
LTCF 050950Z 00000KT CAVOK 13/02 Q1024

2001/11/05 09:50
LTFC 050950Z 06011KT 9999 -SHRA BKN030 BKN090 11/10 Q1015
     NOSIG

2001/11/05 10:00
LZPP 051000Z 00000MPS 9999 FEW040 BKN100 05/01 Q1020

2001/11/05 10:00
LZSL 051000Z VRB01MPS 6000 FEW005 SCT045 BKN048 05/01 Q1019

2001/11/05 10:00
LZZI 051000Z 27004MPS 9999 FEW030 SCT060 07/02 Q1019

2001/11/05 09:55
PAAK 050955Z AUTO 14033G40KT 3/4SM OVC001 05/04 A2947 RMK AO1

2001/11/05 09:55
PATL 050955Z AUTO 00000KT 10SM CLR M14/M17 A3000 RMK AO1
     T11441172

2001/11/05 10:00
RJBB 051000Z 10004KT 070V140 7000 FEW020 SCT030 BKN080 15/13 Q1015
     NOSIG

2001/11/05 10:00
RJBH 051000Z 01004KT 330V040 5000 -SHRA BR FEW010 SCT020 BKN030
     13/12 Q1015

2001/11/05 10:00
RJFS 051000Z 06004KT 2000 SHRA BR FEW010 SCT020 BKN030 15/14
     Q1014

2001/11/05 10:00
RJOW 051000Z 14006KT 8000 -SHRA FEW003 SCT015 BKN050 16/15
     Q1014

2001/11/05 10:00
RJSF 051000Z 17007KT 9999 SCT020 BKN035 13/08 Q1019

2001/11/05 10:00
RJSR 051000Z VRB04KT 9999 FEW035 BKN045 BKN080 09/07 Q1016

2001/11/05 10:00
RJSY 051000Z 14008KT 9999 -RA SCT050 OVC080 12/10 Q1018

2001/11/05 10:00
ROIG 051000Z 35005KT 9999 FEW030 25/19 Q1016

2001/11/05 10:00
ROKJ 051000Z 34008KT 9999 FEW020 25/20 Q1016

2001/11/05 10:00
ROMY 051000Z 03004KT 360V060 9999 FEW030 23/20 Q1017

2001/11/05 10:00
RORS 051000Z 35010KT 9999 FEW025 24/20 Q1017

2001/11/05 10:00
SAWH 1000UTC 16001KT 9999 FEW040 02/M01 Q0995

2001/11/05 10:00
SBRB 051000Z 00000KT 0500 FG SKC 21/21 Q1010

2001/11/05 10:00
UMGG 051000Z 23007G11MPS P6000 BKN027 07/03 Q1006 NOSIG RMK
     29290350

2001/11/05 10:00
UMKK 051000Z 28015G20MPS P6000 BKN021CB 06/03 Q1002 NOSIG RMK QFE
     751 SC065

2001/11/05 10:00
UWKD 051000Z 20007MPS 9999 OVC005 03/02 Q1004 NOSIG RMK QFE743
     292/0050

2001/11/05 10:00
ZGOW 051000Z 34004MPS CAVOK 25/19 Q1018 NOSIG

2001/11/05 10:00
ZLXY 051000Z 04003MPS CAVOK 12/M00 Q1030 NOSIG

2001/11/05 10:00
ZSQD 051000Z 33008MPS CAVOK 09/M06 Q1027 NOSIG

2001/11/05 10:00
ZYTX 051000Z 36004MPS 9999 OVC030 M00/M03 Q1028 NOSIG

2001/11/05 09:45
KARL 050945Z AUTO 23031G36KT 11/M06 RMK AO1 RH 29 PCPNY

2001/11/05 09:46
KBIT 050946Z AUTO 27009G10KT 07/M09 RMK AO1 RH 32

2001/11/05 09:47
KBVR 050947Z AUTO 23016G21KT 06/M04 RMK AO1 RH 49

2001/11/05 09:46
KCTD 050946Z AUTO 18009G11KT 04/M06 RMK AO1 RH 48

2001/11/05 09:49
KDHS 050949Z AUTO 09002G03KT M02/M08 RMK AO1 RH 63 PCPNU

2001/11/05 09:45
KHLD 050945Z AUTO 23010G11KT 08/M08 RMK AO1 RH 31

2001/11/05 09:48
KIDV 050948Z AUTO 23011G12KT 08/M09 RMK AO1 RH 27

2001/11/05 09:45
KMTR 050945Z AUTO 27004G05KT 08/M12 RMK AO1 RH 23

2001/11/05 09:46
KPAT 050946Z AUTO 23009G10KT 06/M06 RMK AO1 RH 46

2001/11/05 09:48
KPIN 050948Z AUTO 18001G02KT 09/M09 RMK AO1 RH 27

2001/11/05 09:48
KPUM 050948Z AUTO 27005G06KT 08/M06 RMK AO1 RH 35

2001/11/05 09:47
KTMH 050947Z AUTO 23010G11KT 06/M08 RMK AO1 RH 38

2001/11/05 09:49
KVDW 050949Z AUTO 23010G11KT 06/M07 RMK AO1 RH 42

2001/11/05 09:49
KWTR 050949Z AUTO 27011G13KT 04/M06 RMK AO1 RH 51

2001/11/05 09:45
LHBC 050945Z 31001MPS CAVOK 09/00 Q1021

2001/11/05 09:45
LHDC 050945Z VRB02MPS CAVOK 07/M01 Q1021 NOSIG

2001/11/05 09:45
LHPP 050945Z 18001MPS 8000 SKC 09/M01 Q1021

2001/11/05 09:45
LHSA 050945Z 35016G24KT CAVOK 11/03 Q1021 SCT

2001/11/05 09:45
LHSN 050945Z 23006KT 8000 08/M03 Q1020 SKC

2001/11/05 09:45
LHSY 050945Z 09001MPS CAVOK 09/02 Q1021

2001/11/05 09:45
LHTA 050945Z 00000KT 6000 09/00 Q1021 FEW

2001/11/05 09:45
LHUD 050945Z 19002MPS CAVOK 08/M01 Q1021

2001/11/05 10:00
KCCO 051000Z AUTO 00000KT 10SM CLR 02/02 A3014 RMK AO1

2001/11/05 09:57
KHYX 050957Z AUTO 33006KT 10SM CLR 01/M02 A3036 RMK AO2

2001/11/05 09:58
KMNH 050958Z AUTO 22009KT 10SM CLR 07/01 A3029 RMK AO2

2001/11/05 09:58
KMRJ 050958Z AUTO 15005KT 10SM CLR 06/M05 A3036 RMK AO2

2001/11/05 09:55
KRMY 050955Z AUTO 00000KT 10SM CLR M02/M03 A3036 RMK AO2

2001/11/05 09:58
KSTE 050958Z AUTO 00000KT 10SM CLR M03/M03 A3033 RMK AO2

2001/11/05 10:00
KVUJ 051000Z AUTO 00000KT 10SM CLR 04/02 A3012 RMK AO2

2001/11/05 10:00
KWDR 051000Z AUTO 34004KT 10SM CLR 09/03 A3016 RMK AO1

2001/11/05 10:05
KASJ 051005Z AUTO 00000KT 10SM CLR 03/02 A3007 RMK AO2

2001/11/05 10:06
KDNV 051006Z AUTO 00000KT 10SM CLR 01/M01 A3037 RMK AO1

2001/11/05 10:03
KHBI 051003Z AUTO 00000KT 10SM CLR 06/03 A3009 RMK AO1

2001/11/05 10:02
KMTV 051002Z AUTO 32003KT 10SM CLR 01/00 A3013 RMK AO1

2001/11/05 10:03
KOCW 051003Z AUTO 00000KT 10SM CLR 05/03 A3004 RMK AO2

2001/11/05 10:01
KSVH 051001Z AUTO 33003KT 10SM CLR 14/03 A3010 RMK AO2

2001/11/05 10:01
KTDF 051001Z AUTO 00000KT 10SM CLR 10/M01 A3010 RMK AO1

2001/11/05 10:06
KBFL 051006Z 08009KT 3SM HZ CLR 16/12 A3003 RMK AO2

2001/11/05 10:06
KAAO 051006Z AUTO 23005KT 2SM BR SCT002 12/12 A3028 RMK AO2

2001/11/05 10:06
KBFD 051006Z AUTO 32010KT 10SM SCT021 BKN026 OVC042 01/M02 A3014
     RMK AO2 FZRANO $

2001/11/05 10:06
KCEC 051006Z AUTO 08003KT 1 1/2SM -RA BR FEW001 SCT014 OVC019
     11/11 A3019 RMK AO2 P0001

2001/11/05 10:06
KDEQ 051006Z AUTO 00000KT 1 1/2SM BR CLR 06/06 A3026 RMK AO2

2001/11/05 10:05
KITR 051005Z AUTO 21008KT 1 1/4SM BR CLR 02/02 A3021 RMK AO2 $

2001/11/05 10:06
KMAE 051006Z AUTO 07004KT 3SM BR 12/11 A3004 RMK AO2 $

2001/11/05 10:06
KRBG 051006Z AUTO 01004KT 10SM OVC027 11/09 A3018 RMK AO2 $

2001/11/05 10:06
KSLK 051006Z AUTO VRB05KT 1 1/2SM -SN BR BKN009 BKN014 OVC026
     00/M01 A2989 RMK AO2 P0000

2001/11/05 09:56
KETH 050956Z AUTO 15010KT 10SM CLR 10/01 A3004 RMK AO2

2001/11/05 09:59
KONZ 050959Z AUTO 34005KT 10SM CLR 03/M03 A3032 RMK AO2

2001/11/05 09:59
KOSC 050959Z AUTO 10SM CLR M01/M03 A3034 RMK AO2

2001/11/05 09:58
KRSN 050958Z AUTO 00000KT 14/09 A3023 RMK AO1

2001/11/05 09:59
KW99 050959Z AUTO 35005KT 10SM SCT049 07/01 A3019 RMK AO2

2001/11/05 10:01
KRHP 051001Z AUTO 00000KT 10SM CLR 00/M01 A3018 RMK AO2

2001/11/05 10:06
KFWC 051006Z AUTO 01004KT 10SM CLR 07/00 A3031 RMK AO2

2001/11/05 10:06
KFOA 051006Z AUTO 36004KT 10SM 04/M02 A3033 RMK AO2

2001/11/05 10:06
KIGQ 051006Z AUTO 00000KT 10SM CLR 01/01 A3036 RMK AO2

2001/11/05 10:05
KGLE 051005Z AUTO 00000KT 1/2SM FG OVC001 12/11 A3031 RMK AO2

2001/11/05 10:01
KBQK 051001Z AUTO 01005KT 10SM CLR 14/13 A3002 RMK AO2

2001/11/05 10:04
KEDE 051004Z AUTO 36004KT 10SM CLR 09/06 A3005 RMK AO2

2001/11/05 10:07
KGBG 051007Z AUTO 00000KT 10SM CLR 03/M01 A3038 RMK AO2

2001/11/05 10:02
KIWA 051002Z AUTO 30011KT 10SM -RA SCT110 23/14 A3003 RMK AO2

2001/11/05 10:01
KMDZ 051001Z AUTO 15006KT 10SM CLR 03/M06 A3028 RMK AO2

2001/11/05 10:01
KMRN 051001Z AUTO 00000KT 10SM CLR 05/01 A3012 RMK AO2

2001/11/05 10:07
KMWA 051007Z AUTO 00000KT 10SM CLR 08/05 A3029 RMK AO2

2001/11/05 10:04
KMWK 051004Z AUTO 00000KT 10SM CLR 06/01 A3011 RMK AO2

2001/11/05 10:02
KPTB 051002Z AUTO 01008KT 10SM CLR 11/03 A3010 RMK AO1

2001/11/05 10:02
KVJI 051002Z AUTO 00000KT 10SM CLR 04/01 A3017 RMK AO1

2001/11/05 10:07
KFEP 051007Z AUTO 00000KT 10SM CLR M01/M03 A3034 RMK AO2

2001/11/05 10:06
KOLY 051006Z AUTO 02003KT 10SM CLR 07/M04 A3031 RMK AO2

2001/11/05 10:05
KAIO 051005Z AUTO 36001KT 10SM CLR 00/M02 A3028 RMK AO1

2001/11/05 10:05
KCAV 051005Z AUTO 16009KT CLR 08/03 A3027 RMK AO1

2001/11/05 10:05
KCIN 051005Z AUTO 17004KT 10SM CLR 07/02 A3027 RMK AO1

2001/11/05 10:05
KDNS 051005Z AUTO 23003KT 10SM CLR 09/02 A3028 RMK AO1

2001/11/05 10:05
KFSW 051005Z AUTO 15008KT 10SM CLR 09/01 A3033 RMK AO1

2001/11/05 10:05
KHNR 051005Z AUTO 00000KT 10SM CLR 02/M01 A3029 RMK AO1

2001/11/05 10:05
KMXO 051005Z AUTO 00000KT 10SM CLR M01/M04 A3034 RMK AO1

2001/11/05 10:05
KORC 051005Z AUTO 17007KT 10SM CLR 07/00 A3020 RMK AO1

2001/11/05 10:05
KSHL 051005Z AUTO 18004KT 10SM CLR 07/02 A3021 RMK AO1

2001/11/05 10:06
PASO 051006Z AUTO 00000KT 10SM FEW018 M03/M04 A2981 RMK AO2
     TSNO

2001/11/05 10:06
PATO 051006Z AUTO 00000KT 1SM -SN BR OVC001 M01/M01 A2982 RMK AO2
     P0000 TSNO

2001/11/05 10:06
KAAO 051006Z AUTO 23005KT 2SM BR SCT002 12/12 A3028 RMK AO2

2001/11/05 10:06
KDEQ 051006Z AUTO 00000KT 1 1/2SM BR CLR 06/06 A3026 RMK AO2

2001/11/05 10:06
KHWO 051006Z AUTO 03015G22KT 10SM -RA FEW026 OVC035 21/18 A2965
     RMK AO2 P0001

2001/11/05 10:06
KSLK 051006Z AUTO VRB05KT 1 1/2SM -SN BR BKN009 BKN014 OVC026
     00/M01 A2989 RMK AO2 P0000

2001/11/05 10:07
KTTD 051007Z AUTO 24004KT 5SM -RA BR BKN009 BKN023 OVC044 10/09
     A3013 RMK AO2 P0001 TSNO

2001/11/05 10:06
KABI 051006Z 00000KT 1/4SM FG VV001 14/14 A3029 RMK AO2 TWR VIS
     1/2 RVRNO

2001/11/05 09:56
KFBL 050956Z AUTO 19009KT 10SM CLR 06/M03 A3024 RMK AO2

2001/11/05 09:59
KW99 050959Z AUTO 35005KT 10SM SCT049 07/01 A3019 RMK AO2

2001/11/05 10:07
KTAZ 051007Z AUTO 07005KT 10SM CLR 06/00 A3033 RMK AO2

2001/11/05 10:07
KHSB 051007Z AUTO 02003KT 10SM CLR 08/02 A3030 RMK AO2

2001/11/05 10:05
KIJX 051005Z AUTO 00000KT 10SM CLR 04/01 A3034 RMK AO2

2001/11/05 10:08
KVYS 051008Z AUTO 00000KT 10SM CLR 01/M01 A3034 RMK AO1

2001/11/05 10:07
KPNT 051007Z AUTO 00000KT 10SM CLR 01/M01 A3036 RMK AO2

2001/11/05 10:05
KADU 051005Z AUTO 00000KT 10SM CLR M01/M02 A3027 RMK AO1

2001/11/05 10:05
KSDA 051005Z AUTO 00000KT 10SM CLR 03/01 A3027 RMK AO1

2001/11/05 10:08
KSLO 051008Z AUTO 05003KT 10SM CLR 07/M03 A3031 RMK AO2

2001/11/05 10:05
KCCY 051005Z AUTO 15006KT 10SM CLR 04/M03 A3030 RMK AO1

2001/11/05 10:05
KSDA 051005Z AUTO 00000KT 10SM CLR 03/01 A3027 RMK AO1

2001/11/05 10:08
KBLI 051008Z AUTO 19003KT 4SM BR BKN041 05/05 A3011 RMK AO2

2001/11/05 10:08
KGKY 051008Z AUTO 00000KT 1/4SM FG CLR 14/14 A3026 RMK AO2

2001/11/05 10:08
KHBR 051008Z AUTO 36003KT 2 1/2SM BR FEW001 OVC035 11/11 A3031 RMK
     AO2 RAE01 P0000 $

2001/11/05 10:08
KONT 051008Z 08005KT 1/2SM FG BKN001 BKN008 13/13 A2999 RMK AO2 FG
     BKN000 $

2001/11/05 10:07
KMCI 051007Z 18004KT 1/2SM R19R/2000VP6000FT FG BKN001 OVC006
     08/08 A3030 RMK AO2

2001/11/05 10:08
KSUS 051008Z 00000KT 1/2SM FG VV001 03/03 A3031 RMK AO2

2001/11/05 10:00
FQMA 051000Z 12012KT 9999 BKN025 BKN090 28/21 Q1017 NOSIG

2001/11/05 10:00
FBKE 051000Z 02007KT 9999 FEW030 32/17 Q1015

2001/11/05 10:00
FBSK 051000Z 6006KT CAVOK 30/15 Q1017 NOSIG

2001/11/05 10:00
FBSW 051000Z 32010KT 9999 FEW030 BKN080 25/18

2001/11/05 10:00
FBTS 051000Z 00000KT CAVOK 29/07 Q1015

2001/11/05 10:00
SAAR 051000Z 02004KT 9999 CAVOK 19/15 Q1006

2001/11/05 10:00
SABE 051000Z 02016KT 9999 SCT200 20/16 Q1008

2001/11/05 10:00
SACO 051000Z 02012KT 9999 SCT100 SCT200 19/14 Q1007

2001/11/05 10:00
SADD 051000Z 36010KT 9999 BKN200 17/14 Q1007

2001/11/05 10:00
SAEZ 051000Z 05007KT 8000 BR FEW100 BKN200 19/15 Q1007

2001/11/05 10:00
SAME 051000Z 23005KT CAVOK 16/12 Q1005

2001/11/05 10:00
SARP 051000Z 05003KT CAVOK 20/18 Q1011

2001/11/05 10:00
SASA 1000Z 00000KT CAVOK 13/12 Q1011

2001/11/05 10:00
SASJ 051000Z 32004KT 9999 SKC 17/15 Q1008

2001/11/05 10:00
SASJ 051000Z 32004KT 9999 CAVOK 17/15 Q1008

2001/11/05 10:00
SAWE 051000Z 29009KT 9999 BKN120 M01/M03 Q0997

2001/11/05 10:00
SAWG 051000Z 32005KT 9999 FEW040 01/M01 Q1001

2001/11/05 10:00
SAZS 051000Z 29015KT 9999 SCT030 SCT100 04/00 Q1012

2001/11/05 10:00
SANT 051000Z 00000KT 9999 SKC 18/15 Q1004

2001/11/05 10:00
SAVC 051000Z 25012KT CAVOK 11/00 Q1002

2001/11/05 10:00
SAZB 051000Z 05022KT 5000 -RA FEW020 OVC050 14/14 Q1004

2001/11/05 10:00
SAZN 051000 27010KT 9999 CAVOK 11/M02 Q1010

2001/11/05 10:00
GCFV 051000Z 04005KT 360V080 CAVOK 24/20 Q1016 NOSIG

2001/11/05 10:00
GCHI 051000Z 01008KT 320V060 9999 FEW019 BKN027 23/19 Q1017 RERA
     NOSIG

2001/11/05 10:00
GCLA 051000Z 01008KT 330V050 9999 SCT030 23/17 Q1017 NOSIG

2001/11/05 10:00
GCLP 051000Z 12004KT 090V150 9999 FEW025 25/16 Q1016 NOSIG

2001/11/05 10:00
GCRR 051000Z VRB01KT CAVOK 24/17 Q1016 NOSIG

2001/11/05 10:00
GCTS 051000Z VRB02KT 9999 FEW020 BKN240 23/17 Q1017 NOSIG

2001/11/05 10:00
GCXO 051000Z 30006KT 9999 FEW004 SCT012 18/16 Q1019 NOSIG

2001/11/05 10:00
GEML 051000Z 04002KT 9999 SCT010 OVC080 21/20 Q1020

2001/11/05 10:00
GMTN 051000Z 26005KT 7000 FEW010 SCT020 BKN100 20/15 Q1018

2001/11/05 10:00
GBYD 1000Z 05005KT CAVOK 29/23 Q1012

2001/11/05 10:00
RKPC 051000Z 36023KT 340V050 -RA SCT020 BKN030 OVC080 14/10 Q1019
     NOSIG

2001/11/05 10:00
RKPC 051000Z 36023KT 340V050 9999 -RA SCT020 BKN030 OVC080 14/10
     Q1019 NOSIG

2001/11/05 10:00
RKPK 051000Z 32004KT 8000 -RA FEW020 BKN030 OVC100 14/12 Q1015

2001/11/05 10:00
VMMC 051000Z 01004KT 270V170 5000 HZ FEW020 BKN090 27/22 Q1018
     NOSIG

2001/11/05 10:00
WSAP 051000Z 35004KT 6000 (21) FEW018 BKN150 26/24 Q1009

2001/11/05 09:50
OIMM 050950Z 18002MPS CAVOK 19/M02 Q1024 A3024 908.8 NOSIG

2001/11/05 09:50
OISS 050950Z 10004MPS CAVOK 26/M04 Q1025 A3028

2001/11/05 10:00
OIAW 30002MPS CAVOK 33/04 Q1016 A3001

2001/11/05 10:00
OIFM 09002MPS CAVOK 22/02 Q1026 A3032 852.7 FEW200

2001/11/05 09:55
OIII 050955Z 18003MPS 4000 HZ FEW040 BKN200 22/01 Q1023 887.5
     A3021 NOSIG

2001/11/05 10:00
OIKB 21004MPS CAVOK 35/04 Q1014 A2997

2001/11/05 10:00
OIKK 36003MPS CAVOK 22/M01 1027 A3034

2001/11/05 09:55
OIZH 050955Z 04005MPS CAVOK 22/M05 Q1024 A3025 NOSIG

2001/11/05 10:00
MYNN 051000Z 05034G45KT 1600 +RA OVC080 22/21 Q9949

2001/11/05 10:00
TGPY 051000Z 10011KT 9999 FEW021 27/25 Q1010

2001/11/05 10:00
RCKH 36006KT 7000 FEW012 BKN080 29/21 Q1015 NOSIG

2001/11/05 10:00
RCSS 29004KT 250V340 7000 FEW020 SCT070 24/22 Q1019 NOSIG

2001/11/05 10:00
RCTP 03010KT 7000 FEW008 BKN010 BKN100 23/21 Q1019 TEMPO SCT010
     BKN090

2001/11/05 10:00
ZHHH 051000Z 05006MPS CAVOK 15/03 Q1030 NOSIG

2001/11/05 10:00
ZLLL 051000Z 09001MPS CAVOK 07/M04 Q1026 NOSIG

2001/11/05 10:00
ZSNJ 051000Z 32003MPS 300V360 1800 BR BKN100 14/10 Q1027 NOSIG

2001/11/05 10:00
ZSOF 051000Z 33005MPS CAVOK 13/04 Q1029 NOSIG

2001/11/05 10:00
ZUCK 051000Z 17003MPS CAVOK 13/12 Q1028 NOSIG

2001/11/05 10:00
ZUUU 051000Z 16002MPS CAVOK 16/11 Q1028 NOSIG

2001/11/05 10:00
ZYHB 051000Z 32002MPS CAVOK M04/M11 Q1025 NOSIG

2001/11/05 10:00
CYAW 051000Z 29004KT 10SM BKN012 OVC025 09/08 A2985 RMK SF5SC3
     SLP109

2001/11/05 10:00
CYBG 051000Z 27005KT 15SM SCT035 OVC050 02/00 A2998 RMK SC4SC4
     SLP158

2001/11/05 10:00
CYCH 051000Z 02006KT 12SM OVC015 05/04 A2993 RMK ST8 CLIM
     10.2/-0.5/0/0/0/NIL SLP137

2001/11/05 10:00
CYEG 051000Z 31004KT 15SM SCT065 BKN090 01/M03 A2990 RMK SC4AC2
     SLP146

2001/11/05 10:00
CYFB 051000Z 31015KT 10SM -SN OVC014 M11/M13 A3015 RMK SC8
     SLP214

2001/11/05 10:00
CYFC 051000Z 04003KT 12SM -SHRA SCT015 OVC040 06/05 A2991 RMK
     SC3SC5 SLP128

2001/11/05 10:00
CYFT 051000Z 22003KT 15SM BKN024 02/00 A3009 RMK SC6 SLP193

2001/11/05 10:00
CYGL 051000Z 00000KT 15SM SCT027 M04/M04 A3020 RMK SC2 SLP239

2001/11/05 10:00
CYHZ 051000Z 36004KT 1 1/2SM -DZ BR OVC002 08/02 A2985 RMK SF8
     SLP111

2001/11/05 10:00
CYJT 051000Z 08012KT 15SM BKN022 BKN045 10/09 A2994 RMK SC5SC2
     SLP139

2001/11/05 10:00
CYKL 051000Z AUTO 32003KT 9SM CLR M03/M04 A3006 RMK SLP213

2001/11/05 10:00
CYMH 051000Z AUTO 06002KT 3 1/2SM OVC016 05/04 A3008 RMK
     SLP189

2001/11/05 10:00
CYMX 051000Z 31006KT 20SM -SHRA FEW018 OVC036 03/01 A2991 RMK
     SC2SC6 SLP130

2001/11/05 10:00
CYOW 051000Z 30013KT 15SM BKN025 BKN080 03/M00 A3002 RMK SC5AC1
     SLP171

2001/11/05 10:00
CYQB 051000Z 06012KT 15SM -SHRA FEW012 BKN025 OVC070 05/03 A2989
     RMK SF1SC6AC2 SLP126

2001/11/05 10:00
CYQG 051000Z 33008KT 15SM FEW220 03/M03 A3033 RMK CI0 SLP274

2001/11/05 10:00
CYQM 051000Z 00000KT 15SM BKN010 OVC032 05/05 A2989 RMK SF6SC2
     SLP124

2001/11/05 10:00
CYQQ 051000Z 27002KT 20SM SKC 01/M00 A3010 RMK SLP193

2001/11/05 10:00
CYQX 051000Z 04003KT 1 1/2SM -RA BR BKN001 OVC008 08/08 A2999 RMK
     FG4SF3SF1 SLP160

2001/11/05 10:00
CYQY 051000Z 02006KT 3/8SM R07/1600FT R19/1400FT FG VV001 10/10
     A2987 RMK FG8 SLP116

2001/11/05 10:00
CYRB 051000Z 13005KT 15SM BKN100 M21/M26 A3001 RMK AC6 SLP175

2001/11/05 10:00
CYSJ 051000Z 04003KT 15SM OVC050 06/05 A2988 RMK SC8 SLP121

2001/11/05 10:00
CYTE 051000Z AUTO 02006KT 9SM OVC027 M09/M13 A3010 RMK SLP200

2001/11/05 10:00
CYTL 051000Z AUTO 16011G16KT 9SM FEW090 01/M03 A2998 RMK
     SLP166

2001/11/05 10:00
CYTR 051000Z 32008KT 15SM BKN040 04/M03 A3013 RMK SC6 SLP206

2001/11/05 10:00
CYUL 051000Z 30015KT 8SM -SHRA BKN018 OVC027 04/02 A2989 RMK
     SC6SC2 SLP124

2001/11/05 10:00
CYUY 051000Z 32005KT 6SM -SN OVC015 00/M02 A3019 RMK SC8
     SLP237

2001/11/05 10:00
CYVP 051000Z 36005KT 12SM -SHSN OVC030 M02/M04 A3021 RMK SC8
     SLP233

2001/11/05 10:00
CYVR 051000Z 29006KT 20SM SKC 05/03 A3010 RMK SLP192

2001/11/05 10:00
CYWG 051000Z 18009KT 15SM BKN250 04/00 A2985 RMK CI0 SLP117

2001/11/05 10:00
CYWK 051000Z 02008KT 8SM -SN SCT017 OVC032 M01/M02 A3002 RMK
     SC3SC5 SLP194

2001/11/05 10:00
CYXU 051000Z 31006KT 15SM SCT040 02/M02 A3026 RMK SC4 SLP255

2001/11/05 10:00
CYXX 051000Z 00000KT 15SM BCFG FEW035 06/05 A3010 RMK SC2
     SLP195

2001/11/05 10:00
CYXY 051000Z 21003KT 40SM SCT200 M13/M14 A2976 RMK CI0 SLP128

2001/11/05 10:00
CYYC 051000Z 33013G18KT 15SM FEW120 BKN250 M00/M06 A2992 RMK
     AC2CI2 SLP150

2001/11/05 10:00
CYYJ 051000Z 27001KT 20SM FEW100 02/01 A3011 RMK AC1 SLP199

2001/11/05 10:00
CYYQ 051000Z 19013KT 15SM BKN120 01/M03 A2971 RMK AC6 SLP063

2001/11/05 10:00
CYYR 051000Z 00000KT 15SM BKN022 04/01 A3009 RMK SC7 SLP192

2001/11/05 10:00
CYYT 051000Z 00000KT 1/8SM R11/0500FT R16/0500FT FG VV001 08/08
     A2998 RMK FG8 SLP157

2001/11/05 10:00
CYYZ 051000Z 33007KT 15SM OVC041 03/M03 A3022 RMK SC8 SLP237

2001/11/05 10:00
CYZF 051000Z 31011G18KT 12SM -SHSN DRSN BKN016 OVC039 M07/M10
     A2963 RMK SC6SC2 SLP051

2001/11/05 10:00
CYZV 051000Z 05003KT 20SM FEW002 FEW005 OVC062 03/02 A3000 RMK
     SF1SF2SC6 SLP161

2001/11/05 10:00
CYZX 051000Z 00000KT 8SM VCFG FEW012 BKN031 05/04 A2987 RMK SC2SC3
     WNDY HILL 02003KT F OVR RVR SLP115

2001/11/05 10:00
CYZY 051000Z AUTO 00000KT 9SM CLR M04/M06 A2998 RMK ICG INTMT
     SLP187

2001/11/05 10:00
CYHZ 051000Z CCA 36004KT 1 1/2SM -DZ BR OVC002 08/07 A2985 RMK SF8
     SLP111

2001/11/05 10:00
LRTC 0510)0Z 24003MPS CAVOK 10/M01 Q1018

2001/11/05 10:00
LRTM 051000Z 08001MPS CAVOK 07/01 Q1021

2001/11/05 10:00
LUKK 051000Z 19014KT CAVOK 11/M02 Q1017 NOSIG 26CLRD65

2001/11/05 10:00
LJLJ 051000Z VRB02KT CAVOK 07/03 Q1020 NOSIG

2001/11/05 10:00
LJMB 051000Z VRB02KT CAVOK 08/03 Q1021

2001/11/05 10:00
LJPZ 051000Z 30004KT 070V350 CAVOK 15/07 Q1017

2001/11/05 10:00
LKMT 051000Z 23014KT CAVOK 09/05 Q1018 NOSIG

2001/11/05 10:00
LKPR 051000Z 25016KT 9999 BKN033 08/05 Q1019 NOSIG

2001/11/05 10:00
LKTB 051000Z VRB02KT 8000 SCT025 BKN060 08/06 Q1019 NOSIG

2001/11/05 09:50
LXGB 050950Z 10008KT 9999 SCT020 BKN080 BKN250 20/17 Q1018

2001/11/05 10:00
LFBP 051000Z 25003KT 8000 FEW033 BKN050 12/11 Q1023 NOSIG

2001/11/05 10:00
LFLC 051000Z 01007KT 2000 BR BKN002 BKN006 05/04 Q1024 NOSIG

2001/11/05 10:00
LFLY 051000Z 01007KT 5000 BKN006 07/06 Q1023 BECMG BKN010

2001/11/05 10:00
LFMH 051000Z 33003KT 0800 R18/P1500 FG OVC002 06/05 Q1023

2001/11/05 10:00
LFMP 051000Z 31011KT 9999 FEW033 BKN100 BKN250 17/08 Q1020
     NOSIG

2001/11/05 10:00
LFRN 051000Z 33002KT CAVOK 10/10 Q1027 NOSIG

2001/11/05 10:00
LFRQ 051000Z 01005KT 9999 FEW020 BKN060 12/10 Q1028 NOSIG

2001/11/05 10:00
LFSR 051000Z 32005KT 6000 FEW013 09/08 Q1026 NOSIG

2001/11/05 10:00
LFTW 051000Z 34008KT CAVOK 14/08 Q1019 NOSIG

2001/11/05 10:00
LFOE 051000Z 34002KT CAVOK 09/09 Q1027

2001/11/05 10:00
LFSD 051000Z 02007KT 7000 FEW008 BKN210 07/06 Q1024 NOSIG

2001/11/05 10:00
LFSX 051000Z 31003KT 1800SE VCFG SCT005 07/06 Q1024

2001/11/05 10:00
LGKF 051000Z 27004KT 9999 FEW040 BKN100 19/08 Q1012

2001/11/05 10:00
LGKP 051000Z 24013KT 9999 SCT018 21/12 Q1010

2001/11/05 10:00
LGKZ 051000Z 36009KT 9999 BKN030 BKN080 10/M02 Q1076

2001/11/05 10:00
LGMK 051000Z 18005KT 9999 FEW018TCU 17/14 Q1010

2001/11/05 10:00
FMEE 051000Z 07017KT 9999 FEW023 27/22 Q1018 NOSIG

2001/11/05 10:00
FSIA 051000Z 11010KT 9999 FEW017CB SCT019 31/24 Q1010 NOSIG

2001/11/05 10:00
WBKK 051000Z 00000KT 9999 FEW014 FEW016CB 27/25 Q1009 NOSIG RMK
     P00.0 R86 1CB N

2001/11/05 10:00
WBSB 051000Z 36003KT 9999 FEW016 FEW017CB SCT140 BKN300 28/24
     Q1009 NOSIG RMK CB:NE TO SE TO SW

2001/11/05 09:50
LIBP 050950Z VRB03KT CAVOK 16/03 Q1018

2001/11/05 10:00
LIBR 051000Z 30015KT 9999 FEW025 17/13 Q1015 NOSIG RMK FEW WIND
     THR1431011 KT WIND THR32 30018 KT BLU

2001/11/05 09:50
LICA 050950Z 26009KT CAVOK 19/04 Q1017

2001/11/05 09:50
LICR 050950Z 36017KT 9999 SCT030 20/10 Q1017 RMK SCT QUK2 QUL1 N
     WT15 36013KT WT33 02007KT

2001/11/05 10:00
LICT 051000Z 34006KT 9999 BKN025 20/10 Q1019 RMK BKN WIND THR13
     /////KT BLU

2001/11/05 10:00
LIBA 051000Z 28005KT CAVOK 17/10 Q1016 RMK WIND THR29 26006KT
     BLU

2001/11/05 10:00
LIBN 051000Z 34015KT 9999 SCT030 18/11 Q1015 RMK SCT BLU

2001/11/05 10:00
LIBQ 051000Z 00000KT CAVOK 08/M14 Q1017 RMK MON LIB VAL NIL

2001/11/05 10:00
LIBV 051000Z 34014KT 9999 FEW020 15/10 Q1014 RMK FEW BLU

2001/11/05 10:00
LICZ 051000Z 24005KT CAVOK 19/09 Q1017 RMK FEW200 WIND THR28
     24003KT BLU

2001/11/05 09:55
RKSO 050955Z 27007KT 9999 FEW010 BKN040 BKN250 09/09 A3006

2001/11/05 10:00
RKTU 051000Z 21001KT 9999 BKN040 OVC100 08/06 Q1018

2001/11/05 10:00
LCLK 051000Z 16010KT 130V200 9999 FEW020 26/16 Q1015 NOSIG

2001/11/05 10:00
LCPH 051000Z 17019KT 9999 FEW025TCU SCT050 26/19 Q1014

2001/11/05 09:50
ENMH 050950Z 34011KT 9999 SCT020 BKN040 M04/M08 Q0996

2001/11/05 10:00
RPLB 051000 09009KT 9999 FEW020 29/20 Q1010 NOSIG

2001/11/05 10:00
RPMD 00000 9999 SCT015CB SCT090 BKN290 29/25 1006 CB NW TO NE

2001/11/05 10:00
RPVM 33003KT 8000 SCT018CB BKN080 OVC250 26/24 Q1008 A2976 CB
     ALQDS LGT RASH

2001/11/05 10:00
SPHI 051000Z 17009KT 9999 OVC010 16/14 Q1011 PP000

2001/11/05 10:00
SKBO 051000Z 06005KT 9999 SCT020 SCT080 09/09 A3024 NOSIG

2001/11/05 10:00
SKBQ 051000Z 00000KT 8000 SCT015 24/24 A2979

2001/11/05 10:00
SKCL 051000Z 00000KT 9999 FEW017 19/18 A2992

2001/11/05 10:00
SKRG 051000Z 00000KT 9000 SCT012 SCT080 15/14 A3022

2001/11/05 10:00
LEAL 051000Z 32004KT 9000 -RA FEW020 SCT040 BKN080 18/15 Q1021
     NOSIG

2001/11/05 10:00
LEAM 051000Z VRB03KT 9999 -RA FEW020 SCT050 BKN120 19/12 Q1020

2001/11/05 10:00
LEAS 051000Z 13004KT 9000 SCT030 BKN050 13/09 Q1027 TEMPO 5000
     DZBR

2001/11/05 10:00
LEBB 051000Z 35005KT 9999 FEW030 BKN040 15/10 Q1025 NOSIG

2001/11/05 10:00
LEBL 051000Z 34005KT 8000 SCT022 BKN096 13/08 Q1021 NOSIG

2001/11/05 10:00
LECO 051000Z 03005KT CAVOK 15/11 Q1025

2001/11/05 10:00
LEGE 051000Z 00000KT 9999 FEW030 OVC120 14/09 Q1021

2001/11/05 10:00
LEGR 051000Z 09003KT 8000 -RA FEW015 SCT045 OVC080 14/12 Q1021

2001/11/05 10:00
LEIB 051000Z 01003KT 9999 FEW030 SCT050 BKN080 20/16 Q1020
     NOSIG

2001/11/05 10:00
LEMD 051000Z 02006KT 340V050 9000 FEW040 BKN180 11/08 Q1022
     NOSIG

2001/11/05 10:00
LEMG 051000Z 14009KT 9999 FEW008 SCT020CB SCT030 BKN080 18/16
     Q1019 NOSIG

2001/11/05 10:00
LEMH 051000Z 27006KT 230V300 9999 SCT025 BKN200 20/14 Q1021

2001/11/05 10:00
LEPP 051000Z 33008KT 9999 SCT016 OVC025 11/08 Q1024

2001/11/05 10:00
LERS 051000Z 00000KT 8000 OVC030 17/15 Q1021

2001/11/05 10:00
LESO 051000Z 28003KT 9000 FEW033 BKN072 16/14 Q1024

2001/11/05 10:00
LEST 051000Z 05008KT 9999 FEW020 13/09 Q1024 NOSIG

2001/11/05 10:00
LEVC 051000Z 31003KT 6000 -RA FEW020 BKN045 OVC070 17/16 Q1021
     NOSIG

2001/11/05 10:00
LEVD 051000Z 06015KT CAVOK 10/05 Q1023 NOSIG

2001/11/05 10:00
LEVS 051000Z 08006KT 9000 FEW060 BKN100 12/07 Q1022

2001/11/05 10:00
LEVT 051000Z 01005KT 6000 -RA SCT014 BKN018 OVC022 10/09 Q1025

2001/11/05 10:00
LEVX 051000Z 07007KT CAVOK 16/09 Q1023

2001/11/05 10:00
LEXJ 051000Z 24002KT 9000 SCT032 BKN048 13/09 Q1026

2001/11/05 10:00
LEZG 051000Z 29012KT 9999 FEW050 SCT100 13/08 Q1023

2001/11/05 10:00
DTTB 051000Z 31010KT 9999 BKN020 21/14 Q1020

2001/11/05 10:00
DTTD 051000Z 31008KT CAVOK 21/08 Q1022

2001/11/05 10:00
DTTG 051000Z 33004KT CAVOK 22/11 Q1021

2001/11/05 10:00
DTTK 051000Z 00000KT 9999 FEW023 21/11 Q1021

2001/11/05 10:00
DTTL 051000Z 30008KT 9999 SCT020 21/12 Q1020

2001/11/05 10:00
DTTN 051000Z 24008KT 9999 SCT020 21/10 Q1021

2001/11/05 10:00
DTTR 051000Z 21006KT CAVOK 22/10 Q1023

2001/11/05 09:50
EGDG 050950Z 00000KT 9999 FEW025 BKN035 11/06 Q1029 NOSIG

2001/11/05 09:50
EGNC 050950Z 19006KT 9000 -RA SCT025 OVC080 06/// Q1022

2001/11/05 09:50
EGSC 050950Z 25004KT CAVOK 07/04 Q1027

2001/11/05 10:00
LICZ 051000Z 24005KT CAVOK 19/09 Q1017 RMK FEW200 WIND THR28
     24003KT BLU

2001/11/05 10:00
RKPK 051000Z 32004KT 8000 -RA FEW020 BKN030 OVC100 14/12 Q1015

2001/11/05 09:55
RKSO 050955Z 27007KT 9999 FEW010 BKN040 BKN250 09/09 A3006

2001/11/05 10:00
CWCA 051000Z 00000KT 10SM FEW012 OVC031 04/04 A3010 RMK SC2SC6
     SLP193

2001/11/05 10:00
CWCL 051000Z AUTO 27003KT 9SM OVC050 M01/M05 A2993 RMK SLP157

2001/11/05 10:00
CWEU 051000Z 14013KT 15SM DRSN BKN130 M19/M24 A3000 RMK AC2
     SLP162

2001/11/05 10:00
CWFD 051000Z AUTO 19007KT 3/8SM -SN CLR M10/ A2982 RMK SLP174

2001/11/05 10:00
CWIL 051000Z AUTO 09036KT M07/ RMK ALTM MISG SLP998

2001/11/05 10:00
CWKM 051000Z AUTO 00000KT M16/ RMK ALTM MISG SLP269

2001/11/05 10:00
CWKW 051000Z AUTO 18015KT M07/ A3002 RMK SLP206

2001/11/05 10:00
CWLI 051000Z AUTO 33017KT M17/ A3013 RMK SLP221

2001/11/05 10:00
CWLX 051000Z AUTO 10013KT M17/ RMK ALTM MISG SLP203

2001/11/05 10:00
CWLY 051000Z AUTO 36011G16KT 9SM BKN049 08/M01 A3002 RMK
     SLP171

2001/11/05 10:00
CWOB 051000Z AUTO 10003KT 3/4SM -SN BKN009 M05/ A3000 RMK
     SLP205

2001/11/05 10:00
CWPX 051000Z AUTO 05021KT M09/ RMK ALTM MISG SLP042

2001/11/05 10:00
CWRH 051000Z AUTO 28006KT M05/ A3006 RMK SLP217

2001/11/05 10:00
CWRX 051000Z AUTO ///// M18/ RMK ALTM MISG SLP194

2001/11/05 10:00
CWSA 051000Z AUTO 33002KT 3SM OVC003 12/12 A2984 RMK SLP105

2001/11/05 10:00
CWTU 051000Z AUTO 29004KT M01/ A3000 RMK SLP194

2001/11/05 10:00
CWUP 051000Z AUTO 27008KT M10/ A2998 RMK SLP189

2001/11/05 10:00
CWUW 051000Z AUTO 07009KT 9SM OVC045 M13/ A2994 RMK SLP200

2001/11/05 10:00
CWVD 051000Z AUTO 04006KT M10/ A2995 RMK SLP202

2001/11/05 10:00
CWVH 051000Z AUTO 31018KT M20/ RMK ALTM MISG SLP234

2001/11/05 10:00
CWWU 051000Z 04002KT 15SM FEW015 BKN035 BKN096 09/08 A2997 RMK
     SF2SC4AC2 SLP148

2001/11/05 10:00
CWXR 051000Z AUTO 35015KT M08/ A2986 RMK SLP123

2001/11/05 10:00
CWYK 051000Z AUTO 36021KT M04/ A2994 RMK SLP189

2001/11/05 10:00
CWYM 051000Z AUTO 10009KT M07/ A2996 RMK SLP199

2001/11/05 10:00
CWZZ 051000Z AUTO 01006KT 1/8SM M03/ A3005 RMK ICG SLP213

2001/11/05 10:00
CYAH 051000Z 00000KT 15SM BKN020 OVC035 M01/M02 A3013 RMK SC6SC1
     SLP222

2001/11/05 10:00
CYAM 051000Z 04001KT 15SM FEW038 M02/M04 A3036 RMK SC1 SLP288

2001/11/05 10:00
CYAY 051000Z 07008KT 5SM BR OVC006 05/04 A3005 RMK ST8 SLP178

2001/11/05 10:00
CYBC 051000Z AUTO 00000KT 9SM OVC060 03/02 A3000 RMK SLP159

2001/11/05 10:00
CYBK 051000Z 17025KT 3SM -SN BLSN BKN020 M02/M02 A2928 RMK
     BLSN2SC3 FROIN SLP916

2001/11/05 10:00
CYBN 051000Z AUTO 34011KT 9SM OVC036 03/M03 A3022 RMK SLP241

2001/11/05 10:00
CYBR 051000Z 25008KT 15SM BKN300 00/M02 A2984 RMK CI1 SLP121

2001/11/05 10:00
CYBW 051000Z 33012G20KT 30SM BKN280 M01/M05 A2993 RMK CI3
     SLP154

2001/11/05 10:00
CYBX 051000Z 05008KT 10SM SCT005 OVC010 06/05 A3004 RMK SF4SC4
     SLP174

2001/11/05 10:00
CYCB 051000Z 06017G22KT 1 1/2SM -SN BLSN SCT008 OVC020 M08/M09
     A2962 RMK SN1SF1SC6 VSBY VRBL 1-2 MOON DMLY VSBL SLP033

2001/11/05 10:00
CYCL 051000Z 00000KT 15SM OVC010 04/03 A2996 RMK SC8
     CLIM8.3/2.3/0/0/0/0 SLP148

2001/11/05 10:00
CYCO 051000Z 35022KT 10SM -SG OVC040 M08/M10 A2979 RMK SC8 DRSN
     SLP091

2001/11/05 10:00
CYCY 051000Z AUTO 28007KT 9SM CLR M17/M18 A3017 RMK SLP220

2001/11/05 10:00
CYDB 051000Z AUTO 28004KT 9SM OVC003 OVC008 M12/M14 A2974 RMK
     SLP132

2001/11/05 10:00
CYDF 051000Z 05010KT 5SM -RA BR SCT006 OVC010 07/06 A3000 RMK
     SF3SF5 SLP158

2001/11/05 10:00
CYDN 051000Z AUTO 21007KT 9SM CLR 08/M01 A2974 RMK SLP081

2001/11/05 10:00
CYDP 051000Z 07005KT 10SM -RA FEW007 BKN010 OVC025 02/00 A3013 RMK
     SF2SF4SC2 SLP205

2001/11/05 10:00
CYED 051000Z AUTO 31012G17KT 9SM OVC061 03/M03 A2990 RMK
     SLP139

2001/11/05 10:00
CYEK 051000Z AUTO 20026KT 3 1/2SM OVC033 00/M01 A2959 RMK ICG PAST
     HR SLP022

2001/11/05 10:00
CYEN 051000Z 22009KT 15SM FEW080 FEW250 01/M03 A2986 RMK AC1CI0
     SLP127

2001/11/05 10:00
CYET 051000Z AUTO 24003KT 9SM FEW088 M01/M02 A2994 RMK SLP164

2001/11/05 10:00
CYEV 051000Z 34006KT 3SM -SN VV015 M16/M17 A3023 RMK SN8
     SLP246

2001/11/05 10:00
CYFS 051000Z 31009KT 15SM -SN DRSN OVC040 M08/M10 A2994 RMK SC7
     SLP154

2001/11/05 10:00
CYFT 051000Z 22003KT 15SM BKN024 02/00 A3009 RMK SC6 SLP193

2001/11/05 10:00
CYGP 051000Z 25003KT 15SM OVC075 03/02 A2997 RMK AC8 SLP152

2001/11/05 10:00
CYGQ 051000Z 17002KT 15SM FEW085 M04/M05 A3025 RMK AC1 FROIN
     SLP265

2001/11/05 10:00
CYGV 051000Z AUTO 04003KT 9SM OVC008 OVC054 OVC074 05/04 A3001 RMK
     SLP164

2001/11/05 10:00
CYGW 051000Z 13005KT 15SM OVC045 M01/M03 A3022 RMK SC7 FROIN
     SLP235

2001/11/05 10:00
CYHE 051000Z AUTO 29010G17KT 9SM BKN038 OVC084 08/06 A3006 RMK
     SLP180

2001/11/05 10:00
CYHK 051000Z AUTO 11026KT 1 1/8SM FEW010 BKN015 OVC045 M09/M10
     A2971 RMK SLP066

2001/11/05 10:00
CYHM 051000Z 25004KT 15SM BKN038 BKN046 01/M00 A3023 RMK SC6SC1
     SLP244

2001/11/05 10:00
CYHU 051000Z AUTO 32011KT 6SM -RA OVC011 04/02 A2989 RMK PCPN
     0.5MM PAST HR SLP123

2001/11/05 10:00
CYHY 051000Z 27015G23KT 15SM FEW015 SCT042 M08/M11 A2981 RMK
     SC2SC2 SLP107

2001/11/05 10:00
CYIO 051000Z AUTO 18003KT 9SM CLR M25/M30 A3013 RMK SLP213

2001/11/05 10:00
CYKA 051000Z 32002KT 30SM SCT037 OVC050 05/03 A2998 RMK SC3SC5
     SLP159

2001/11/05 10:00
CYKJ 051000Z AUTO 00000KT 9SM SCT080 M02/M02 A2969 RMK SLP080

2001/11/05 10:00
CYKL 051000Z AUTO 32003KT 9SM CLR M03/M04 A3006 RMK SLP213

2001/11/05 10:00
CYKY 051000Z 26012KT 15SM BKN075 BKN230 06/M01 A2973 RMK AC5CI2
     SLP078

2001/11/05 10:00
CYKZ 051000Z 33010KT 15SM BKN040 03/M04 A3021 RMK SC6 SLP235

2001/11/05 10:00
CYLL 051000Z 33015KT 15SM SCT100 OVC250 02/M03 A2980 RMK AC3CI3
     SLP111

2001/11/05 10:00
CYLW 051000Z AUTO 00000KT 1 1/8SM -RA FEW001 BKN015 07/07 A2992
     RMK PCPN 1.5MM PAST HR SLP139

2001/11/05 10:00
CYMA 051000Z 03007KT 10SM -SN OVC030 M09/M12 A2984 RMK SC8
     SLP145

2001/11/05 10:00
CYMH 051000Z AUTO 06002KT 3 1/2SM OVC016 05/04 A3008 RMK
     SLP189

2001/11/05 10:00
CYMM 051000Z 21004KT 15SM FEW048 BKN090 02/M03 A2981 RMK SC2AC5
     SLP110

2001/11/05 10:00
CYMO 051000Z AUTO 33004KT 9SM OVC037 01/00 A3028 RMK SLP257

2001/11/05 10:00
CYMT 051000Z AUTO 33004KT 4SM OVC001 OVC008 00/M01 A3004 RMK ICG
     PAST HR SLP194

2001/11/05 10:00
CYNA 051000Z 06006KT 15SM OVC080 04/04 A3002 RMK AC8 AIRPORT WND
     0505 SLP165

2001/11/05 10:00
CYNE 051000Z 18003KT 15SM FEW075 SCT220 01/00 A2971 RMK AC1CS2
     SLP072

2001/11/05 10:00
CYNM 051000Z AUTO 31008KT 9SM BKN007 M00/M01 A3017 RMK SLP231

2001/11/05 10:00
CYOD 051000Z 32005KT 15SM FEW055 FEW120 SCT240 01/M03 A2984 RMK
     SC1AC1CI1 SLP125

2001/11/05 10:00
CYOJ 051000Z 00000KT 15SM FEW100 M05/M06 A2981 RMK AC1 SLP115

2001/11/05 10:00
CYOY 051000Z AUTO 04004KT 9SM -RA OVC027 OVC066 04/02 A2989 RMK
     SLP129

2001/11/05 10:00
CYPA 051000Z 00000KT 15SM OVC230 M02/M02 A2971 RMK CI6 SLP079

2001/11/05 10:00
CYPE 051000Z 20005KT 15SM FEW100 M03/M07 A2989 RMK AC2 SLP148

2001/11/05 10:00
CYPH 051000Z AUTO 22004KT 9SM OVC031 02/M00 A3013 RMK SLP204

2001/11/05 10:00
CYPQ 051000Z AUTO 32005KT 9SM FEW036 03/M06 A3015 RMK SLP216

2001/11/05 10:00
CYPR 051000Z AUTO 14011G16KT 9SM CLR 04/01 A2991 RMK SLP129

2001/11/05 10:00
CYPY 051000Z AUTO 25004KT 9SM CLR M02/M04 A2978 RMK SLP097

2001/11/05 10:00
CYQD 051000Z 22003KT 15SM SCT220 M01/M02 A2968 RMK CS1 SLP064

2001/11/05 10:00
CYQF 051000Z 30009KT 15SM FEW100 BKN250 M01/M06 A2992 RMK AC1CI4
     SLP152

2001/11/05 10:00
CYQH 051000Z 00000KT 40SM FEW004 SCT090 M17/M19 A2983 RMK ST2AC1
     FROIN SLP157

2001/11/05 10:00
CYQI 051000Z 06003KT 7SM FEW080 BKN250 02/02 A2987 RMK AC1CI0 TR
     AC SLP118

2001/11/05 10:00
CYQK 051000Z 18013KT 15SM BKN250 07/M01 A2993 RMK CI3 SLP145

2001/11/05 10:00
CYQL 051000Z AUTO 19004KT 9SM CLR 05/M08 A2983 RMK SLP111

2001/11/05 10:00
CYQR 051000Z 21011KT 15SM SCT250 02/M04 A2979 RMK CI1 SLP102

2001/11/05 10:00
CYQT 051000Z 29002KT 15SM SCT100 M05/M09 A3026 RMK AC2 SLP256

2001/11/05 10:00
CYQU 051000Z 25004KT 25SM SKC M04/M08 A2995 RMK SLP171

2001/11/05 10:00
CYQV 051000Z 19007KT 15SM FEW110 BKN230 03/M02 A2977 RMK AC1CI1
     SLP096

2001/11/05 10:00
CYQW 051000Z 35004KT 15SM FEW100 OVC270 03/M00 A2971 RMK AC2CI3
     SLP079

2001/11/05 10:00
CYQZ 051000Z AUTO 00000KT 9SM CLR M07/M08 A3001 RMK ICG SLP192

2001/11/05 10:00
CYRB 051000Z 13005KT 15SM BKN100 M21/M26 A3001 RMK AC6 SLP175

2001/11/05 10:00
CYRJ 051000Z 32007KT 20SM -RA SCT002 OVC030 02/01 A3000 RMK SF3SC5
     SLP167

2001/11/05 10:00
CYRV 051000Z AUTO 00000KT 6SM 06/06 A2991 RMK SLP141

2001/11/05 10:00
CYSB 051000Z 36010G18KT 320V020 15SM BKN028 01/M04 A3025 RMK SC6
     SLP260

2001/11/05 10:00
CYSC 051000Z AUTO 00000KT 4SM -RA OVC003 02/02 A2982 RMK PCPN
     1.5MM PAST HR SLP108

2001/11/05 10:00
CYSF 051000Z 25004KT 15SM OVC040 M00/M01 A2971 RMK SC6 SLP073

2001/11/05 10:00
CYSJ 051000Z 04003KT 15SM OVC050 06/05 A2988 RMK SC8 SLP121

2001/11/05 10:00
CYSL 051000Z 34002KT 12SM BKN030 03/02 A2991 RMK SC7 CLIM
     9.8/2.4/0/0/0/NIL SLP136

2001/11/05 10:00
CYSM 051000Z 29010KT 15SM FEW100 M03/M06 A2974 RMK AC1 SLP083

2001/11/05 10:00
CYTE 051000Z AUTO 02006KT 9SM OVC027 M09/M13 A3010 RMK SLP200

2001/11/05 10:00
CYTH 051000Z 00000KT 15SM FEW240 M04/M05 A2969 RMK CS1 SLP069

2001/11/05 10:00
CYTL 051000Z AUTO 16011G16KT 9SM FEW090 01/M03 A2998 RMK
     SLP166

2001/11/05 10:00
CYTS 051000Z 30005KT 15SM SCT005 BKN025 M02/M02 A3027 RMK SF2SC3
     FROIN SLP266

2001/11/05 10:00
CYTZ 051000Z AUTO 30004KT 9SM OVC041 OVC047 04/M02 A3023 RMK
     SLP240

2001/11/05 10:00
CYUA 051000Z AUTO 29004KT OVC017 M16/ A3027 RMK SLP258

2001/11/05 10:00
CYUS 051000Z AUTO 10024KT 2 1/4SM OVC027 M11/ RMK ALTM MISG
     SLP102

2001/11/05 10:00
CYUX 051000Z AUTO 32004KT 9SM OVC000 M27/M32 A3012 RMK SLP202

2001/11/05 10:00
CYUY 051000Z 32005KT 6SM -SN OVC015 00/M02 A3019 RMK SC8
     SLP237

2001/11/05 10:00
CYVC 051000Z 00000KT 15SM OVC250 M01/M02 A2974 RMK CI0 SLP089

2001/11/05 10:00
CYVO 051000Z AUTO 34012G17KT 9SM OVC011 00/M00 A3012 RMK
     SLP221

2001/11/05 10:00
CYVP 051000Z 36005KT 12SM -SHSN OVC030 M02/M04 A3021 RMK SC8
     SLP233

2001/11/05 10:00
CYVQ 051000Z 30010KT 8SM -SN FEW006 OVC013 M11/M14 A3011 RMK
     ST1SC8 SLP203

2001/11/05 10:00
CYVV 051000Z 32007KT 15SM OVC045 04/M02 A3027 RMK SC8 SLP258

2001/11/05 10:00
CYWA 051000Z AUTO 29010KT 9SM OVC019 03/M03 A3011 RMK SLP202

2001/11/05 10:00
CYWK 051000Z 02008KT 8SM -SN SCT017 OVC032 M01/M02 A3002 RMK
     SC3SC5 SLP194

2001/11/05 10:00
CYWL 051000Z 00000KT 15SM FEW040 M04/M08 A2995 RMK SC1 SLP173

2001/11/05 10:00
CYXC 051000Z 21003KT 25SM BKN063 08/00 A2992 RMK SC7 SLP137

2001/11/05 10:00
CYXD 051000Z AUTO 30013KT 9SM OVC065 03/M05 A2990 RMK SLP141

2001/11/05 10:00
CYXE 051000Z 21005KT 15SM BKN250 05/M01 A2970 RMK CI5 SLP073

2001/11/05 10:00
CYXJ 051000Z 23010KT 15SM SKC M02/M08 A2991 RMK SLP159

2001/11/05 10:00
CYXL 051000Z 14008KT 15SM FEW100 SCT250 03/M03 A3002 RMK AC1CI1
     SLP181

2001/11/05 10:00
CYXS 051000Z 11003KT 15SM SKC M07/M09 A2999 RMK SLP190

2001/11/05 10:00
CYXT 051000Z 14003KT 3SM -SHSN OVC010 01/M01 A2996 RMK ST8 TCU
     EMBDD SLP153

2001/11/05 10:00
CYXU 051000Z 31006KT 15SM SCT040 02/M02 A3026 RMK SC4 SLP255

2001/11/05 10:00
CYXY 051000Z 21003KT 40SM SCT200 M13/M14 A2976 RMK CI0 SLP128

2001/11/05 10:00
CYYB 051000Z 33008G15KT 15SM OVC025 01/M04 A3019 RMK SC7
     SLP240

2001/11/05 10:00
CYYD 051000Z 15004KT 25SM BKN100 M03/M05 A2994 RMK AC7 SLP157

2001/11/05 10:00
CYYE 051000Z 00000KT 15SM FEW200 M12/M13 A2989 RMK CI0 FROIN
     SLP149

2001/11/05 10:00
CYYF 051000Z 33002KT 10SM -RA OVC019 09/07 A2992 RMK SC8
     SLP138

2001/11/05 10:00
CYYG 051000Z 02007KT 12SM FEW006 OVC031 08/08 A2988 RMK SF2SC6
     SLP120

2001/11/05 10:00
CYYH 051000Z 12011KT 15SM -SN DRSN OVC032 M11/M13 A2989 RMK SC8
     SLP127

2001/11/05 10:00
CYYL 051000Z 31004KT 15SM BKN220 M05/M06 A2968 RMK CS4 HALO
     SLP074

2001/11/05 10:00
CYYN 051000Z AUTO 19010KT 9SM CLR 05/M04 A2980 RMK SLP101

2001/11/05 10:00
CYYU 051000Z 29005KT 15SM OVC008 M00/M01 A3030 RMK SF8 SLP275

2001/11/05 10:00
CYZE 051000Z AUTO 36009KT 9SM OVC034 03/M04 A3030 RMK SLP271

2001/11/05 10:00
CYZH 051000Z AUTO 28010KT 9SM CLR 03/M04 A2990 RMK SLP145

2001/11/05 10:00
CYZP 051000Z AUTO 23005KT 9SM FEW047 03/M01 A2991 RMK SLP129

2001/11/05 10:00
CYZS 051000Z 10007KT 15SM -SN BKN020 M11/M13 A3005 RMK SC6
     SLP183

2001/11/05 10:00
CYZT 051000Z 00000KT 15SM FEW070 BKN180 02/00 A3007 RMK AC2AC4
     SLP182

2001/11/05 10:00
CYZY 051000Z AUTO 00000KT 9SM CLR M04/M06 A2998 RMK ICG INTMT
     SLP187

2001/11/05 10:00
CZCP 051000Z AUTO 30017G22KT 6SM -SN OVC009 M11/ A2997 RMK
     SLP160

2001/11/05 10:00
CZPC 051000Z AUTO 26014KT 9SM CLR 10/M06 A2984 RMK SLP104

2001/11/05 10:00
CZUM 051000Z AUTO 00000KT 9SM OVC068 M01/M02 A3005 RMK SLP201

2001/11/05 10:00
FBLT 051000Z 36006KT 9999 FEW030 FEW35TCU SCT070 34/13 Q1015

2001/11/05 10:00
LFBE 051000Z 32002KT 2500S BR OVC004 08/07 Q1024 BECMG 5000
     BKN005

2001/11/05 10:00
LFJL 051000Z AUTO 30003KT 3800 BR NSC 07/07 Q1025

2001/11/05 10:00
LFLX 051000Z 04005KT 5000 BKN008 08/06 Q1026 NOSIG

2001/11/05 10:00
LFMK 051000Z 27008KT 9999 SCT033 SCT250 12/09 Q1022 NOSIG

2001/11/05 10:00
LGHI 051000Z 07004KT 9999 FEW015 SCT020 OVC070 16/13 Q1011

2001/11/05 10:00
LGNX 051000Z 21006KT 9999 SCT020 BKN180 19/15 Q1010

2001/11/05 10:00
LGPA 051000Z 18005KT 9999 SCT020 SCT080 18/11 Q1010

2001/11/05 10:00
LGSO 051000Z 19005KT 9999 SCT018TCU SCT180 19/10 Q1010

2001/11/05 10:00
LICP 051000Z 04005KT 9999 SCT024 SCT100 19/11 Q1017 RMK BKN
     BLU

2001/11/05 10:00
LKKV 051000Z 28008KT 230V310 9999 BKN011 05/04 Q1020

2001/11/05 10:00
LRBC 051000Z 18003MPS CAVOK 09/01 Q1015 NOSIG

2001/11/05 10:00
LRBM 051000Z VRB02MPS 9999 FEW040 08/01 Q1020

2001/11/05 10:00
LRCL 051000Z 03002MPS CAVOK 06/00 Q1020 NOSIG

2001/11/05 10:00
LRCS 051000Z VRB02MPS CAVOK 08/03 Q1020

2001/11/05 10:00
LRCV 051000Z 00000MPS CAVOK 08/00 Q1019

2001/11/05 10:00
LRIA 051000Z 20002MPS CAVOK 10/05 Q1016 NOSIG

2001/11/05 10:00
LRSB 051000Z 06001MPS CAVOK 07/M02 Q1019 NOSIG

2001/11/05 10:00
LRSM 051000Z VRB02MPS CAVOK 08/M01 Q1021 NOSIG

2001/11/05 10:00
LRSV 051000Z 24002MPS CAVOK 10/02 Q1016 NOSIG

2001/11/05 09:55
OIZH 050955Z 04005MPS CAVOK 22/M05 Q1024 A3025 NOSIG

2001/11/05 10:00
RPMD 00000 9999 SCT015CB SCT090 BKN290 29/25 1006 CB NW TO NE

2001/11/05 10:00
URKA 051000Z 05006MPS 9999 SCT010 BKN100 11/07 Q1019 NQSIG RMK SC
     07

2001/11/05 10:00
URKK 051000Z 00000MPS 4300 BR OVC008 08/07 Q1019 NOSIG RMK QFE761
     SC06

2001/11/05 10:00
URMM 051000Z 12003MPS 9999 BKN016 11/06 Q1019 NOSIG RMK G/Z
     SC070

2001/11/05 10:00
URMM 051000Z 12003MPS 9999 BKN016 11/06 Q1019 NOSIG RMK G/Z
     SC070

2001/11/05 10:00
URSS 051000Z 27002MPS 9999 BKN100 17/12 Q1018 NOSIG RMK G/O QFE762
     88CLRD70

2001/11/05 10:00
URSS 051000Z 27002MPS 9999 BKN100 17/12 Q1018 NOSIG RMK G/O QFE762
     88CLRD70

2001/11/05 10:00
URWI 051000Z 21002MPS CAVOK 09/05 Q1020 NOSIG RMK SC0 65

2001/11/05 10:00
URWW 051000Z 25006MPS CAVOK 08/01 Q1018 NOSIG RMK SC070

2001/11/05 10:00
ZBHH 051000Z 21002MPS CAVOK 01/M09 Q1028 NOSIG

2001/11/05 10:00
ZGHA 051000Z 34001MPS CAVOK 15/11 Q1028 NOSIG

2001/11/05 10:00
ZHHH 051000Z 05006MPS CAVOK 15/03 Q1030 NOSIG

2001/11/05 10:00
ZSNJ 051000Z 32003MPS 300V360 1800 BR BKN100 14/10 Q1027 NOSIG

2001/11/05 10:00
ZUCK 051000Z 17003MPS CAVOK 13/12 Q1028 NOSIG

2001/11/05 10:00
FABE 051000Z NIL

2001/11/05 10:00
FABL 051000Z 33008KT CAVOK 24/02 Q1019 NOSIG

2001/11/05 10:00
FABM 051000Z 35006KT 9999 FEW045 23/08 Q1021

2001/11/05 10:00
FACT 051000Z 29010KT 9999 FEW030 19/09 Q1012 NOSIG

2001/11/05 10:00
FADN 051000Z 11010KT 9999 FEW020 24/16 Q1016 NOSIG

2001/11/05 10:00
FAEL 051000Z 07014KT 9999 FEW035 24/13 Q1014

2001/11/05 10:00
FAGG 051000Z 15007KT 9999 FEW020 20/14 Q1012

2001/11/05 10:00
FAJS 051000Z 35014KT 9999 FEW050 25/09 Q1020 NOSIG

2001/11/05 10:00
FALA 051000Z NIL

2001/11/05 10:00
FALW 051000Z 25003KT CAVOK 21/10 Q1013

2001/11/05 10:00
FAPB 051000Z 05013G24KT 8000 SKC 27/16 Q1018

2001/11/05 10:00
FAPE 051000Z 06007KT CAVOK 22/10 Q1012 NOSIG

2001/11/05 10:00
FAPR 051000Z 36006KT 9999 FEW050CB FEW020 31/11 Q1019

2001/11/05 10:00
FASB 051000Z 34016KT CAVOK 25/M01 Q1014

2001/11/05 10:00
FAUP 051000Z 01005KT CAVOK 28/M02 Q1015

2001/11/05 10:00
FAWK 051000Z NIL

2001/11/05 09:52
KDTL 050952Z AUTO 14009KT 10SM CLR 06/02 A3003 RMK AO2

2001/11/05 09:56
KIER 050956Z AUTO 34003KT 10SM CLR 11/04 A3022 RMK AO1
     T01050038

2001/11/05 10:00
KOLV 051000Z AUTO 00000KT 10SM CLR 08/04 A3024 RMK A01 P000

2001/11/05 10:07
KLOT 051007Z AUTO 35003KT 10SM CLR 02/00 A3034 RMK AO1

2001/11/05 10:05
KAXA 051005Z AUTO 18008KT 10SM CLR 05/01 A3026 RMK AO1

2001/11/05 10:05
KCCY 051005Z AUTO 15006KT 10SM CLR 04/M03 A3030 RMK AO1

2001/11/05 10:05
KEBS 051005Z AUTO 15007KT 10SM CLR 05/02 A3028 RMK AO1

2001/11/05 10:05
KEOK 051005Z AUTO 36001KT 10SM CLR 08/00 A3033 RMK AO1

2001/11/05 10:05
KFFL 051005Z AUTO 14004KT 10SM CLR 05/00 A3032 RMK AO1

2001/11/05 10:02
KHSP 051002Z AUTO 33012G18KT 10SM 03/M04 A3011 RMK AO1

2001/11/05 10:05
KMUT 051005Z AUTO 00000KT 10SM CLR 03/02 A3034 RMK AO1

2001/11/05 10:05
KRDK 051005Z AUTO 36001KT 10SM CLR 02/M01 A3026 RMK AO1

2001/11/05 09:55
KLUF 050955Z 02015KT 7SM SCT030 BKN120 OVC200 20/18 A2998 RMK CB
     DSNT SE-N MOV N SLP134 8/571 9/332 RCRNR

2001/11/05 09:55
KNHK 050955Z RTD 35010G18KT 7SM SKC 11/M02 A3011 RMK SLP197
     T01111022

2001/11/05 09:56
KNPA 050956Z 36006KT 7SM SCT100 17/08 A3005 RMK SLP177 T0172083
     (PA-8 0 DA+200)

2001/11/05 09:55
KSSC 050955Z 35006KT 7SM OVC300 11/03 A3007 RMK SLP186 8/007
     9/008

2001/11/05 09:59
PAED 050959Z COR 07004KT 3SM IC BR FEW000 SCT002 OVC006 M05/M05
     A2984 RMK VIS NW-NE 3/4 FG FEW000 CIG LWR DER SLP109 8/6//
     9/8// WR// WITH CHEMICALS COR 1002

2001/11/05 09:56
PHNG 050956Z COR 09009G18KT 7SM SCT025 BKN030 BKN220 24/20 A3005
     RMK SLP174 P0000 T02390200 402890233

2001/11/05 10:00
PMDY 050950 07008KT 10SM FEW016 SCT026 BKN050 24/19 A3026

2001/11/05 10:09
KSMO 051009Z 00000KT 1 1/4SM BR SCT004 14/14 A2998 RMK AO2

2001/11/05 09:58
KSAN 050958Z 15004KT 3SM BR CLR 17/17 A2997 RMK AO2

2001/11/05 10:08
KTUL 051008Z 00000KT 3SM BR CLR 11/11 A3028 RMK AO2

2001/11/05 10:09
KJLN 051009Z AUTO 00000KT 3SM BR CLR 09/09 A3029 RMK AO2

2001/11/05 09:55
KRQB 050955Z AUTO 00000KT 10SM CLR M05/M07 A3036 RMK AO2

2001/11/05 10:05
KC75 051005Z AUTO 00000KT 10SM CLR 01/00 A3035 RMK AO1

2001/11/05 10:05
KAWG 051005Z AUTO 13005KT 10SM CLR 03/01 A3033 RMK AO1

2001/11/05 10:05
KBNW 051005Z AUTO 15003KT 10SM CLR 07/02 A3029 RMK AO1

2001/11/05 10:05
KCSQ 051005Z AUTO 15007KT 10SM CLR 09/02 A3027 RMK AO1

2001/11/05 10:05
KFFL 051005Z AUTO 14004KT 10SM CLR 05/00 A3032 RMK AO1

2001/11/05 10:05
KICL 051005Z AUTO 00000KT 10SM CLR 03/02 A3028 RMK AO1

2001/11/05 10:05
KLRJ 051005Z AUTO 36002KT 10SM CLR 08/03 A3020 RMK AO1

2001/11/05 10:01
KSFQ 051001Z AUTO 00000KT 10SM CLR 09/06 A3007 RMK AO1

2001/11/05 10:01
KUES 051001Z AUTO 00000KT 10SM CLR M01/M01 A3036 RMK AO2

2001/11/05 10:06
KENL 051006Z AUTO 00000KT 10SM CLR 06/01 A3031 RMK AO2

2001/11/05 10:08
K1H2 051008Z AUTO 05003KT 10SM 06/M03 A3035 RMK AO1

2001/11/05 10:08
KJOT 051008Z AUTO 00000KT 1 1/4SM BR M01/M01 A3035 RMK AO2

2001/11/05 10:06
KAAA 051006Z AUTO 00000KT 10SM CLR 02/M02 A3034 RMK AO2

2001/11/05 10:07
KPRG 051007Z AUTO 06004KT 10SM CLR 02/M01 A3034 RMK AO1

2001/11/05 10:08
KTIP 051008Z AUTO 00000KT 10SM CLR 03/M01 A3035 RMK AO1

2001/11/05 10:05
KVVG 051005Z AUTO 02012G18KT 8SM 19/17 A2989 RMK A02 P000

2001/11/05 10:05
KBNW 051005Z AUTO 15003KT 10SM CLR 07/02 A3029 RMK AO1

2001/11/05 10:05
KCBF 051005Z AUTO 14006KT 10SM CLR 09/03 A3026 RMK AO1

2001/11/05 10:05
KOLZ 051005Z AUTO 15008KT 10SM CLR 04/M02 A3034 RMK AO1

2001/11/05 10:05
KOXV 051005Z AUTO 14005KT 10SM CLR 08/03 A3030 RMK AO1

2001/11/05 10:09
KDTO 051009Z AUTO 00000KT 1/2SM FG SCT001 OVC005 12/12 A3028 RMK
     AO2

2001/11/05 10:09
KSMO 051009Z 00000KT 1 1/4SM BR SCT004 14/14 A2998 RMK AO2

2001/11/05 10:10
KCRS 051010Z AUTO 00000KT 1/4SM FG OVC005 14/14 A3024 RMK AO2

2001/11/05 10:10
KMCE 051010Z AUTO 07004KT 2SM BR CLR 13/11 A3003 RMK AO2 $

2001/11/05 10:10
KRAL 051010Z AUTO 15003KT 1SM BR VV004 12/12 A2999 RMK AO2

2001/11/05 10:10
KSNA 051010Z 04003KT 1SM BR VV001 14/14 A2996 RMK AO2

2001/11/05 10:10
PALH 051010Z 00000KT 8SM SCT007 OVC060 M05/M06 A2986 RMK AO2

2001/11/05 10:09
KJLN 051009Z AUTO 00000KT 3SM BR CLR 09/09 A3029 RMK AO2

2001/11/05 10:09
KICT 051009Z 13003KT 1/4SM R01L/1600V5500FT FG BKN001 OVC009 08/08
     A3028 RMK AO2 $

2001/11/05 10:08
CYQM 051008Z 33002KT 15SM SCT010 OVC032 RMK SF3SC5

2001/11/05 10:09
K1F0 051009Z AUTO 00000KT 1/4SM FG OVC001 A3029 RMK AO2

2001/11/05 10:10
KADH 051010Z AUTO 26003KT 1/4SM FG OVC001 11/11 A3028 RMK AO2

2001/11/05 10:10
KAQR 051010Z AUTO 00000KT 1/4SM FG OVC001 13/12 A3028 RMK AO2

2001/11/05 10:10
KCHK 051010Z AUTO 27006KT 5SM BR SCT037 13/12 A3030 RMK AO1

2001/11/05 10:05
KDEH 051005Z AUTO 17005KT 10SM CLR 06/M03 A3032 RMK AO1

2001/11/05 10:11
KDUA 051011Z AUTO 00000KT M1/4SM FG OVC001 12/12 A3027 RMK AO2

2001/11/05 10:12
KGMJ 051012Z AUTO 00000KT 3/4SM BR BKN001 10/10 A3032 RMK AO2

2001/11/05 10:05
KIKV 051005Z AUTO 00000KT 10SM CLR 02/M01 A3030 RMK AO1

2001/11/05 10:10
KSVC 051010Z AUTO 09010KT 10SM CLR 15/08 A3027 RMK AO1

2001/11/05 10:09
KTEX 051009Z AUTO 00000KT 10SM CLR 03/M04 A3044 RMK AO1

2001/11/05 10:10
KANW 051010Z AUTO 20015KT 10SM CLR 08/06 A3011 RMK AO1

2001/11/05 10:11
KAVK 051011Z AUTO 17005KT 2 1/2SM BR CLR 09/08 A3028 RMK AO2

2001/11/05 10:05
KCNC 051005Z AUTO 14006KT 10SM CLR 08/03 A3030 RMK AO1

2001/11/05 10:12
KDUC 051012Z AUTO 00000KT 5SM BR CLR 12/12 A3030 RMK AO1

2001/11/05 10:10
KGCM 051010Z AUTO 00000KT 1/4SM FG OVC001 11/10 A3028 RMK AO2

2001/11/05 10:14
KJSV 051014Z AUTO 00000KT 11/09 A3028 RMK AO2 PWINO

2001/11/05 10:16
KJWG 051016Z AUTO 00000KT 1/2SM FG OVC001 08/07 A3031 RMK AO2

2001/11/05 10:10
KOGA 051010Z AUTO 25003KT 1 1/2SM CLR 02/02 A3017 RMK AO1

2001/11/05 10:11
KOKM 051011Z AUTO 00000KT 1 1/2SM BR VV007 11/11 A3028 RMK AO1

2001/11/05 10:11
KSRR 051011Z AUTO 13005KT 10SM CLR 08/08 A3039 RMK AO2

2001/11/05 10:10
KTRK 051010Z AUTO 00000KT 10SM CLR M02/M02 A3021 RMK AO1

2001/11/05 10:10
KAEG 051010Z AUTO 00000KT SCT060 BKN090 10/05 A3033 RMK A01
     P000

2001/11/05 10:10
KATS 051010Z AUTO 15003KT 10SM SCT095 13/13 A3030 RMK AO2

2001/11/05 10:10
KFET 051010Z AUTO 00000KT 10SM CLR 04/00 A3024 RMK AO1

2001/11/05 10:10
KHDE 051010Z AUTO 18008KT 10SM CLR 09/06 A3021 RMK AO1

2001/11/05 10:08
KLRU 051008Z AUTO 15004KT 10SM OVC100 15/08 A3027 RMK AO2

2001/11/05 10:10
KLXN 051010Z AUTO 16003KT 10SM CLR 07/04 A3018 RMK AO1

2001/11/05 10:10
KONL 051010Z AUTO 19010G14KT 10SM CLR 09/03 A3014 RMK AO1

2001/11/05 10:10
KPVJ 051010Z AUTO 00000KT M1/4SM FG OVC001 13/12 A3029 RMK AO2

2001/11/05 10:05
KSLB 051005Z AUTO 00000KT 10SM CLR 07/01 A3025 RMK AO1

2001/11/05 10:11
KWWR 051011Z AUTO 21008KT 5SM BR CLR 09/08 A3028 RMK AO2

2001/11/05 10:09
KIML 051009Z AUTO 24003KT 1SM BR CLR 03/ A3018 RMK AO2 $

2001/11/05 10:11
KFDR 051011Z AUTO 05005KT 3SM BR SCT022 OVC038 14/14 A3026 RMK AO2
     P0001 $

2001/11/05 10:11
KMKO 051011Z AUTO 00000KT 1/2SM FG BKN001 OVC007 12/12 A3030 RMK
     AO2

2001/11/05 10:11
KTCC 051011Z AUTO 22008KT 9SM BKN028 12/10 A3031 RMK AO2

2001/11/05 10:10
KBGM 051010Z 30007KT 10SM BKN009 BKN017 OVC039 02/01 A3003 RMK AO2
     CIG 005V014

2001/11/05 10:10
KGUY 051010Z AUTO 19010KT 1/2SM FG BKN002 11/11 A3026 RMK AO2
     TSNO

2001/11/05 10:00
HECA 051000Z 24011KT CAVOK 26/08 Q1017 NOSIG

2001/11/05 10:00
SARE 051000Z 05005KT 8000 FEW200 19/16 Q1009

2001/11/05 10:00
SARF 051000Z 020O8KT CAVOK 19/17 Q1009

2001/11/05 10:00
SARI 051000Z 00000KT 8000 SKC 17/17 Q1015.-

2001/11/05 10:00
SAZM 051000Z 00000KT 8000 BR SCT200 14/14 Q1009

2001/11/05 10:00
YBAS 1000Z 23011KT CAVOK 33/06 Q1011 RMK RF00.0/000.0 FU DIST
     SHWRS LTNG FAR W 5CU110

2001/11/05 10:00
YBBN 1000Z 04009KT 9999 FEW030 20/13 Q1020 RMK RF00.0/000.0
     NOSIG

2001/11/05 10:00
YBCS 1000Z 16005KT 9999 FEW025 25/20 Q1014 RMK RF00.0/000.0

2001/11/05 10:00
YBTL 1000Z 08014KT 9999 SCT030 26/20 Q1015 RMK RF00.0/000.0 USE
     TAF FOR ARRIVALS AFTER 1130Z NOSIG

2001/11/05 10:00
YMML 1000Z 25007KT 9999 -RA FEW035 SCT070 OVC100 18/16 Q1013 RERA
     RMK RF00.0/001.0 FM1030 19008KT 6000 RA SCT006 BKN010 TEMPO
     1200/1300 4000 RA BKN006

2001/11/05 10:00
YPAD 1000Z 18006KT 9999 SCT014 BKN018 17/15 Q1014 RMK RF00.0/006.8
     INTER 1000/1300 5000 SHRA BKN010

2001/11/05 10:00
YPDN 1000Z 04005KT 9999 FEW025 BKN350 30/21 Q1009 RMK
     RF00.0/000.0

2001/11/05 10:00
YSSY 1000Z 03021G31KT CAVOK 21/15 Q1015 RMK RF00.0/000.0 NOSIG

2001/11/05 10:00
OKBK 051000Z 00000KT CAVOK 37/00 Q1017 NOSIG

2001/11/05 10:00
OTBD 051000Z 03008KT CAVOK 31/17 Q1016 NOSIG

2001/11/05 10:00
OBBI 051000Z 33010KT CAVOK 30/22 Q1016 NOSIG

2001/11/05 10:00
OBBI 051000Z 33010KT CAVOK 30/22 Q1016 NOSIG

2001/11/05 10:00
SBCV 051000Z 01010KT 9999 SCT020 BKN300 26/23 Q1011

2001/11/05 10:00
SBIH 051000Z 00000KT 7000 SKC 25/24 Q1008

2001/11/05 10:00
SBPP 051000Z 36008 0500 FG SKC 17/17 Q1013

2001/11/05 10:00
SBTU 051000Z 03008KT 8000 SCT010 BKN300 24/23 Q1013

2001/11/05 10:00
SBVH 051000Z 09005KT 0050 FG VV001 21/21 Q1012

2001/11/05 10:00
MKJS 051000Z 10007KT 9999 SCT018 27/25 Q1004

2001/11/05 10:10
MYEG 051010Z AUTO 16019G27KT 10SM SCT050 SCT080 SCT090 26/23 A2943
     RMK AO2

2001/11/05 10:00
TNCA 051000Z NIL

2001/11/05 10:00
TNCC 051000Z 12004KT 9999 SCT017 SCT350 26/23 Q1009

2001/11/05 09:50
EDHL 050950Z 28010KT 9999 FEW030 08/04 Q1018

2001/11/05 09:50
EDMA 050950Z 27004KT 210V300 6000 SCT045 SCT120 09/04 Q1023

2001/11/05 09:50
EDTD 050950Z 35004KT 9000 FEW009 BKN030 06/05 Q1023

2001/11/05 09:50
EDNY 050950Z 18004KT 2500 BR BKN005 07/07 Q1023

2001/11/05 10:00
EPGD 051000Z 29011G17MPS 9999 SCT031 07/02 Q1007

2001/11/05 10:00
EPKK 051000Z 25008MPS 9999 FEW026 BKN043 10/04 Q1016

2001/11/05 10:00
EPPO 051000Z 29010G15MPS 9999 BKN033CB 09/02 Q1014

2001/11/05 10:00
EPRZ 051000Z 21007MPS CAVOK 07/02 Q1015

2001/11/05 10:00
EPWA 051000Z 28007MPS 9999 FEW020CB SCT050 07/05 Q1011 NOSIG

2001/11/05 10:00
LOAV 051000Z 27008G20KT 20KM FEW020CU BKN030SC Q1021 BKN

2001/11/05 10:00
LOIH 051000Z 00000KT 3000 BR OVC005ST 07/06 Q1022 OVC

2001/11/05 10:00
LOWZ 051000Z 00000KT 3000 BR BKN003ST BKN050SC 03/03 Q1022 OVC

2001/11/05 09:50
ENKR 050950Z 28012KT 9999 FEW020 M05/M09 Q0995

2001/11/05 10:00
LFSI 051000Z 28002KT 2000 BR BKN002 OVC005 08/08 Q1025

2001/11/05 10:00
LFSO 051000Z 34003KT 1200 BR BKN006 BKN050 07/07 Q1025

2001/11/05 10:00
WIIH 02006KT 5000 HZ FEW020CB 30/24 Q1008 PRESS/CB TO S

2001/11/05 10:00
WIII 051000Z 34006KT 9999 FEW025 SCT130 30/25 Q1009 RMK NIL
     NSG

2001/11/05 10:00
WBGG 051000Z 23006KT 9999 FEW015CB SCT022 BKN150 27/23 Q1009 TEMPO
     1000 +TSRA FEW014CB BKN018 RMK F15 P00.0 R79 2CB SE-W

2001/11/05 09:50
LIPE 050950Z VRB03KT 8000 SKC 13/06 Q1018

2001/11/05 10:00
LIPH 051000Z 00000KT CAVOK 14/06 Q1017 RMK FEW200 WIND THR07
     00000KT BLU

2001/11/05 10:00
LIPR 051000Z /////KT CAVOK 13/08 Q1017 RMK SCT200 WIND THR31
     31005KT BLU

2001/11/05 10:00
LIPX 051000Z 00000KT 7000 SKC 11/07 Q1017 RMK WHT

2001/11/05 09:50
LIPY 050950Z 33006KT CAVOK 14/07 Q1018 RMK BKN220

2001/11/05 10:00
LIBG 051000Z 35009KT CAVOK 19/08 Q1016

2001/11/05 10:00
LIMK 051000Z 00000KT 4000 BR BKN170 11/10 Q1015 RMK BKN VAL
     FOSCHIA

2001/11/05 10:00
LIMN 051000Z 00000KT 2800 BR FEW090 BKN200 11/11 Q1017 RMK BKN
     YLO

2001/11/05 10:00
LIMS 051000Z 00000KT 7000 BKN200 13/09 Q1017 RMK BKN WHT

2001/11/05 10:00
LIMT 051000Z 21025KT 9999 SCT012 09/06 Q1016 RMK SCT MON LIB VAL
     FOSCHIA

2001/11/05 10:00
LIMU 051000Z 08006KT CAVOK 18/14 Q1017 RMK SCT210 QUK 2 QUL 1 SE
     VIS MAR 15 KM

2001/11/05 10:00
LIMV 051000Z 21004KT 9999 BKN018 12/09 Q1017 RMK BKN MON LIB VAL
     NIL

2001/11/05 10:00
LIMY 051000Z 00000KT 2500 BR SCT190 11/07 Q1017 RMK SCT VAL
     FOSCHIA

2001/11/05 10:00
LIPA 051000Z 15002KT CAVOK 15/07 Q1017 RMK FEW200 BLU

2001/11/05 10:00
LIPF 051000Z 22002KT 1800 BR SKC 11/08 Q1018

2001/11/05 10:00
LIPI 051000Z 00000KT CAVOK 16/06 Q1017 RMK FEW200 BLU

2001/11/05 10:00
LIPL 051000Z 24002KT 2800 BR SKC 10/08 Q1018 RMK YLO

2001/11/05 10:00
LIPS 051000Z 00000KT CAVOK 12/05 Q1017 RMK BLU

2001/11/05 10:00
LIPT 051000Z 00000KT 6000 FEW200 12/08 Q1017 RMK FEW WHT

2001/11/05 10:00
LIPX 051000Z 00000KT 7000 SKC 11/07 Q1017 RMK WHT

2001/11/05 10:00
LIVC 051000Z 21004KT CAVOK 06/M07 Q1020 RMK FEW160 MON LIB VAL
     NIL

2001/11/05 10:00
LIVD 051000Z 00000KT CAVOK 02/02 Q1019 RMK FEW200

2001/11/05 10:00
LIVE 051000Z 36012KT CAVOK 08/03 Q1018

2001/11/05 10:00
LIVF 051000Z 00000KT CAVOK 12/00 Q1015 RMK SCT210 MON LIB VAL
     NIL

2001/11/05 10:00
LIVM 051000Z 29006KT 8000 SCT200 12/09 Q1017 RMK SCT QUK 1 QUL 0
     VIS MAR 8 KM

2001/11/05 10:00
LIVO 051000Z 00000KT CAVOK 09/05 Q1018

2001/11/05 10:00
LIVP 051000Z 03005KT CAVOK 06/M04 Q1018 RMK SCT140 MON LIB VAL
     NIL

2001/11/05 10:00
LIVR 051000Z 00000KT CAVOK 09/M04 Q1017 RMK MON LIB

2001/11/05 10:00
LIVT 051000Z 31002KT CAVOK 15/08 Q1017 RMK FEW200 QUK 1 QUL 0 VIS
     MAR 25 KM

2001/11/05 10:00
RJNK 051000Z 18006KT 9999 -SHRA FEW030 SCT040 OVC050 16/12
     Q1013

2001/11/05 09:50
ENRM 050950Z 06004KT 9999 FEW015 02/01 Q0999

2001/11/05 10:00
BIRK 16004KT CAVOK M01/M01 Q1007 01490295

2001/11/05 10:00
NZAA 051000Z 11007KT 30KM FEW060 12/07 Q1026 NOSIG

2001/11/05 10:00
NZCH 051000Z 08008KT 70KM SKC 10/05 Q1030 NOSIG

2001/11/05 10:00
NZWN 051000Z 03006KT 360V060 60KM FEW030 11/06 Q1031 NOSIG RMK
     KAUKAU 10017KT

2001/11/05 10:00
SYCJ 051000Z 00000KT 9000 JP SCT012 SCT300 24/23 Q1010 NOSIG

2001/11/05 10:00
SUMU 051000Z 04011KT CAVOK 15/14 Q1008 NOSIG

2001/11/05 10:11
OEAB 051011Z 03009KT CAVOK 24/M08 Q1027 NOSIG

2001/11/05 10:00
OEAH 051000Z 34007KT CAVOK 34/10 Q1017

2001/11/05 10:00
OEBA 051000Z 16007KT CAVOK 26/M05 Q1025 NOSIG

2001/11/05 09:52
OEBH 050952Z 12006KT CAVOK 31/M04 Q1022 NOSIG

2001/11/05 10:00
OEGN 051000Z 23010KT CAVOK 35/24 Q1014 NOSIG

2001/11/05 10:00
OEGS 051000Z 21008KT CAVOK 32/02 Q1018

2001/11/05 10:00
OEGT 051000Z 30006KT CAVOK 24/05 Q1017

2001/11/05 10:00
OEHL 051000Z 21014KT CAVOK 31/03 Q1020

2001/11/05 10:00
OEKB 051000Z 16006KT CAVOK 32/05 Q////

2001/11/05 10:00
OEKK 051000Z 24010KT CAVOK 34/M02 Q1017

2001/11/05 10:00
OEMH 051000Z 08010KT CAVOK 32/17 Q1020

2001/11/05 10:00
OEMK 051000Z 18004KT CAVOK 38/20 Q1014

2001/11/05 09:50
OEPA 050950Z 20012KT CAVOK 34/00 Q1017

2001/11/05 10:00
OERF 051000Z 24006KT CAVOK 33/03 Q1016

2001/11/05 10:00
OERR 051000Z 32004KT CAVOK 21/07 Q1016 NOSIG

2001/11/05 10:00
OESH 051000Z 04004KT CAVOK 31/09 Q1019 NOSIG

2001/11/05 10:00
OESK 051000Z 17006KT CAVOK 32/06 Q1017

2001/11/05 10:00
OETB 051000Z 26007KT CAVOK 31/10 Q1017 NOSIG

2001/11/05 10:00
OETF 051000Z 18004KT CAVOK 29/02 Q1023

2001/11/05 10:00
OETR 051000Z 20008KT CAVOK 27/08 Q1018 NOSIG

2001/11/05 10:00
OEWD 051000Z 14004KT CAVOK 30/04 Q1019

2001/11/05 10:00
OEWJ 051000Z 30009KT CAVOK 28/22 Q1014

2001/11/05 10:00
OEYN 051000Z 20004KT CAVOK 34/21 Q1014 NOSIG

2001/11/05 10:00
LEZL 051000Z 16006KT 9999 FEW008 SCT040 BKN100 19/17 Q1016
     NOSIG

2001/11/05 09:50
EGDM 050950Z 28002KT CAVOK 07/06 Q1028 NOSIG

2001/11/05 09:50
EGDY 050950Z 00000KT 9999 BR FEW024 08/06 Q1028 NOSIG

2001/11/05 09:50
EGOV 050950Z 23018KT 9999 BKN030 10/04 Q1025 NOSIG

2001/11/05 09:50
EGOV 050950Z 23018KT 9999 BKN030 10/04 Q1025 BLU NOSIG

2001/11/05 09:50
EGQK 050950Z 14007KT 7000 -RA OVC024 04/02 Q1016 WHT NOSIG

2001/11/05 09:50
EGQL 050950Z 23007KT 9999 -RA FEW017 BKN027 OVC100 05/04 Q1019 BLU
     TEMPO 8000 SCT020 WHT

2001/11/05 09:50
EGQS 050950Z 14009KT 8000 RA FEW016 SCT038 OVC050 04/02 Q1016 BLU
     TEMPO 6000 SCT015 WHT

2001/11/05 10:00
SVVA 051000Z 00000KT 9999 FEW01 22/21 Q1010

2001/11/05 09:50
EDMA 050950Z 27004KT 210V300 6000 SCT045 SCT120 09/04 Q1023

2001/11/05 10:00
CWAH 051000Z AUTO 01003KT 9SM 06/05 RMK AO1 SLP128 T00630054
     58003

2001/11/05 10:00
CWAR 051000Z AUTO 05006KT 10/09 RMK AO1 SLP150 T00980089 55003

2001/11/05 10:00
CWAV 051000Z AUTO 30007KT 01/M05 RMK AO1 SLP150 T00061047
     53011

2001/11/05 10:00
CWBO 051000Z AUTO 34014G24KT 07/M02 RMK AO1 PRESRR PK WND
     34024/0950 SLP107 T00661016 53022

2001/11/05 10:00
CWBT 051000Z AUTO 06002KT 04/04 RMK AO1 SLP164 T00430042 51009

2001/11/05 10:00
CWBY 051000Z AUTO 00000KT 9SM BKN004 BKN007 04/04 RMK AO1 SLP156
     T00410041 53006

2001/11/05 10:00
CWBZ 051000Z AUTO 29010G16KT 03/01 RMK AO1 PK WND 27024/0920
     SLP142 T00340011 53004

2001/11/05 10:00
CWCF 051000Z AUTO 16006KT 06/03 RMK AO1 SLP076 T00590026 58020

2001/11/05 10:00
CWCJ 051000Z AUTO 12005KT M01/M04 RMK AO1 SLP272 T10131036
     55000

2001/11/05 10:00
CWCQ 051000Z AUTO 01005KT 05/04 RMK AO1 SLP138 T00480039 55004

2001/11/05 10:00
CWCT 051000Z AUTO 34018G24KT 9SM CLR 01/M03 RMK AO1 SLP125
     T00081034 51019

2001/11/05 10:00
CWDD 051000Z AUTO 34018KT 06/M00 RMK AO1 PK WND 33022/0904 SLP264
     T00561002 53009

2001/11/05 10:00
CWDM 051000Z AUTO 01006KT SCT007 04/04 RMK AO1 SLP171 T00360036
     51009

2001/11/05 10:00
CWDO 051000Z AUTO 06015KT 1/4SM 05/05 RMK AO1 SLP167 T00520048
     50000

2001/11/05 10:00
CWDZ 051000Z AUTO 32006KT 02/M07 RMK AO1 SLP131 T00181066
     53031

2001/11/05 10:00
CWEK 051000Z AUTO 15030KT 05/02 RMK AO1 SLP114 T00480023 56003

2001/11/05 10:00
CWEL 051000Z AUTO 26005KT 07/ RMK AO1 SLP191 T0071 53006

2001/11/05 10:00
CWEP 051000Z AUTO 09/09 RMK AO1 SLP119 T00940091 55006

2001/11/05 10:00
CWEQ 051000Z AUTO 26005KT 9SM CLR 06/M02 RMK AO1 SLP081 T00581022
     58008

2001/11/05 10:00
CWEW 051000Z AUTO 33010KT 01/01 RMK AO1 PAST HR 1009 SLP128 P0008
     T00130005 50040

2001/11/05 10:00
CWFF 051000Z AUTO 00000KT 03/M00 RMK AO1 SLP079 T00301004
     50005

2001/11/05 10:00
CWFJ 051000Z AUTO 18009KT 09/M05 RMK AO1 T00891054

2001/11/05 10:00
CWFQ 051000Z AUTO 30010KT 03/02 RMK AO1 PAST HR PK WND 29017/0920
     P0005 T00310022 50014

2001/11/05 10:00
CWGB 051000Z AUTO 25009KT RMK AO1 53005

2001/11/05 10:00
CWGD 051000Z AUTO 02007KT 05/M01 RMK AO1 SLP257 T00491006
     53012

2001/11/05 10:00
CWGM 051000Z AUTO 21011G20KT 12/M12 RMK AO1 PK WND 20021/0910
     T01181118

2001/11/05 10:00
CWGQ 051000Z AUTO 33009KT 01/M01 RMK AO1 PK WND 33016/0943 SLP241
     T00101005 53018

2001/11/05 10:00
CWGT 051000Z AUTO 24007KT 08/05 RMK AO1 SLP173 T00770048 53005

2001/11/05 10:00
CWGW 051000Z AUTO 00000KT 06/M02 RMK AO1 SLP131 T00641023
     56008

2001/11/05 10:00
CWHA 051000Z AUTO 31012KT 02/01 RMK AO1 PK WND 29016/0908
     T00240005

2001/11/05 10:00
CWHI 051000Z AUTO 31012KT M01/M04 RMK AO1 PK WND 30018/0925
     T10111035

2001/11/05 10:00
CWHV 051000Z AUTO 15002KT 04/03 RMK AO1 SLP114 T00380029 53003

2001/11/05 10:00
CWIT 051000Z AUTO 27011G17KT 04/01 RMK AO1 PK WND 26019/0941
     SLP122 T00390013 53001

2001/11/05 10:00
CWIW 051000Z AUTO 17003KT 03/M03 RMK AO1 SLP076 T00251031
     58010

2001/11/05 10:00
CWIZ 051000Z AUTO 31008G18KT 05/02 RMK AO1 PK WND 32018/0951
     T00450019

2001/11/05 10:00
CWJB 051000Z AUTO 06012G18KT 05/03 RMK AO1 PK WND 04020/0937
     T00480025

2001/11/05 10:00
CWJD 051000Z AUTO 00000KT 9SM CLR M01/M02 RMK AO1 SLP076 T10101018
     55008

2001/11/05 10:00
CWJH 051000Z AUTO 18011KT M05/M05 RMK AO1 SLP079 T10451049
     53010

2001/11/05 10:00
CWJI 051000Z AUTO 21010KT 04/M05 RMK AO1 SLP116 T00431045
     56007

2001/11/05 10:00
CWJO 051000Z AUTO 27004KT 02/M00 RMK AO1 SLP154 T00231004
     53012

2001/11/05 10:00
CWJT 051000Z AUTO 29004KT 01/01 RMK AO1 PAST HR 3009 SLP148 P0004
     T00090005 50020

2001/11/05 10:00
CWJV 051000Z AUTO 00000KT 06/06 RMK AO1 PAST HR 5006 SLP133 P0010
     T00640064 50026

2001/11/05 10:00
CWJX 051000Z AUTO 26006KT 06/M01 RMK AO1 SLP085 T00591009
     55004

2001/11/05 10:00
CWKG 051000Z AUTO 00000KT M02/M02 RMK AO1 SLP115 T10161018
     56005

2001/11/05 10:00
CWKO 051000Z AUTO 22012KT 9SM CLR 05/M06 RMK AO1 SLP128 T00471058
     56008

2001/11/05 10:00
CWLB 051000Z AUTO 30009KT 9SM CLR 04/M04 RMK AO1 016 SLP130
     T00381041

2001/11/05 10:00
CWLC 051000Z AUTO 12030KT 04/ RMK AO1 PK WND 12035/0949 T0041

2001/11/05 10:00
CWMJ 051000Z AUTO 31004KT 02/M00 RMK AO1 SLP178 T00201003
     53013

2001/11/05 10:00
CWMQ 051000Z AUTO 23011KT 12/M02 RMK AO1 SLP086 T01151024
     56007

2001/11/05 10:00
CWOC 051000Z AUTO 04002KT 04/03 RMK AO1 SLP149 T00360029 53002

2001/11/05 10:00
CWOD 051000Z AUTO 32005KT 02/02 RMK AO1 SLP157 T00160016 53016

2001/11/05 10:00
CWOE 051000Z AUTO 33003KT 06/M08 RMK AO1 SLP119 T00551078
     55003

2001/11/05 10:00
CWOY 051000Z AUTO 00022KT 6SM 07/M03 RMK AO1 T00691034

2001/11/05 10:00
CWPB 051000Z AUTO 36006KT 03/M03 RMK AO1 SLP239 T00321030
     51012

2001/11/05 10:00
CWPD 051000Z AUTO 01005KT M01/M02 RMK AO1 SLP125 T10051023
     53006

2001/11/05 10:00
CWPE 051000Z AUTO 35004KT 05/03 RMK AO1 SLP111 T00480030 56009

2001/11/05 10:00
CWPK 051000Z AUTO 01004KT 9SM M00/M01 RMK AO1 SLP176 T10041013
     53014

2001/11/05 10:00
CWPR 051000Z AUTO 02/02 RMK AO1 SLP159 T00210021 51010

2001/11/05 10:00
CWPU 051000Z AUTO 00000KT 9SM CLR M10/M12 RMK AO1 SLP208 T11041123
     56004

2001/11/05 10:00
CWQK 051000Z AUTO 30001KT RMK AO1

2001/11/05 10:00
CWQP 051000Z AUTO 32014G19KT 9SM 04/01 RMK AO1 PK WND 31019/0959
     SLP201 T00430013 53013

2001/11/05 10:00
CWRJ 051000Z AUTO 21010KT 06/M02 RMK AO1 SLP065 T00631019
     58007

2001/11/05 10:00
CWRK 051000Z AUTO 34012KT 02/M01 RMK AO1 PK WND 35018/0945 SLP209
     T00171011 53011

2001/11/05 10:00
CWRM 051000Z AUTO 32004KT 9SM OVC043 01/M05 RMK AO1 SLP163
     T00091047 53014

2001/11/05 10:00
CWRT 051000Z AUTO 09003KT 07/M04 RMK AO1 T00741044

2001/11/05 10:00
CWRY 051000Z AUTO 24011KT 11/M05 RMK AO1 SLP110 T01071050
     56002

2001/11/05 10:00
CWRZ 051000Z AUTO 02007KT 05/01 RMK AO1 SLP139 T00500010 53004

2001/11/05 10:00
CWSD 051000Z AUTO 03009KT 09/08 RMK AO1 SLP122 T00880079 58005

2001/11/05 10:00
CWSK 051000Z AUTO 25002KT 05/05 RMK AO1 SLP187 T00490049 53005

2001/11/05 10:00
CWSR 051000Z AUTO 30004KT 01/M00 RMK AO1 SLP079 T00071002
     53006

2001/11/05 10:00
CWSS 051000Z AUTO 03/01 RMK AO1 SLP125 T00260005 56008

2001/11/05 10:00
CWST 051000Z AUTO 05010KT 04/03 RMK AO1 T00410034

2001/11/05 10:00
CWSZ 051000Z AUTO 19004KT 9SM CLR 04/00 RMK AO1 SLP103 T00370000
     58014

2001/11/05 10:00
CWTG 051000Z AUTO 03005KT 04/02 RMK AO1 SLP156 T00360024 53008

2001/11/05 10:00
CWTN 051000Z AUTO 06012G19KT 06/03 RMK AO1 PK WND 06019/0954
     SLP133 T00610033 53006

2001/11/05 10:00
CWTY 051000Z AUTO 02010G18KT 05/04 RMK AO1 PAST HR 3011 PK WND
     02021/0921 SLP117 P0009 T00500038 50077

2001/11/05 10:00
CWUR 051000Z AUTO 00000KT 5SM 08/08 RMK AO1 SLP119 T00780078
     55005

2001/11/05 10:00
CWUS 051000Z AUTO 28005KT 07/ RMK AO1 PAST HR 8002 SLP142 P0002
     T0072 50006

2001/11/05 10:00
CWUX 051000Z AUTO 26005KT 02/M00 RMK AO1 SLP134 T00151004
     53011

2001/11/05 10:00
CWVF 051000Z AUTO 28008KT RMK AO1

2001/11/05 10:00
CWVN 051000Z AUTO 23001KT M03/M05 RMK AO1 SLP117 T10261053
     58004

2001/11/05 10:00
CWVP 051000Z AUTO 23010KT 11/M08 RMK AO1 PK WND 23018/0919 SLP091
     T01111078 56002

2001/11/05 10:00
CWVT 051000Z AUTO 29002KT 9SM CLR 03/00 RMK AO1 SLP114 T00320000
     53021

2001/11/05 10:00
CWVY 051000Z AUTO 05008KT 04/04 RMK AO1 3006 SLP120 T00360035
     50040

2001/11/05 10:00
CWWA 051000Z AUTO 36003KT 03/03 RMK AO1 SLP199 T00280028 53008

2001/11/05 10:00
CWWE 051000Z AUTO 34007KT 5SM 04/M00 RMK AO1 SLP122 T00371004
     58003

2001/11/05 10:00
CWWF 051000Z AUTO 20006KT 02/M02 RMK AO1 SLP119 T00241022
     56010

2001/11/05 10:00
CWWK 051000Z AUTO 00000KT 04/04 RMK AO1 SLP199 T00410041 53008

2001/11/05 10:00
CWXA 051000Z AUTO 09007KT M00/M05 RMK AO1 SLP143 T10021049
     53043

2001/11/05 10:00
CWXL 051000Z AUTO 22012KT 10/M03 RMK AO1 T01011030

2001/11/05 10:00
CWYJ 051000Z AUTO 27001KT 03/03 RMK AO1 3006 SLP182 T00270027
     50002

2001/11/05 10:00
CWYY 051000Z AUTO 14003KT 10/07 RMK AO1 SLP134 T00980069 58004

2001/11/05 10:00
CWZG 051000Z AUTO 21003KT 9SM 07/M00 RMK AO1 SLP104 T00681002
     53006

2001/11/05 10:00
CWZO 051000Z AUTO 00000KT RMK AO1

2001/11/05 10:00
CWZQ 051000Z AUTO 34005KT 10/09 RMK AO1 SLP112 T00990091 56006

2001/11/05 10:00
CWZS 051000Z AUTO 34001KT 03/02 RMK AO1 SLP146 T00330023 53008

2001/11/05 10:00
CWZW 051000Z AUTO 08001KT CLR M13/M15 RMK AO1 SLP140 T11301148
     51007

2001/11/05 10:00
CXBP 051000Z AUTO 04009KT RMK AO1 56004

2001/11/05 10:00
CXCH 051000Z AUTO 08/06 RMK AO1 T00770059

2001/11/05 10:00
CXDI 051000Z AUTO 28004KT M00/M00 RMK AO1 SLP251 T10031004
     53016

2001/11/05 10:00
CXDW 051000Z AUTO 24017G22KT 09/02 RMK AO1 PK WND 23024/0948
     T00870018

2001/11/05 10:00
CXKT 051000Z AUTO 00000KT 07/06 RMK AO1 T00690063

2001/11/05 10:00
CXMD 051000Z AUTO 25006KT 09/03 RMK AO1 T00870027

2001/11/05 10:00
CXNM 051000Z AUTO 09006KT 07/07 RMK AO1 T00720069

2001/11/05 10:00
CXRH 051000Z AUTO 05004KT 06/06 RMK AO1 T00580058

2001/11/05 10:00
CXTP 051000Z AUTO 08002KT 09/08 RMK AO1 T00930080

2001/11/05 10:00
CXWN 051000Z AUTO 17004KT 06/02 RMK AO1 SLP114 T00580023 58014

2001/11/05 09:50
EGUB 050950Z 24002KT 9999 FEW040 07/05 Q1028 NOSIG

2001/11/05 09:50
EGUW 050950Z 29005KT CAVOK 06/03 Q1026 BLU NOSIG

2001/11/05 09:50
EGXC 050950Z 23003KT CAVOK 07/03 Q1026 NOSIG

2001/11/05 09:50
EGXC 050950Z 23003KT CAVOK 07/03 Q1026 BLU NOSIG

2001/11/05 09:50
EGXE 050950Z 15005KT 9999 FEW025 BKN040 05/02 Q1023 BLU NOSIG

2001/11/05 09:50
EGXT 050950Z 23006KT 9999 FEW040 BKN250 07/03 Q1026 NOSIG

2001/11/05 09:50
EGXT 050950Z 23006KT 9999 FEW040 BKN250 07/03 Q1026 BLU NOSIG

2001/11/05 09:50
EGXU 050950Z 00000KT CAVOK 06/03 Q1024 BLU NOSIG

2001/11/05 09:50
EGXW 050950Z 22009KT CAVOK 06/02 Q1025 BLU NOSIG

2001/11/05 09:50
EGYC 050950Z 27007KT 9999 FEW025 07/02 Q1026 NOSIG

2001/11/05 09:50
EGYC 050950Z 27007KT 9999 FEW025 07/02 Q1026 BLU NOSIG

2001/11/05 09:50
EGYD 050950Z 24011KT CAVOK 07/03 Q1025 NOSIG

2001/11/05 10:00
FBSN 051000Z 36004KT 9999 FEW030 FEW035TCU 36/13

2001/11/05 09:56
KIER 050956Z AUTO 34003KT 10SM CLR 11/04 A3022 RMK AO1
     T01050038

2001/11/05 10:00
LOAG 051000Z 29014KT 9999 FEW030SC SCT100AS BKNCI OVC

2001/11/05 10:00
LOAN 051000Z 33005KT 15KM BKN030SC BKN

2001/11/05 10:00
LOLF 051000Z 29006KT 9999 OVC030SC OVC

2001/11/05 10:00
SBAT 051000Z 00000KT 8000 OVC350 20/20 Q1010

2001/11/05 10:00
SBBW 051000Z 09003KT 9999 FEW006 SCT012 BKN090 22/22 Q1015

2001/11/05 10:00
SBCC 051000Z 00000KT CAVOK 21/20 Q1012

2001/11/05 10:00
SBPB 051000Z 10010KT 9999 FEW020 27/23 Q1011

2001/11/05 10:00
URKA 051000Z 05006MPS 9999 SCT010 BKN100 11/07 Q1019 NQSIG RMK SC
     07

2001/11/05 10:08
EBCV 051008Z VRB01KT 8000 FEW020 11/07 Q1026 BLU BY BAF

2001/11/05 10:08
RJFF 051008Z 16006KT 6000 -SHRA FEW004 SCT010 BKN020 16/15 Q1014
RMK 2ST004 3CU010 6CU020 A2997

2001/11/05 10:06
RJOA 051006Z 30004KT 280V340 5000 SHRA BR FEW002 SCT008 BKN020
11/11 Q1015 RMK 1ST002 3ST008 5CU020 A2998

2001/11/05 10:10
KSAR 051010Z AUTO 06003KT 10SM CLR 08/03 A3030 RMK AO2

2001/11/05 10:06
KDKB 051006Z AUTO 00000KT 10SM CLR 01/M02 A3035 RMK AO2

2001/11/05 10:10
K11R 051010Z AUTO 00000KT 3SM BR CLR 15/13 A3022 RMK AO2

2001/11/05 10:11
KALM 051011Z AUTO 34003KT 10SM CLR 13/09 A3027 RMK AO2

2001/11/05 10:10
KAUH 051010Z AUTO 10SM CLR 08/01 RMK AO1

2001/11/05 10:12
KCQB 051012Z AUTO 00000KT 1/4SM FG OVC001 12/12 A3029 RMK AO2

2001/11/05 10:12
KRKR 051012Z AUTO 00000KT 1/4SM FG 10/08 A3030 RMK AO2

2001/11/05 10:12
KSNL 051012Z AUTO 00000KT 1/4SM FG OVC001 12/12 A3029 RMK AO2

2001/11/05 10:12
KTQH 051012Z AUTO 00000KT 1/4SM FG VV002 11/11 A3029 RMK AO2

2001/11/05 10:10
KVDI 051010Z AUTO 36005KT 10SM CLR 12/06 A3007 RMK AO1

2001/11/05 10:14
KOUN 051014Z AUTO 00000KT M1/4SM FG OVC001 11/10 A3030 RMK AO2

2001/11/05 10:15
KAIZ 051015Z AUTO 00000KT 1/4SM OVC001 09/08 A3031 RMK AO1

2001/11/05 10:13
KBIE 051013Z AUTO 17004KT 10SM CLR 05/01 A3026 RMK AO1

2001/11/05 10:15
KCIU 051015Z AUTO 00000KT 10SM CLR M01/M03 A3035 RMK AO1

2001/11/05 10:15
KCWI 051015Z AUTO 09005KT 10SM CLR 01/M03 A3035 RMK AO1

2001/11/05 10:15
KEHR 051015Z AUTO 00000KT 3SM CLR 08/01 A3030 RMK AO1

2001/11/05 10:15
KESC 051015Z AUTO 30003KT 10SM CLR M04/M05 A3038 RMK AO1

2001/11/05 10:15
KFAM 051015Z AUTO 00000KT 1/2SM VV005 06/04 A3030 RMK AO1

2001/11/05 10:15
KHNB 051015Z AUTO 03005KT 10SM CLR 06/M04 A3030 RMK AO1

2001/11/05 10:15
KIWD 051015Z AUTO 18007KT 10SM CLR 03/M09 A3023 RMK AO1

2001/11/05 10:15
KMBL 051015Z AUTO 11003KT 10SM CLR M04/M05 A3036 RMK AO1

2001/11/05 10:15
KMNM 051015Z AUTO 00000KT 10SM CLR M04/M08 A3038 RMK AO1

2001/11/05 10:15
KMTW 051015Z AUTO 00000KT 10SM CLR M01/M02 A3035 RMK AO1

2001/11/05 10:15
KMVN 051015Z AUTO 01003KT 10SM CLR 03/01 A3034 RMK AO1

2001/11/05 10:14
KOUN 051014Z AUTO 00000KT M1/4SM FG OVC001 11/10 A3030 RMK AO2

2001/11/05 10:15
KSQI 051015Z AUTO 00000KT 10SM CLR 01/M01 A3036 RMK AO1

2001/11/05 10:15
KSUE 051015Z AUTO 20003KT 10SM CLR 00/M02 A3034 RMK AO1

2001/11/05 10:12
KFYV 051012Z AUTO 00000KT 1/4SM FG 10/10 A3030 RMK AO2 $

2001/11/05 10:12
KMWH 051012Z AUTO 00000KT 1/2SM FG OVC001 06/06 A2997 RMK AO2
     TSNO

2001/11/05 10:12
KPWA 051012Z AUTO 00000KT 1/4SM FG BKN001 OVC035 11/11 A3031 RMK
     AO2 $

2001/11/05 10:13
KOLM 051013Z AUTO 00000KT 1 3/4SM BR CLR 06/06 A3014 RMK AO2

2001/11/05 10:12
KAIA 051012Z AUTO 00000KT 2 1/2SM BR CLR M03/M03 A3013 RMK AO2
     $

2001/11/05 10:12
KIML 051012Z AUTO 24003KT 3/4SM BR VV001 03/ A3018 RMK AO2 $

2001/11/05 10:13
KPPF 051013Z AUTO 00000KT 3SM BR CLR 10/09 A3029 RMK AO2

2001/11/05 10:13
KOLM 051013Z AUTO 00000KT 1 3/4SM BR CLR 06/06 A3014 RMK AO2

2001/11/05 10:13
KFZY 051013Z AUTO 33012KT 10SM BKN034 OVC041 04/M01 A3009 RMK AO2
     RAE0957 P0000

2001/11/05 10:13
KPPF 051013Z AUTO 00000KT 3SM BR CLR 10/09 A3029 RMK AO2

2001/11/05 10:11
KROC 051011Z 31009KT 10SM BKN028 OVC038 04/00 A3016 RMK AO2

2001/11/05 10:11
KLBB 051011Z 14008KT 3SM BR OVC001 13/13 A3031 RMK AO2

2001/11/05 09:58
KSAN 050958Z COR 15004KT 3SM BR FEW014 BKN040 17/17 A2997 RMK
     AO2

2001/11/05 10:15
KSAN COR 050958Z COR 15004KT 3SM BR FEW014 BKN040 17/17 A2997 RMK
     AO2

2001/11/05 10:12
KFAT 051012Z 00000KT 1 3/4SM BR CLR 13/11 A3004 RMK AO2 TWR VIS 2
     1/2

2001/11/05 10:13
KEMP 051013Z AUTO 29003KT 1 1/4SM BR CLR 07/07 A3028 RMK AO2 $

2001/11/05 10:12
KSMP 051012Z AUTO 26011G16KT 1 3/4SM -SN SCT005 BKN011 OVC028
     01/M33 A3002 RMK AO2 SNB05 P0000 TSNO $

2001/11/05 10:12
KSXT 051012Z AUTO 23004KT 2 1/2SM BR BKN002 OVC013 07/07 A3016 RMK
     AO2 RAE08 P0000 TSNO $

2001/11/05 10:13
KEMP 051013Z AUTO 29003KT 1 1/4SM BR CLR 07/07 A3028 RMK AO2 $

2001/11/05 10:13
KYNG 051013Z 34005KT 10SM BKN024 02/01 A3024 RMK AO2

2001/11/05 10:09
KGRF 051009Z 16003KT 7SM SCT021 BKN032 BKN100 08/07 A3013

2001/11/05 10:00
RKSS 051000Z 33007KT 9999 FEW045 07/M01 Q1019 NOSIG

2001/11/05 10:00
WMKP 051000Z 26003KT 9999 TS FEW017CB SCT140 BKN270 30/24 Q1009
     NOSIG RMK F17 P00.0 R71 2CB N-SE JTL NE

2001/11/05 10:00
UGEE 051000Z 12001MPS 9999 FEW100 17/03 Q1021 NOSIG 070

2001/11/05 10:00
UGGG 051000Z 18001MPS 9999 SKC 17/10 Q1021 NOSIG

2001/11/05 10:00
OMAA 051000Z 33011KT 300V360 CAVOK 32/19 Q1014 (A2997) NOSIG

2001/11/05 10:00
OMAL 051000Z 10012KT CAVOK 36/M03 Q1015 (A2999) (SPECI)

2001/11/05 10:00
OMDB 051000Z 33010KT CAVOK 33/16 Q1014 A2996 NOSIG

2001/11/05 10:00
OMFJ 051000Z 02006KT CAVOK 33/07 Q1015 A2998

2001/11/05 10:00
OMRK 051000Z 26006KT CAVOK 36/02 Q1014 A2996

2001/11/05 10:00
OMSJ 051000Z 34005KT 300V050 CAVOK 35/10 Q1015

2001/11/05 10:00
OOMS 051000Z 36007KT 320V030 CAVOJK 31/15 Q1014 NOSIG

2001/11/05 10:00
SBEG 051000Z 00000KT CAVOK 24/24 Q1009

2001/11/05 10:00
SBPS 051000Z 34008KT 9999 SCT010 SCT100 25/24 Q1013

2001/11/05 10:00
SBSL 051000Z 06012KT 9999 SCT020 27/25 Q1010

2001/11/05 10:00
SBSN 051000Z 09010KT 9999 SCT017 27/24 Q1008

2001/11/05 10:00
SBAF 051000Z 20002KT 3000 BR BKN010 OVC080 21/20 Q1015

2001/11/05 10:00
SBAR 051000Z 05003KT 9999 FEW013 SCT015 FEW017TCU 26/24 Q1013

2001/11/05 10:00
SBBH 051000Z 00000KT 4000 BR SCT007 BKN018 BKN100 21/20 Q1015

2001/11/05 10:00
SBBI 051000Z 13001KT 6000 BKN007 14/12 Q1016

2001/11/05 10:00
SBBU 051000Z 12003KT 8000 FEW090 17/15 Q1014

2001/11/05 10:00
SBCO 051000Z 27002KT CAVOK 19/17 Q1011

2001/11/05 10:00
SBCR 051000Z 15004KT 9999 SCT025 BKN200 22/21 Q1010

2001/11/05 10:00
SBDN 051000Z 08005KT 9999 BKN035 17/17 Q1015

2001/11/05 10:00
SBFN 051000Z 15010KT 9999 SCT017 28/23 Q1014

2001/11/05 10:00
SBGO 051000Z 34006KT 9999 -RA BKN016 BKN070 OVC300 22/21 Q1016

2001/11/05 10:00
SBGW 051000Z 00000KT 8000 BKN015 19/17 Q1014

2001/11/05 10:00
SBIL 051000Z 35003KT 9999 SCT016 26/25 Q1013

2001/11/05 10:00
SBJR 051000Z 00000KT 1300 -RA BKN005 OVC010 19/19 Q1014

2001/11/05 10:00
SBLO 051000Z 00000KT 4500SE BCFG SKC 15/15 Q1015

2001/11/05 10:00
SBMA 051000Z 03007KT 6000 SCT020 BKN080 26/25 Q1011

2001/11/05 10:00
SBMN 051000Z 00000KT CAVOK 26/24 Q1009

2001/11/05 10:00
SBMQ 051000Z 03003KT 9999 BKN020 25/24 Q1011

2001/11/05 10:00
SBMT 051000Z 03003KT 6000 BR OVC007 18/14 Q1015

2001/11/05 10:00
SBPC 051000Z 27002KT 9999 SCT008 BKN012 BKN100 16/15 Q1017

2001/11/05 10:00
SBRJ 051000Z 22002KT 4000 -DZ FEW005 BKN010 OVC080 19/17 Q1013

2001/11/05 10:00
SBSM 051000Z 11005KT 9999 SCT004 20/19 Q1012

2001/11/05 10:00
SBSP 051000Z 00000KT 9000 BKN007 17/14 Q1016

2001/11/05 10:00
SBST 051000Z 00000KT 8000 BKN080 19/18 Q1014

2001/11/05 10:00
SBUR 051000Z 32008KT 9999 FEW025 BKN090 OVC300 21/20 Q1015

2001/11/05 10:00
SBVT 051000Z 18010KT 9999 FEW012 SCT020 BKN090 23/22 Q1012

2001/11/05 10:00
SBYS 051000Z 00000KT 3500 BR SCT010 OVC100 17/17 Q1014

2001/11/05 10:00
MYGF 051000Z 07030KT 6400 +RA SCT018 OVC080 21/18 A2963

2001/11/05 09:50
EDLN 050950Z 29006KT CAVOK 10/06 Q1025

2001/11/05 09:50
EDLP 050950Z 26007KT CAVOK 08/05 Q1023

2001/11/05 09:50
EDLW 050950Z 29008KT CAVOK 09/04 Q1023

2001/11/05 09:50
EDMO 050950Z VRB02KT 9000 FEW012 SCT030 BKN050 07/03 Q1024

2001/11/05 09:50
EDQM 050950Z 27007KT 240V300 5000 -DZ BR OVC007 04/04 Q1022

2001/11/05 09:50
EDVE 050950Z 29010KT 9999 FEW020 08/03 Q1021

2001/11/05 10:00
UKBB 051000Z 23008MPS 200V260 7000 BKN100 10/02 Q1012 NOSIG
     18CLRD70

2001/11/05 10:00
UKKK 051000Z 24009MPS 9999 SCT037 SCT100 10/00 Q1012 NOSIG
     26250158

2001/11/05 10:00
UKLL 051000Z 24007MPS 9999 SCT033 OVC100 07/M01 Q1015 NOSIG
     RMK310000 70

2001/11/05 10:00
UKLL 051000Z 24007MPS 9999 SCT033 OVC100 07/M01 Q1015 NOSIG
     RMK31000070

2001/11/05 10:00
UKOO 051000Z 22004MPS CAVOK 10/M01 Q1018 NOSIG 16090070

2001/11/05 10:00
UMMM 051000Z 24010G15MPS 6000 BR OVC014 07/03 Q1001 VM NOSIG RMK
     QFE732 30290055

2001/11/05 10:00
LDDU 051000Z 19004KT CAVOK 17/02 Q1016 NOSIG

2001/11/05 10:00
LDPL 051000Z 31008KT CAVOK 16/08 Q1016 NOSIG

2001/11/05 10:00
LDRI 051000Z 28006KT CAVOK 17/05 Q1016

2001/11/05 10:00
LDSP 051000Z VRB02KT CAVOK 17/03 Q1016 NOSIG

2001/11/05 10:00
LDZA 051000Z VRB01KT CAVOK 07/02 Q1021 NOSIG

2001/11/05 10:00
LDZD 051000Z 33004KT CAVOK 17/09 Q1016 NOSIG

2001/11/05 10:00
LIBC 051000Z 01011KT 9999 FEW035 18/M04 Q1016

2001/11/05 10:00
LIMG 051000Z 21002KT 9999 FEW030 BKN090 16/11 Q1016

2001/11/05 09:50
LIRN 050950Z VRB01KT CAVOK 17/03 Q1017

2001/11/05 10:00
LICD 051000Z 35005KT 9999 FEW025 20/15 Q1020 RMK QUK1 QUL0
     VISMAR20KM

2001/11/05 09:55
RKSG 050955Z 24004KT 9999 SCT050 SCT130 BKN200 10/07 A3006 RMK
     SLP183 8/528 9/312 WR//

2001/11/05 09:55
RKSO 050955Z 27007KT 9999 FEW010 BKN040 BKN250 09/09 A3006 RMK
     SLP182 8/501 9/503 WR//

2001/11/05 09:55
RKSX 050955Z 27012KT 260V350 6000 BR FEW040 SCT070 BKN200 07/06
     A3006 RMK SLP183 8/571 9/235

2001/11/05 10:00
UEEE 051000Z 34002MPS CAVOK M16/M19 Q1010 NOSIG RMK QFE48
     2349//55

2001/11/05 10:00
UGEE 051000Z 12001MPS 9999 FEW100 17/03 Q1021 NOSIG 070

2001/11/05 10:00
UGGG 051000Z 18001MPS 9999 SKC 17/10 Q1021 NOSIG

2001/11/05 10:00
UHHH 051000Z 28004MPS CAVOK M06/M16 Q1016 NOSIG RMK QFE755/1007
     23090070

2001/11/05 10:00
UHMM 051000Z 01003MPS 9999 SKC M07/M16 Q0997 RMK QFE733 SC

2001/11/05 10:00
UHWW 051000Z 36006G10MPS 330V050 9999 BKN025CB OVC100 02/M02 Q1016
     NOSIG RMK QFE761/1015 7529//60

2001/11/05 10:00
UIAA 051000Z 00000MPS 9999 SCT200 M07/M10 Q1017 NOSIG RMK QFE705
     29////70

2001/11/05 10:00
UIBB 051000Z 19003MPS 2000 SHSNRA VV004 01/M00 Q1007 NOSIG RMK
     QFE712 30290230

2001/11/05 10:00
UIII 051000Z 14004MPS CAVOK 03/M02 Q1014 NOSIG RMK QFE718
     12810560

2001/11/05 10:00
UIUU 051000Z 22002MPS 9999 FEW100 BKN200 M02/M09 Q1019 NOSIG RMK
     QFE720 26CLRD60

2001/11/05 10:00
UMMM 051000Z 24010G15MPS 6000 BR OVC014 07/03 Q1001 VM NOSIG RMK
     QFE732 30290055

2001/11/05 10:00
UNAA 051000Z 23010MPS 9999 SCT030CB BKN100 09/M01 Q1014 TEMPO
     23010G15MPS RMK QFE738 200///65

2001/11/05 10:00
UNNT 051000Z 21004MPS 9999 OVC026CB 02/00 Q1013 NOSIG RMK QFE750
     1001 25290160

2001/11/05 10:00
USNN 051000Z 18004MPS 5000 -SN BKN015 OVC066 M05/M07 Q1001 NOSIG
     RMK QFE746 SC035

2001/11/05 10:00
UUEE 051000Z 19007MPS 9999 OVC013 06/04 Q0999 NOSIG RMK 75010095
     25//////

2001/11/05 10:00
ULLI 051000Z 04004MPS 5000 -RA OVC011 03/02 Q0989 NOSIG RMK
     88290052

2001/11/05 10:00
UUDD 051000Z 19007MPS 9999 -SHRA BKN017CB 06/04 Q1001 NOSIG RMK
     64110060

2001/11/05 10:00
UUEE 051000Z 19007MPS 9999 OVC013 06/04 Q0999 NOSIG RMK 75010095
     25//////

2001/11/05 10:00
UUWW 051000Z 21007MPS 9999 -SHRA BKN012CB 06/04 Q1000 NOSIG RMK
     24190060

2001/11/05 09:50
EDAH 050950Z 28015G25KT 9999 SCT027 08/01 Q1014

2001/11/05 09:50
LIRN 050950Z VRB01KT CAVOK 17/03 Q1017

2001/11/05 09:55
RKJK 050955Z 33009G17KT 230V010 9999 SCT025 BKN040 OVC060 11/07
     A3012 RMK SLP202 8/5// 9/8// 0958 WR//

2001/11/05 09:55
RKNC 050955Z 17004KT 6000 BR FEW005 SCT020 BKN040 OVC070 10/07
     A3002 RMK MT TOPS OBSCD SLP173 8/87/ 9/62/

2001/11/05 09:55
RKSG 050955Z 24004KT 9999 SCT050 SCT130 BKN200 10/07 A3006 RMK
     SLP183 8/528 9/312 WR//

2001/11/05 09:55
RKSO 050955Z 27007KT 9999 FEW010 BKN040 BKN250 09/09 A3006 RMK
     SLP182 8/501 9/503 WR//

2001/11/05 10:00
CWAJ 051000Z AUTO 31007KT 03/01 RMK AO1 SLP265 T00250009 53009

2001/11/05 10:00
CWBE 051000Z AUTO 35008KT 9SM 03/M06 RMK AO1 SLP274 T00311059
     53013

2001/11/05 10:00
CWCU 051000Z AUTO 36010KT OVC031 02/M03 RMK AO1 PAST HR 1017
     SLP239 P0001 T00231034 50014

2001/11/05 10:00
CWEB 051000Z AUTO 08007KT 03/03 RMK AO1 PAST HR 6005 SLP189 P0001
     T00280027 50002

2001/11/05 10:00
CWGH 051000Z AUTO 31004KT 03/01 RMK AO1 SLP176 T00310008 53004

2001/11/05 10:00
CWGL 051000Z AUTO 36012KT 03/M03 RMK AO1 PK WND 02018/0920 SLP229
     T00311027 51012

2001/11/05 10:00
CWGP 051000Z AUTO 18003KT 01/01 RMK AO1 SLP176 T00060006 53006

2001/11/05 10:00
CWGR 051000Z AUTO 06009KT 07/07 RMK AO1 SLP124 T00730069 58004

2001/11/05 10:00
CWGX 051000Z AUTO 17006KT 00/M03 RMK AO1 SLP082 T00001026
     56019

2001/11/05 10:00
CWGY 051000Z AUTO 31014KT 04/M01 RMK AO1 PK WND 31018/0944 SLP097
     T00431008 51020

2001/11/05 10:00
CWHC 051000Z AUTO 04/ RMK AO1 PAST HR P0001 T0044 50002

2001/11/05 10:00
CWHL 051000Z AUTO 00016KT 05/ RMK AO1 SLP126 T0051 58003

2001/11/05 10:00
CWHM 051000Z AUTO 34011G16KT 02/02 RMK AO1 PK WND 34018/0918
     T00210015

2001/11/05 10:00
CWHQ 051000Z AUTO 02006KT 04/03 RMK AO1 PAST HR P0005 T00390033
     50042

2001/11/05 10:00
CWHT 051000Z AUTO 00000KT M16/M16 RMK AO1 SLP127 T11551156
     51013

2001/11/05 10:00
CWHY 051000Z AUTO 28010G17KT M01/M01 RMK AO1 PK WND 27017/0952
     SLP082 T10131014 56008

2001/11/05 10:00
CWII 051000Z AUTO 18012G19KT 08/04 RMK AO1 PK WND 18019/0950
     T00750037

2001/11/05 10:00
CWIP 051000Z AUTO 06004KT 04/ RMK AO1 T0043

2001/11/05 09:58
CWJC 050958Z AUTO 25025KT M03/M04 RMK AO1 PK WND 25029/0859 SLP002
     T10271041 50002

2001/11/05 10:00
CWJR 051000Z AUTO 33002KT 04/04 RMK AO1 SLP165 T00380038 55004

2001/11/05 10:00
CWJW 051000Z AUTO 00000KT M01/M01 RMK AO1 0006 SLP157 T10061008
     50009

2001/11/05 10:00
CWKH 051000Z AUTO 28006KT 04/M01 RMK AO1 SLP178 T00421009
     53005

2001/11/05 10:00
CWKX 051000Z AUTO 03005KT M08/ RMK AO1 SLP126 T1079 50001

2001/11/05 10:00
CWLM 051000Z AUTO 28006KT 05/04 RMK AO1 T00470041

2001/11/05 10:00
CWLS 051000Z AUTO 36010G16KT 9SM OVC039 01/M02 RMK AO1 SLP246
     T00111016 53014

2001/11/05 10:00
CWMM 051000Z AUTO 14003KT 06/05 RMK AO1 SLP193 T00600054 53009

2001/11/05 10:00
CWNC 051000Z AUTO 00000KT 03/M02 RMK AO1 SLP220 T00301019
     51017

2001/11/05 10:00
CWNK 051000Z AUTO 19003KT 01/M00 RMK AO1 T00081004

2001/11/05 10:00
CWNM 051000Z AUTO 03003KT 07/07 RMK AO1 SLP140 T00710068 58009

2001/11/05 10:00
CWNQ 051000Z AUTO 05010KT 04/03 RMK AO1 PAST HR 3009 SLP113 P0009
     T00370025 50081

2001/11/05 10:00
CWNZ 051000Z AUTO 00022KT 9SM M03/M03 RMK AO1 SLP274 T10261026
     53001

2001/11/05 10:00
CWPC 051000Z AUTO 28006KT 04/02 RMK AO1 SLP241 T00350022 51018

2001/11/05 10:00
CWPF 051000Z AUTO 03003KT 04/04 RMK AO1 T00360036

2001/11/05 10:00
CWPO 051000Z AUTO 19007KT 00/M01 RMK AO1 SLP140 T00001007
     58008

2001/11/05 10:00
CWPZ 051000Z AUTO 29002KT M08/M08 RMK AO1 SLP175 T10781079
     50003

2001/11/05 10:00
CWQH 051000Z AUTO 25001KT 03/03 RMK AO1 PAST HR P0009 T00340028
     50036

2001/11/05 10:00
CWSG 051000Z AUTO 17002KT 9SM 02/02 RMK AO1 SLP157 T00230022
     53005

2001/11/05 10:00
CWSL 051000Z AUTO 31010KT 07/06 RMK AO1 SLP136 T00730061 51001

2001/11/05 10:00
CWSP 051000Z AUTO 31004KT 08/08 RMK AO1 SLP205 T00760076 53005

2001/11/05 10:00
CWTA 051000Z AUTO 34005KT 04/02 RMK AO1 SLP128 T00380023 53006

2001/11/05 10:00
CWVI 051000Z AUTO 31008KT M00/M03 RMK AO1 SLP132 T10041030
     53019

2001/11/05 10:00
CWVQ 051000Z AUTO 30013G18KT 04/02 RMK AO1 PK WND 30023/0934
     T00410017 50011

2001/11/05 10:00
CWVV 051000Z AUTO 31001KT 04/04 RMK AO1 SLP195 T00370037 53005

2001/11/05 10:00
CWWB 051000Z AUTO 30006KT 9SM 04/M00 RMK AO1 SLP245 T00431002
     51015

2001/11/05 10:00
CWWZ 051000Z AUTO 32015KT 9SM 05/02 RMK AO1 PK WND 33018/0909
     SLP241 T00480015 51018

2001/11/05 10:00
CWZA 051000Z AUTO 35002KT 07/06 RMK AO1 3009 SLP188 T00650064
     50006

2001/11/05 10:00
CXBO 051000Z AUTO 06018KT 06/03 RMK AO1 PK WND 07022/0953
     T00600030

2001/11/05 10:00
CXDE 051000Z AUTO 30013KT M08/M09 RMK AO1 PK WND 30024/0925 SLP149
     T10801089 51021

2001/11/05 10:00
CXEC 051000Z AUTO 03/M02 RMK AO1 T00271017

2001/11/05 10:00
CXEG 051000Z AUTO 01/M03 RMK AO1 T00081025

2001/11/05 10:00
CXGH 051000Z AUTO 20007KT 05/03 RMK AO1 PK WND 22016/0943
     T00520029

2001/11/05 10:00
CXHF 051000Z AUTO 03/M01 RMK AO1 T00291006

2001/11/05 10:00
CXMI 051000Z AUTO 32005KT 09/07 RMK AO1 SLP109 T00930074 56004

2001/11/05 10:00
CXSH 051000Z AUTO 01010KT 03/02 RMK AO1 SLP122 T00310021

2001/11/05 10:00
CXZU 051000Z AUTO 27003KT M00/M02 RMK AO1 SLP161 T10041018
     51009

2001/11/05 10:00
CYRT 051000Z 16026G32KT 3/4SM -SN BLSN OVC003 M00/M00 A2958 RMK
     SN6SC2 SLP020

2001/11/05 09:50
EDGS 050950Z 33008KT 9999 SCT010 05/02 Q1023

2001/11/05 09:50
EDOP 050950Z 28012KT 250V310 9999 FEW030 08/03 Q1018

2001/11/05 09:50
EDSB 050950Z 25003KT 5000 BR BKN055 09/07 Q1025

2001/11/05 10:00
FAIR 051000Z 22013KT CAVOK 28/09 Q1020

2001/11/05 10:00
LDLO 051000Z 31005KT CAVOK 17/10 Q1016

2001/11/05 10:00
LDOC 051000Z 18002KT 8000 FEW200 09/M01 Q1021

2001/11/05 10:00
LFVP 051000Z VRB03KT 9999 FEW040 09/07 Q1013

2001/11/05 10:00
LIPO 051000Z 25004KT 2200 BR FEW200 10/07 Q1017

2001/11/05 09:57
RKSC 0957Z 36012G021KT 9999 FEW030 SCT100 06/04 A2993 RMK SLP150
     8/52 0 9/210

2001/11/05 10:00
SBAN 051000Z 24002KT 6000 -DZ FEW003 OVC080 18/18 Q1018

2001/11/05 10:00
SBIZ 051000Z 09009KT 9999 SCT015 25/22 Q1011

2001/11/05 10:00
SBJP 051000Z 07005KT 9999 SCT020 27/23 Q1014

2001/11/05 10:00
SBKG 051000Z 12008KT 9999 FEW010 BKN015 23/19 Q1017

2001/11/05 10:00
SBLP 051000Z 00000KT 9999 FEW030 25/20 Q1013

2001/11/05 10:00
SBMS 051000Z 10009KT 9999 FEW020 27/22 Q1013

2001/11/05 10:00
SBPL 051000Z 11006KT CAVOK 26/19 Q1013

2001/11/05 10:00
SBPN 051000Z 00000KT 9999 FEW010 SCT300 24/23 Q1011

2001/11/05 10:00
SBQV 051000Z 04009KT 9999 FEW015 22/17 Q1017

2001/11/05 10:00
SBRP 051000Z 00000KT 4000 -RA BKN013 OVC080 20/20 Q1013

2001/11/05 10:00
SBUF 051000Z 00000KT CAVOK 25/19 Q1014

2001/11/05 10:00
SBUL 051000Z 31015KT 5000 BR BKN004 OVC150 19/19 Q1016

2001/11/05 10:00
UELL 051000Z VRB02MPS 9999 FEW083 M20/M22 Q1010 NOSIG RMK QFE684
     VP5 SC05

2001/11/05 10:00
UERR 051000Z 20003MPS 9999 -SHSN BKN015CB OVC100 M06/M07 Q0999
     NOSIG RMK QFE718 SC06 UERR 051000 M21003 WID10 SLLWSN
     ZN4450KD M06/M07 718 SC06 BIZM

2001/11/05 10:00
UEST 051000Z 20012G15MPS 9999 DRSN OVC100 M09/M12 Q0992 NOSIG RMK
     QFE743 21390230

2001/11/05 10:00
UHNN 051000Z 35001MPS 9999 SKC M12/M18 Q1013 RMK QFE754
     209///60

2001/11/05 10:00
UKDD 051000Z 25004MPS 9999 OVC033 05/02 Q1018 NOSIG 27090070

2001/11/05 10:00
UKDR 051000Z 24003MPS CAVOK 07/02 Q1018 NOSIG 1809//70

2001/11/05 10:00
UKFF 051000Z 24003MPS CAVOK 11/01 Q1018 NOSIG RMK 01090070

2001/11/05 10:00
UKLR 051000Z 24006G11MPS 9999 BKN030 BKN100 07/M01 Q1012 NOSIG
     30090070

2001/11/05 10:00
ULAA 051000Z 23003MPS 6000 -SHSN OVC007CB 01/00 Q0984 TEMPO 1100
     SHSN 26290045 RMK QFE736/0982 SLAB OBLED SLOE 600-1000

2001/11/05 10:00
ULMM 051000Z 33003MPS 9999 SCT016 BKN080 M05/M07 Q0993 NOSIG RMK
     QFE737 SC034

2001/11/05 10:00
ULWW 051000Z 21007G11MPS 9999 -RA OVC010 05/03 Q0991 NOSIG
     15210055 RMK QFE733

2001/11/05 10:00
UNAA 051000Z 23010MPS 9999 SCT030CB BKN100 09/M01 Q1014 TEMPO
     23010G15MPS RMK QFE738 200///65

2001/11/05 10:00
UNBB 051000Z 22005MPS 9999 BKN033 03/M00 Q1016 NOSIG RMK QFE740
     24290151

2001/11/05 10:00
UNEE 051000Z 25006MPS 9999 BKN021CB OVC066 02/M01 Q1012 NOSIG RMK
     QFE736 23290850

2001/11/05 10:00
UNKL 051000Z 24007MPS 9999 -SHRA BKN030CB OVC083 03/01 Q1007 NOSI
     G RMK QFE730 29XXXX55

2001/11/05 10:00
UNNT 051000Z 21004MPS 9999 OVC026CB 02/00 Q1013 NOSIG RMK QFE750
     1001 25290160

2001/11/05 10:00
UNOO 051000Z 22009MPS 9999 SCT033CB BKN066 03/M04 Q1014 NOSIG
     25290195 RMK QFE752

2001/11/05 10:00
UNWW 051000Z 22003MPS 9999 -SHRA OVC015CB 03/02 Q1016 NOSIG RMK
     QFE734 1929//55

2001/11/05 10:00
URMT 051000Z 15003MPS 9999 BKN009 OVC100 09/08 Q1021 NOSIG RMK
     SC07

2001/11/05 10:00
USCC 051000Z 23006MPS 9999 SCT013CB OVC070 03/M04 Q1009 NOSIG RMK
     QFE737 SC07

2001/11/05 10:00
USPP 051000Z 20009MPS 9999 OVC010 02/00 Q1003 NOSIG RMK QFE742
     21150155

2001/11/05 10:00
USRR 051000Z 10002MPS 1600 SHSN SCT010 OVC013CB M06/M07 Q1000
     TEMPO 1000 SHSN BKN004 RMK QFE745 SLAB OBLED SLOE 1500-340
     IPZ SC035

2001/11/05 10:00
USSS 051000Z 24005MPS 9999 OVC026 02/M03 Q1008 NOSIG RMK QFE736
     26LSC070

2001/11/05 10:00
UWGG 051000Z 22004MPS 6000 BKN018 OVC100 07/02 Q1001 NOSIG RMK QFE
     744 18////60

2001/11/05 10:00
UWLW 051000Z 23004G08MPS 8000 OVC015 05/03 Q1008 TEMPO OVC010
     20100055 RMK QFE750

2001/11/05 10:00
UWOO 051000Z 22005MPS 5000 -RA OVC009 03/01 Q1018 NOSIG RMK
     QFE753/1004 26000095

2001/11/05 10:00
UWPP 051000Z 23006MPS 4000 BR DZ OVC005 04/03 Q1011 TEMPO OVC005
     RMK QFE742

2001/11/05 10:00
UWSS 051000Z 20006MPS 9999 SCT020 BKN/// 07/03 Q1013 NOSIG RMK
     QFE748 12////60

2001/11/05 10:00
UWUU 051000Z 22006G09MPS 9999 OVC010CB 03/01 Q1011 NOSIG RMK
     QFE749 64190054

2001/11/05 10:00
UWWW 051000Z 22004MPS 6000 BKN010 OVC100 04/03 Q1010 NOSIG RMK
     QFE746 23////55

2001/11/05 10:15
KAPF 051015Z 02009G15KT 10SM FEW045 SCT055 SCT070 20/18 A2973 RMK
     AO1

2001/11/05 10:15
KARG 051015Z AUTO 36005KT 1SM CLR 09/06 A3026 RMK AO1

2001/11/05 10:15
KAUO 051015Z AUTO 03008KT 10SM CLR 12/01 A3011 RMK AO1

2001/11/05 10:15
KAWO 051015Z AUTO 18003KT 10SM BKN017 OVC075 06/05 A3009 RMK
     AO1

2001/11/05 10:15
KBHB 051015Z AUTO 02003KT 10SM SCT055 OVC065 06/02 A2985 RMK
     AO1

2001/11/05 10:15
KBID 051015Z AUTO 31012G17KT 10SM FEW017 SCT038 08/04 A2986 RMK
     AO1

2001/11/05 10:15
KBJI 051015Z 19008KT 10SM CLR 08/M02 A3001 RMK AO1

2001/11/05 10:15
KBKX 051015Z 18009KT 10SM CLR 09/00 A3012 RMK AO1

2001/11/05 10:15
KBLM 051015Z AUTO 31012G16KT 10SM SCT070 06/M01 RMK AO1

2001/11/05 10:15
KBTP 051015Z 30003KT 10SM CLR 02/00 A3021 RMK AO1

2001/11/05 10:15
KBVX 051015Z AUTO 30005KT 10SM CLR 09/06 A3026 RMK AO1

2001/11/05 10:15
KCOD 051015Z 16007KT CLR 09/M08 A3007 RMK AO1

2001/11/05 10:15
KCOE 051015Z AUTO 17006KT 10SM CLR 07/05 A2996 RMK AO1

2001/11/05 10:15
KCVN 051015Z AUTO 19007KT M1/4SM OVC001 12/12 A3033 RMK AO1

2001/11/05 10:15
KCVO 051015Z AUTO 28008KT 10SM OVC045 12/08 A3016 RMK AO1

2001/11/05 10:12
KDTL 051012Z AUTO 15007KT 10SM CLR 06/01 A3003 RMK AO2

2001/11/05 10:15
KDYR 051015Z AUTO 00000KT 10SM CLR 08/05 A3026 RMK AO1

2001/11/05 10:15
KEEN 051015Z AUTO 32006KT 10SM BKN060 OVC065 04/02 A2986 RMK
     AO1

2001/11/05 10:15
KEGE 051015Z 00000KT 10SM CLR M02/M07 A3042 RMK AO1

2001/11/05 10:15
KENV 051015Z AUTO 00000KT 10SM CLR 06/M02 A3017 RMK AO1

2001/11/05 10:15
KEUL 051015Z AUTO 08005KT 10SM CLR 00/M02 A3005 RMK AO1

2001/11/05 10:15
KEWK 051015Z AUTO 22005KT M1/4SM VV000 09/08 A3028 RMK AO1

2001/11/05 10:15
KFKL 051015Z 00000KT 10SM CLR 02/M01 A3021 RMK AO1

2001/11/05 10:15
KFLP 051015Z AUTO 00000KT 10SM OVC040 11/07 A3030 RMK AO1

2001/11/05 10:15
KFNL 051015Z AUTO 14003KT 10SM CLR 05/M08 A3021 RMK AO1

2001/11/05 10:15
KFOD 051015Z AUTO 18007KT 10SM CLR 09/01 A3026 RMK AO1

2001/11/05 10:15
KFRM 051015Z AUTO 19010KT 10SM CLR 06/M01 A3026 RMK AO1

2001/11/05 10:15
KGAD 051015Z AUTO 00000KT 10SM CLR 06/01 A3019 RMK AO1

2001/11/05 10:15
KGBD 051015Z AUTO 20008KT 7SM CLR 10/09 A3026 RMK AO1

2001/11/05 10:15
KGDV 051015Z AUTO 00000KT 10SM CLR 01/M06 A2993 RMK AO1

2001/11/05 10:15
KGTR 051015Z AUTO 33003KT 10SM CLR 04/02 A3021 RMK AO2 PWINO
     FZRANO RVRNO

2001/11/05 10:15
KGUC 051015Z AUTO 02003KT 10SM CLR M02/M08 A3045 RMK AO1

2001/11/05 10:15
KGXY 051015Z AUTO 35003KT 10SM CLR M02/M08 A3021 RMK AO1

2001/11/05 10:13
KHCO 051013Z AUTO 16010KT 10SM CLR 04/01 A2993 RMK AO2

2001/11/05 10:15
KHDN 051015Z AUTO 12011KT 10SM SCT085 03/M06 A3036 RMK AO1

2001/11/05 10:15
KHEZ 051015Z AUTO 36004KT 10SM CLR 08/06 A3016 RMK AO1

2001/11/05 10:15
KHYI 051015Z AUTO 34006KT 10SM FEW070 15/12 A3023 RMK AO1

2001/11/05 10:15
KHYS 051015Z AUTO 21004KT 7SM CLR 08/07 A3024 RMK AO1

2001/11/05 10:15
KJAC 051015Z AUTO 00000KT 10SM CLR M06/M08 A3025 RMK AO1

2001/11/05 10:15
KJHW 051015Z 35009KT 10SM FEW022 BKN032 OVC041 02/M02 A3017 RMK
     AO1

2001/11/05 10:15
KKLS 051015Z AUTO 34004KT 10SM OVC017 09/07 A3015 RMK AO1

2001/11/05 10:15
KLBL 051015Z AUTO 20008KT 4SM CLR 08/07 A3027 RMK AO1

2001/11/05 10:15
KLCI 051015Z AUTO 27006KT 10SM FEW036 OVC046 05/02 A2981 RMK
     AO1

2001/11/05 10:15
KLEW 051015Z AUTO 30006KT 4SM FEW002 BKN014 OVC024 04/04 A2980 RMK
     AO2 PWINO FZRANO RVRNO

2001/11/05 10:15
KLGD 051015Z AUTO 33007KT 10SM CLR 06/01 A3004 RMK AO1

2001/11/05 10:15
KLKV 051015Z AUTO 33005KT 10SM CLR M03/M04 A3016 RMK AO1

2001/11/05 10:15
KLPC 051015Z AUTO 00000KT M1/4SM OVC001 12/12 A3002 RMK AO1

2001/11/05 10:15
KMKT 051015Z AUTO 17008KT 10SM CLR 06/M01 A3023 RMK AO1

2001/11/05 10:15
KMML 051015Z AUTO 21016KT 10SM CLR 11/M01 A3011 RMK AO1

2001/11/05 10:15
KMOX 051015Z AUTO 14009KT 10SM CLR 06/02 A3008 RMK AO2

2001/11/05 10:15
KMRF 051015Z AUTO 06008KT 10SM CLR 08/04 A3037 RMK AO1

2001/11/05 10:15
KMSV 051015Z 30010KT 10SM BKN027 BKN032 02/M01 A2998 RMK AO1

2001/11/05 10:15
KMYR 051015Z 34005KT 10SM CLR 08/03 A3004 RMK AO1 METAR KMYR
     050247Z 01005KT 10SM SKC 13/06 A3011

2001/11/05 10:15
KOAJ 051015Z AUTO 32003KT 10SM CLR 03/01 A3007 RMK AO1

2001/11/05 10:15
KOCF 051015Z AUTO 02010G18KT 10SM SCT110 19/16 A2991 RMK AO1

2001/11/05 10:15
KOCH 051015Z 30003KT 10SM CLR 08/07 A3022 RMK AO1

2001/11/05 10:15
KOLU 051015Z AUTO 19009KT 10SM CLR 10/02 A3023 RMK AO1

2001/11/05 10:15
KOTG 051015Z AUTO 19010KT 10SM CLR 07/M01 A3018 RMK AO1

2001/11/05 10:15
KOTH 051015Z 33004KT 10SM OVC055 11/10 A3023 RMK AO1 SLP237

2001/11/05 10:14
KOVL 051014Z AUTO 16008KT 10SM CLR 06/01 A3015 RMK AO2

2001/11/05 10:15
KOXC 051015Z AUTO 34009G16KT 10SM CLR 04/M01 A2993 RMK AO1

2001/11/05 10:15
KPIB 051015Z AUTO 34007KT 10SM CLR 12/03 A3014 RMK AO1

2001/11/05 10:15
KPQI 051015Z AUTO 02005KT 10SM OVC050 04/02 A2986 RMK AO1

2001/11/05 10:15
KPQN 051015Z AUTO 19009KT 10SM CLR 08/M01 A3014 RMK AO2

2001/11/05 10:15
KPRX 051015Z AUTO 36003KT 1SM CLR 10/09 A3028 RMK AO1

2001/11/05 10:15
KPTN 051015Z AUTO 02006KT 10SM 13/M07 A3014 RMK AO1

2001/11/05 10:15
KPTV 051015Z AUTO 12004KT 1 1/4SM CLR 11/09 A3004 RMK AO1

2001/11/05 10:15
KPVC 051015Z 29012KT 10SM SCT016 BKN027 OVC046 08/M02 A2981 RMK
     AO1

2001/11/05 10:15
KPVU 051015Z AUTO 24004KT 10SM CLR 06/03 A3020 RMK AO1

2001/11/05 10:15
KPWG 051015Z AUTO 34004KT 3SM CLR 13/12 A3024 RMK AO1

2001/11/05 10:15
KPWT 051015Z AUTO 00000KT 1/4SM OVC001 04/03 A3015 RMK AO1

2001/11/05 10:15
KRKD 051015Z 12009KT 10SM BKN085 09/04 A2980 RMK AO1

2001/11/05 10:15
KROG 051015Z AUTO 00000KT 5SM CLR 10/08 A3030 RMK AO1

2001/11/05 10:15
KRUT 051015Z AUTO 31003KT 10SM FEW017 FEW024 OVC032 03/01 A2990
     RMK AO1

2001/11/05 10:15
KSDY 051015Z AUTO 21013KT 10SM CLR 01/M05 A2988 RMK AO1

2001/11/05 10:15
KSFM 051015Z AUTO 31009KT 10SM OVC027 06/04 A2978 RMK AO1
     P0003

2001/11/05 10:15
KSFZ 051015Z AUTO 30005KT 10SM BKN034 OVC042 05/04 A2982 RMK
     AO1

2001/11/05 10:15
KSGJ 051015Z AUTO 01015G21KT 8SM CLR 21/17 A2992 RMK AO1

2001/11/05 10:15
KSGT 051015Z 34003KT 6SM CLR 09/06 A3028 RMK AO1

2001/11/05 10:15
KSGU 051015Z AUTO 00000KT 10SM BKN090 OVC110 18/03 A3012 RMK
     AO1

2001/11/05 10:15
KSKX 051015Z AUTO 34003KT 10SM CLR 00/M04 A3037 RMK AO1

2001/11/05 10:15
KSLG 051015Z AUTO 09004KT 3/4SM VV005 11/09 A3030 RMK AO1

2001/11/05 10:15
KSMN 051015Z AUTO 00000KT 6SM CLR M03/M06 A3014 RMK AO1

2001/11/05 10:15
KSOP 051015Z AUTO 31003KT 10SM CLR 06/01 A3010 RMK AO1

2001/11/05 10:15
KTPL 051015Z AUTO 34004KT 5SM CLR 13/12 A3024 RMK AO1

2001/11/05 10:15
KTVF 051015Z AUTO 19008KT 10SM CLR 06/01 A2997 RMK AO1

2001/11/05 10:15
KUDG 051015Z AUTO 35003KT 10SM CLR 07/02 A3009 RMK AO1

2001/11/05 10:15
KVBT 051015Z AUTO 00000KT 1/4SM VV002 08/07 A3032 RMK AO1

2001/11/05 10:15
KVIS 051015Z 00000KT 1/2SM VV005 11/10 A3005 RMK AO1

2001/11/05 10:15
KWVL 051015Z AUTO 01007KT 10SM OVC048 06/02 A2978 RMK AO1

2001/11/05 10:15
KWWD 051015Z 33009G14KT 10SM CLR 09/01 A3004 RMK AO1

2001/11/05 10:15
KYKN 051015Z AUTO 20007KT 10SM CLR 12/00 A3016 RMK AO1

2001/11/05 10:15
PAWS 051015Z AUTO 00000KT 4SM FEW001 SCT005 OVC055 M07/M07 A2985
     RMK AO1

2001/11/05 10:15
PAZK 051015Z AUTO 00000KT 5SM CLR M11/M13 A2967 RMK AO1

2001/11/05 10:15
PFYU 051015Z 05005KT 10SM CLR M16/M19 A3008 RMK AO1

2001/11/05 10:15
PAAK 051015Z AUTO 14035G42KT 1SM BKN001 OVC009 06/04 A2944 RMK
     AO1

2001/11/05 10:15
PABL 051015Z AUTO 14005KT 10SM CLR M24/M32 A3016 RMK AO1 TSNO

2001/11/05 10:15
PABV 051015Z AUTO 00000KT 5SM OVC001 M06/M07 A2986 RMK AO1

2001/11/05 10:15
PADL 051015Z 34006KT 10SM CLR M11/M17 A3003 RMK AO1

2001/11/05 10:15
PADU 051015Z AUTO 15004KT 10SM BKN035 02/M05 A3000 RMK AO1

2001/11/05 10:15
PAEM 051015Z AUTO 14007KT 10SM FEW006 OVC015 M13/M15 A3009 RMK
     AO1

2001/11/05 10:15
PAFE 051015Z AUTO 10008KT 9SM SCT010 BKN022 OVC075 02/M01 A2984
     RMK AO1

2001/11/05 10:15
PAFM 051015Z AUTO 04005KT 10SM CLR M22/M25 A3018 RMK AO1

2001/11/05 10:15
PAGL 051015Z AUTO 29008KT 10SM BKN001 BKN010 M15/M17 A3013 RMK
     AO1

2001/11/05 10:15
PAGM 051015Z AUTO 18006KT 10SM OVC027 01/M01 A2997 RMK AO1

2001/11/05 10:15
PAGS 051015Z AUTO 00000KT 10SM FEW012 SCT016 BKN022 01/M01 A2980
     RMK AO1

2001/11/05 10:15
PAHP 051015Z AUTO 07006KT 10SM OVC017 M05/M09 A3011 RMK AO1

2001/11/05 10:15
PAHS 051015Z AUTO 00000KT 10SM OVC060 M17/M19 A3011 RMK AO1
     TSNO

2001/11/05 10:15
PAII 051015Z AUTO 36007KT 10SM CLR M10/M14 A3001 RMK AO1

2001/11/05 10:15
PAIN 051015Z AUTO 00000KT 10SM FEW002 SCT006 BKN011 M16/M18 A2988
     RMK AO1

2001/11/05 10:15
PAJC 051015Z AUTO 5SM FEW002 SCT012 OVC029 M02/M07 A2997 RMK
     AO1

2001/11/05 10:15
PAKK 051015Z AUTO 00000KT 10SM CLR M19/M21 A3008 RMK AO1

2001/11/05 10:15
PAKP 051015Z AUTO 20012KT 10SM OVC050 M18/M27 A2992 RMK AO1
     TSNO

2001/11/05 10:15
PAMD 051015Z AUTO 22005KT 10SM CLR 03/M03 A2979 RMK AO1

2001/11/05 10:15
PAMH 051015Z AUTO 00000KT 10SM CLR M13/M17 A3002 RMK AO1

2001/11/05 10:15
PAMM 051015Z AUTO 16005KT 10SM SCT023 BKN047 BKN065 04/02 A2988
     RMK AO1 TSNO

2001/11/05 10:15
PAMY 051015Z AUTO 00000KT 10SM OVC017 M05/M08 A3008 RMK AO1

2001/11/05 10:15
PANI 051015Z AUTO 00000KT 10SM CLR M21/M26 A3010 RMK AO1

2001/11/05 10:15
PANV 051015Z AUTO 00000KT 10SM CLR M15/M22 A3009 RMK AO1

2001/11/05 10:15
PAPG 051015Z AUTO 00000KT 10SM FEW025 OVC048 02/00 A2987 RMK AO1
     TSNO

2001/11/05 10:15
PAPH 051015Z AUTO 05008KT 10SM FEW019 OVC029 M05/M09 A3000 RMK
     AO1

2001/11/05 10:15
PAPO 051015Z AUTO 13021KT 10SM OVC012 M08/M09 A3004 RMK AO1

2001/11/05 10:15
PASA 051015Z AUTO 18007KT 10SM OVC025 M01/M03 A3004 RMK AO1

2001/11/05 10:15
PASD 051015Z AUTO 35017KT 10SM CLR M01/M07 A3004 RMK AO1

2001/11/05 10:15
PASH 051015Z AUTO 14006KT 10SM OVC090 M14/M17 A3007 RMK AO1

2001/11/05 10:15
PASK 051015Z AUTO 07003KT 10SM CLR M26/M26 A3021 RMK AO1

2001/11/05 10:15
PASL 051015Z AUTO 32004KT 10SM CLR M15/M19 A3004 RMK AO2 PWINO
     FZRANO RVRNO

2001/11/05 10:15
PASM 051015Z AUTO 03003KT 10SM CLR M16/M18 A3011 RMK AO1

2001/11/05 10:15
PASX 051015Z AUTO 11004KT 10SM OVC008 M03/M05 A2985 RMK AO1

2001/11/05 10:15
PATG 051015Z AUTO 02007KT 10SM CLR M13/M17 A3004 RMK AO1

2001/11/05 10:15
PAUN 051015Z AUTO 12005KT 10SM CLR M19/M24 A3015 RMK AO1 TSNO

2001/11/05 10:15
PAVD 051015Z 00000KT 10SM FEW065 M03/M06 A2983 RMK AO1

2001/11/05 10:15
PAWG 051015Z 09011KT 7SM BKN018 BKN027 OVC046 03/01 A2987 RMK AO1
     TSNO

2001/11/05 10:15
PAWN 051015Z AUTO 02008KT 10SM CLR M22/M25 A3011 RMK AO1

2001/11/05 10:15
KAIG 051015Z AUTO 15004KT 10SM CLR 01/M03 A3031 RMK AO2

2001/11/05 10:15
KARV 051015Z AUTO 13003KT 10SM CLR 00/M07 A3028 RMK AO2

2001/11/05 10:16
KAUM 051016Z AUTO 16005KT 10SM CLR 04/M04 A3028 RMK AO2

2001/11/05 10:16
KBBB 051016Z AUTO 18007KT 10SM CLR 06/M01 A3010 RMK AO2

2001/11/05 10:17
KCBG 051017Z AUTO 16005KT 10SM CLR 07/M02 A3022 RMK AO2

2001/11/05 10:15
KCKC 051015Z AUTO 19004KT 10SM CLR 03/M06 A3020 RMK AO2

2001/11/05 10:18
KCKN 051018Z AUTO 17013KT 10SM CLR 07/02 A2997 RMK AO2

2001/11/05 10:16
KTOB 051016Z AUTO 19012KT 10SM CLR 07/M01 A3025 RMK AO2

2001/11/05 10:16
KULM 051016Z AUTO 16010KT 10SM CLR 07/01 A3019 RMK AO2

2001/11/05 10:15
KVVV 051015Z AUTO 16004KT 10SM CLR 09/02 A3007 RMK AO2

2001/11/05 10:15
KDVL 051015Z AUTO 25003KT 10SM CLR 04/01 A2991 RMK AO1

2001/11/05 10:15
KEAR 051015Z AUTO 17006KT 10SM CLR 07/05 A3022 RMK AO1

2001/11/05 10:15
KGPZ 051015Z AUTO 17012KT 10SM CLR 06/M04 A3009 RMK AO1

2001/11/05 10:14
KEUG 051014Z AUTO 29006KT 10SM SCT024 OVC034 11/09 A3016 RMK
     AO2

2001/11/05 10:14
KAAO 051014Z AUTO 23005KT 1SM BR VV002 11/11 A3028 RMK AO2

2001/11/05 10:14
KBFD 051014Z AUTO 33012KT 10SM SCT023 BKN042 01/M02 A3014 RMK AO2
     FZRANO $

2001/11/05 10:14
KFHR 051014Z AUTO 00000KT 2SM BR CLR 02/01 A3013 RMK AO2

2001/11/05 10:14
KSBA 051014Z 00000KT 3/4SM R07/3000V4500FT BR OVC001 14/14 A2997
     RMK AO2

2001/11/05 10:14
KSPB 051014Z AUTO 00000KT 10SM SCT017 BKN023 OVC070 09/09 A3014
     RMK AO2 $

2001/11/05 10:14
PAMR 051014Z 00000KT 1SM BR OVC003 M04/M06 A2984 RMK AO2 CIG
     001V005 VIS W-N 3/4

2001/11/05 10:15
KHBR 051015Z AUTO 01004KT 5SM BR FEW001 OVC035 11/11 A3031 RMK AO2
     RAE01 P0000 $

2001/11/05 10:15
KMSS 051015Z AUTO 30014KT 10SM -RA SCT026 OVC048 03/00 A2999 RMK
     AO2 RAB02 P0000

2001/11/05 10:15
KSLN 051015Z AUTO 00000KT 1 3/4SM BR FEW009 09/08 A3027 RMK
     AO2

2001/11/05 10:15
PHLI 051015Z 05015KT 10SM BKN029 BKN037 OVC046 24/19 A3008 RMK
     AO2

2001/11/05 10:15
KEMP 051015Z AUTO 29003KT 1SM BR VV001 07/07 A3028 RMK AO2 $

2001/11/05 10:15
KSUS 051015Z 00000KT 1/4SM FG VV001 04/04 A3032 RMK AO2

2001/11/05 09:50
BGBW 050950Z 07002KT 2000 -RASN BCFG OVC020 00/00 Q1017

2001/11/05 09:50
BGGH 050950Z 19010KT 9999 BKN061 00/M02 Q1014

2001/11/05 09:50
BGJN 050950Z 18003KT 9999 FEW055 M14/M19 Q1018

2001/11/05 09:50
BGSF 050950Z 06007KT 9999 BKN050 BKN080 M12/M15 Q1017

2001/11/05 10:00
BIAR VRB02KT CAVOK M06/M07 Q1010

2001/11/05 10:00
BIEG 01010KT 9000 -SN FEW005 BKN020 OVC030 M03/// Q1009

2001/11/05 10:00
BIKF 01003KT 9999 SCT013 BKN017 02/00 Q1007

2001/11/05 10:00
LPLA 051000Z 07012KT 9999 SCT020 18/12 Q1027

2001/11/05 10:14
CYHZ 051014Z 34004KT 3/4SM R15/P6000FT/D R24/P6000FT/D -DZ BR
OVC002 RMK SF8

2001/11/05 10:16
K55D 051016Z AUTO 00000KT 10SM CLR M06/M07 A3034 RMK AO2

2001/11/05 10:15
K07G 051015Z AUTO 31003KT 10SM CLR 00/M02 A3036 RMK AO2

2001/11/05 10:16
K5G9 051016Z AUTO 00000KT 10SM CLR 01/M02 A3035 RMK AO2

2001/11/05 10:15
KBUU 051015Z AUTO 00000KT 10SM CLR M02/M02 A3036 RMK AO2

2001/11/05 10:17
KCCU 051017Z AUTO 27006KT 10SM CLR M02/M09 A3056 RMK AO2

2001/11/05 10:16
KCMY 051016Z AUTO 00000KT 10SM CLR M03/M05 A3034 RMK AO2

2001/11/05 10:16
KDLL 051016Z AUTO 00000KT 10SM CLR M01/M03 A3034 RMK AO2

2001/11/05 10:16
KEFT 051016Z AUTO 00000KT 10SM CLR 04/M02 A3038 RMK AO2

2001/11/05 10:16
KETH 051016Z AUTO 15009KT 10SM CLR 11/01 A3004 RMK AO2

2001/11/05 10:09
KVWU 051009Z AUTO 17008G15KT 10SM CLR 09/01 A3001 RMK AO2

2001/11/05 10:18
KADC 051018Z AUTO 18004KT 10SM CLR 06/02 A3007 RMK AO2

2001/11/05 10:16
KCMY 051016Z AUTO 00000KT 10SM CLR M03/M05 A3034 RMK AO2

2001/11/05 10:16
KETB 051016Z AUTO 00000KT 10SM CLR M02/M02 A3035 RMK AO2

2001/11/05 10:14
KEVM 051014Z AUTO 04004KT 10SM CLR M01/M03 A3013 RMK AO2

2001/11/05 10:16
KFFM 051016Z AUTO 14009KT 10SM 08/01 A3003 RMK AO2

2001/11/05 10:18
KFGN 051018Z AUTO 16015KT 10SM CLR 04/02 A2992 RMK AO2

2001/11/05 10:18
KFSE 051018Z AUTO 17012KT 10SM CLR 07/01 A3000 RMK AO2

2001/11/05 10:17
KHCD 051017Z AUTO 17006KT 10SM CLR 07/00 RMK AO2

2001/11/05 10:15
KRMY 051015Z AUTO 00000KT 10SM CLR M02/M02 A3036 RMK AO2

2001/11/05 10:15
KRQB 051015Z AUTO 00000KT 10SM CLR M04/M06 A3036 RMK AO2

2001/11/05 10:15
KSAW 051015Z AUTO 00000KT 10SM CLR M05/M07 A3030 RMK AO2

2001/11/05 10:16
KCLI 051016Z AUTO 00000KT 10SM CLR M02/M05 A3036 RMK AO2

2001/11/05 10:16
KGKY 051016Z AUTO 00000KT 2 1/2SM BR CLR 15/14 A3026 RMK AO2

2001/11/05 10:16
KSNA 051016Z 08004KT 1/4SM FG VV001 14/14 A2995 RMK AO2

2001/11/05 10:16
KGKY 051016Z AUTO 00000KT 2 1/2SM BR CLR 15/14 A3026 RMK AO2

2001/11/05 10:16
KLEB 051016Z AUTO 00000KT 10SM BKN026 BKN034 02/02 A2986 RMK
     AO2

2001/11/05 10:16
KCNU 051016Z AUTO 11003KT 1 1/4SM BR FEW001 08/08 A3028 RMK
     AO2

2001/11/05 10:12
KSMP 051012Z AUTO 26011G16KT 1 3/4SM -SN SCT005 BKN011 OVC028
     01/M33 A3002 RMK AO2 SNB05 P0000 TSNO $

2001/11/05 10:10
PAED 051010Z 070054KT 2SM IC BR FEW000 SCT002 OVC004 M05/M05 A2984
     RMK VIS NW-NE 3/4 TWR VIS 1/2 FG FEW000 CIG LWR DER

2001/11/05 10:11
RKPK 1011Z 33012KT 8000 -RA BR SCT020 BKN030 OVC100 13/11 A3001
RMK C IG030

2001/11/05 10:20
LEJR 051020Z 17019KT 3000 SHRA SCT015 BKN027 18/17 Q1016

2001/11/05 10:11
RKPK 1011Z 33012KT 8000 -RA BR SCT020 BKN030 OVC100 13/11 A3001
RMK C IG030

2001/11/05 10:15
KAEL 051015Z AUTO 16005KT 10SM CLR 06/M01 A3025 RMK AO2

2001/11/05 10:15
KAMN 051015Z AUTO 00000KT 10SM CLR M04/M05 A3036 RMK AO2

2001/11/05 10:17
KAQP 051017Z AUTO 17009KT 10SM CLR 09/02 A3009 RMK AO2

2001/11/05 10:15
KBAX 051015Z AUTO 34005KT 10SM OVC036 02/00 A3031 RMK AO2

2001/11/05 10:17
KBFW 051017Z AUTO 00000KT 10SM CLR M06/M08 A3019 RMK AO2

2001/11/05 10:17
KIWA 051017Z AUTO 29012KT 10SM SCT110 24/14 A3005 RMK AO2

2001/11/05 10:17
KJKJ 051017Z AUTO 16010KT 10SM CLR 07/02 A2999 RMK AO2

2001/11/05 10:17
KJYG 051017Z AUTO 17010KT 10SM SCT110 07/01 A3020 RMK AO2

2001/11/05 10:17
KLJF 051017Z AUTO 17006KT 10SM CLR 07/01 A3017 RMK AO2

2001/11/05 10:15
KMCD 051015Z AUTO 00000KT 10SM CLR M02/M02 A3035 RMK AO2

2001/11/05 10:15
KMOP 051015Z AUTO 00000KT 10SM CLR 00/M01 A3037 RMK AO2

2001/11/05 10:16
KAIT 051016Z AUTO 17010KT 10SM CLR 07/01 A3011 RMK AO2

2001/11/05 10:15
KCAD 051015Z AUTO 00000KT 10SM CLR M06/M07 A3035 RMK AO2

2001/11/05 10:17
KILL 051017Z AUTO 14006KT 10SM CLR 08/00 A3013 RMK AO2

2001/11/05 10:18
KIRS 051018Z AUTO 02003KT 10SM CLR M01/M04 A3037 RMK AO2

2001/11/05 10:17
KLDM 051017Z AUTO 00000KT 10SM CLR M05/M06 A3037 RMK AO2

2001/11/05 10:20
KLXL 051020Z AUTO 14007KT 10SM CLR 06/M01 A3013 RMK AO2

2001/11/05 10:16
KMJQ 051016Z AUTO 18008KT 10SM CLR 05/M01 A3022 RMK AO2

2001/11/05 10:17
KMNH 051017Z AUTO 22008KT 10SM CLR 07/00 A3029 RMK AO2

2001/11/05 10:15
KMOP 051015Z AUTO 00000KT 10SM CLR 00/M01 A3037 RMK AO2

2001/11/05 10:18
KOWA 051018Z AUTO 17014KT 10SM CLR 08/M02 A3022 RMK AO2

2001/11/05 10:18
KPWC 051018Z AUTO 16006KT 10SM CLR 04/M01 A3009 RMK AO2

2001/11/05 10:18
KD87 051018Z AUTO 00000KT 10SM CLR M01/M02 A3035 RMK AO2

2001/11/05 10:18
KERY 051018Z AUTO 00000KT 10SM CLR M03/M04 A3035 RMK AO2

2001/11/05 10:18
KGHW 051018Z AUTO 19007KT 10SM CLR 08/01 A3011 RMK AO2

2001/11/05 10:17
KHYX 051017Z AUTO 32005KT 10SM CLR 01/M02 A3037 RMK AO2

2001/11/05 10:18
KIRS 051018Z AUTO 02003KT 10SM CLR M01/M04 A3037 RMK AO2

2001/11/05 10:17
KMVE 051017Z AUTO 17007KT 10SM CLR 09/01 A3011 RMK AO2

2001/11/05 10:19
KOEO 051019Z AUTO 09006KT 10SM CLR 06/M04 A3022 RMK AO2

2001/11/05 10:17
KRZN 051017Z AUTO 17006KT 10SM CLR 06/M02 A3021 RMK AO2

2001/11/05 10:18
KSAZ 051018Z AUTO 17007KT 10SM CLR 06/02 A3009 RMK AO2

2001/11/05 10:15
KTTF 051015Z AUTO 00000KT 10SM CLR 01/M01 A3033 RMK AO2

2001/11/05 10:18
KTWM 051018Z AUTO 02004KT 10SM CLR M02/M03 A3020 RMK AO2

2001/11/05 10:17
KCEC 051017Z AUTO 07004KT 2 1/2SM BR FEW001 OVC019 11/11 A3019 RMK
     AO2 RAE11 P0001

2001/11/05 10:17
KDEQ 051017Z AUTO 00000KT 3/4SM BR CLR 06/06 A3026 RMK AO2

2001/11/05 10:17
KFPR 051017Z AUTO 06013G26KT 1 3/4SM +RA BR FEW030 BKN035 OVC090
     20/19 A2976 RMK AO2 PK WND 07026/1013 P0017

2001/11/05 10:18
KHHR 051018Z AUTO 15003KT 2 1/2SM BR BKN005 15/14 A2997 RMK
     AO2

2001/11/05 10:18
KSTS 051018Z AUTO 00000KT 1/4SM FG VV001 07/07 A3006 RMK AO2

2001/11/05 10:18
KTTD 051018Z AUTO 25005KT 4SM -RA BR SCT009 BKN024 OVC042 10/09
     A3014 RMK AO2 P0001 TSNO

2001/11/05 10:16
KMSO 051016Z 00000KT 1 3/4SM BR FEW001 M03/M04 A3006 RMK AO2

2001/11/05 10:16
KSMP 051016Z AUTO 26011G16KT 3SM -SN FEW003 BKN013 OVC028 01/M33
     A3002 RMK AO2 SNB05 P0000 TSNO $

2001/11/05 10:17
KOKC 051017Z 11003KT 1/2SM R35R/6000VP6000FT FG SCT001 BKN029
     13/13 A3029 RMK AO2 TWR VIS 4

2001/11/05 10:00
FVBU 051000Z 01004KT CAVOK 32/11 Q1018 NOSIG

2001/11/05 10:00
FBFT 051000Z 14008KT 9999 SCT030 37/14 Q1015

2001/11/05 10:00
FBFT 051000Z 14005KT 9999 SCT030 37/14 Q1015

2001/11/05 10:00
FBGZ 051000Z 02009KT 9999 FEW035 33/14 Q1017

2001/11/05 10:00
FBJW 051000Z 14007KT CAVOK 31/07 Q1017

2001/11/05 10:00
FBSP 051000Z 05010KT CAVOK 37/11 Q1013

2001/11/05 10:00
FBTE 051000Z 05006KT CAVOK 32/07

2001/11/05 10:00
WMKP 051000Z 26003KT 9999 TS FEW017CB SCT140 BKN270 30/24 Q1009
     NOSIG RMK F17 P00.0 2CB N-SE JTL NE

2001/11/05 10:00
YBAS 051000Z 23011KT CAVOK 33/06 Q1011

2001/11/05 10:00
YBBN 051000Z 04009KT 9999 FEW030 20/13 Q1020 NOSIG

2001/11/05 10:00
YBCS 051000Z 16005KT 9999 FEW025 25/20 Q1014

2001/11/05 10:00
YBRM 051000Z 26009KT 9999 FEW022 26/22 Q1010

2001/11/05 10:00
YBTL 051000Z 08014KT 9999 SCT030 26/20 Q1015 NOSIG

2001/11/05 10:00
YMHB 051000Z 16008KT 9999 OVC006 15/13 Q1012

2001/11/05 10:00
YMML 051000Z 25007KT 9999 -RA FEW035 SCT070 OVC100 18/16 Q1013
     RERA FM1030 19008KT 6000 RA SCT006 BKN010 TEMPO 1200/1300
     4000 RA BKN006

2001/11/05 10:00
YPAD 051000Z 18006KT 9999 SCT014 BKN018 17/15 Q1014 INTER
     1000/1300 5000 SHRA BKN010

2001/11/05 10:00
YPCC 051000Z 12013KT 9999 SCT031 BKN370 27/20 Q1011

2001/11/05 10:00
YPDN 051000Z 04005KT 9999 FEW025 BKN350 30/21 Q1009 NOSIG

2001/11/05 10:00
YPEA 051000Z 21013KT //// 20/11 Q1017

2001/11/05 10:00
YPLM 051000Z 23017KT CAVOK 28/09 Q1010

2001/11/05 10:00
YPPD 051000Z 31015KT 9999 FEW018 25/20 Q1009

2001/11/05 10:00
YPPH 051000Z 21015KT CAVOK 20/07 Q1018 NOSIG

2001/11/05 10:00
YPTN 051000Z 04003KT //// 34/16 Q1008

2001/11/05 10:00
YPXM 051000Z 16008KT //// 24/22 Q1012

2001/11/05 10:00
YSCB 051000Z 02006KT CAVOK 20/14 Q1016

2001/11/05 10:00
YSDU 051000Z 01005KT //// 22/12 Q1014

2001/11/05 10:00
YSNF 051000Z 19004KT 9999 FEW030 15/08 Q1018

2001/11/05 10:00
YSRI 051000Z 10008KT //// 22/15 Q1015

2001/11/05 10:00
YSSY 051000Z 03021G31KT CAVOK 21/15 Q1015 NOSIG

2001/11/05 10:00
UAAA 051000Z 36002MPS 9999 SCT100 SCT200 13/04 Q1024 NOSIG RMK
     23CLRD65

2001/11/05 10:00
UACC 051000Z 25007MPS 9999 FEW016CB OVC016 01/M03 Q1019 NOSIG RMK
     221/0065

2001/11/05 10:00
UTDD 051000Z VRB01MPS 9999 FEW/// 18/M01 Q1025 NOSIG RMK QFE700
     99CLRL70

2001/11/05 10:00
UTSS 051000Z 29007MPS 9999 FEW200 16/04 Q1024 NOSIG RMK QFE 945
     88CLRD70

2001/11/05 10:00
UTTT 051000Z 25003MPS 220V320 CAVOK 18/04 Q1024 NOSIG RMK
     76CLRD70

2001/11/05 10:00
SBCJ 051000Z 10002KT CAVOK 22/21 Q1013

2001/11/05 10:00
TDPD 051000Z 00000KT 9999 BKN017 23/23 Q1012

2001/11/05 10:00
TTCP 051000Z 00000KT 9999 SCT018 SCT035 BKN280 26/24 Q1011

2001/11/05 10:00
TTPP 051000Z 00000KT 9999 FEW018 SCT300 25/24 Q1010 NOSIG

2001/11/05 09:49
MSLP 050949Z 00000KT 9999 FEW033 BKN100 24/24 Q1007 A2976

2001/11/05 10:00
TDCF 051000Z 00000KT 9999 FEW019 24/22 Q1012

2001/11/05 10:00
UMII 051000Z 21007G11MPS 3200 BR RA OVC008 07/06 Q0998 RMK
     24290160

2001/11/05 10:00
LYBE 051000Z 00000KT 8000 SKC 09/M00 Q1020 NOSIG

2001/11/05 10:00
LYNI 051000Z 19002KT CAVOK 06/M02 Q1021 NOSIG

2001/11/05 10:00
LYPG 051000Z 16002KT CAVOK 16/M01 Q1018 NOSIG

2001/11/05 10:00
LYTV 051000Z 23002KT CAVOK 17/05 Q1016 NOSIG

2001/11/05 10:00
LFSD 051000Z 03006KT 7000 FEW008 BKN210 07/06 Q1024 NOSIG

2001/11/05 10:00
FMMI 051000Z 14009KT 9999 FEW023 27/11 Q1022

2001/11/05 10:00
FMMT 051000Z 16010KT 9999 SCT017 28/19 Q1018

2001/11/05 10:00
BGKK 0050950 30010KT 9999 BKN120 M06/M10 Q1016

2001/11/05 10:12
NWWW 051012Z 14005KT 9999 FEW030 20/13 Q1016 NOSIG

2001/11/05 10:00
UAAA 051000Z 36002MPS 9999 SCT100 SCT200 13/04 Q1024 NOSIG RMK
     23CLRD65

2001/11/05 10:00
UACC 051000Z 25007MPS 9999 FEW016CB OVC016 01/M03 Q1019 NOSIG RMK
     221/0065

2001/11/05 10:00
UHMM 051000Z 01003MPS 9999 SKC M07/M16 Q0997 RMK QFE733 SC

2001/11/05 10:00
UHMP 051000Z 17002MPS 9999 OVC100 M13/M15 Q1008 NOSIG RMK
     QFE756

2001/11/05 10:00
UMBB 051000Z 23006G09MPS 9999 OVC013CB 09/05 Q1008 NOSIG RMK
     88290055

2001/11/05 10:00
UMII 051000Z 21007G11MPS 3200 BR RA OVC008 07/06 Q0998 RMK
     24290160

2001/11/05 10:00
UTDD 051000Z VRB01MPS 9999 FEW/// 18/M01 Q1025 NOSIG RMK QFE700
     99CLRL70

2001/11/05 10:00
UTNN 051000Z 16002MPS CAVOK 13/02 Q1027 NOSIG 33CLRD70

2001/11/05 10:00
UTSS 051000Z 29007MPS 9999 FEW200 16/04 Q1024 NOSIG RMK QFE 945
     88CLRD70

2001/11/05 10:00
UTST 051000Z 36001MPS CAVOK 20/03 Q1024 NOSIG RMK 741-

2001/11/05 10:00
UTTT 051000Z 25003MPS 220V320 CAVOK 18/04 Q1024 NOSIG RMK
     76CLRD70

2001/11/05 10:00
SUAA 051000Z 02008KT CAVOK 16/14 Q1011

2001/11/05 10:00
SUCA 051000Z 03012KT CAVOK XX/XX Q1010

2001/11/05 10:00
SULS 051000Z 04009KT CAVOK 16/12 Q1011

2001/11/05 09:50
EGDG 050950Z 00000KT 9999 FEW025 BKN035 11/06 Q1029 BLU NOSIG

2001/11/05 09:50
EGDL 050950Z 20002KT CAVOK 08/05 Q1027 BLU NOSIG

2001/11/05 09:50
EGDM 050950Z 28002KT CAVOK 07/06 Q1028 BLU NOSIG

2001/11/05 09:50
EGDR 050950Z 32005KT 9999 FEW045 11/06 Q1029 BLU NOSIG

2001/11/05 09:50
EGDY 050950Z 00000KT 9999 HZ FEW024 08/06 Q1028 BLU NOSIG

2001/11/05 09:50
EGDY 050950Z 00000KT 9999 HZ FEW024 08/06 Q1028 NOSIG

2001/11/05 09:50
EGOS 050950Z 24006KT CAVOK 08/03 Q1026 BLU NOSIG

2001/11/05 09:50
EGQM 050950Z 26011KT 9999 -RA BKN024 OVC045 07/02 Q1021 WHT

2001/11/05 10:00
CWBA 051000Z AUTO 32013KT 03/M01 RMK AO1 PK WND 32017/0959
     T00281011

2001/11/05 10:00
CWDC 051000Z AUTO 29006KT CLR M02/M06 RMK AO1 SLP078 T10151059
     50011

2001/11/05 10:00
CWEH 051000Z AUTO 29009KT 9SM CLR 03/M06 RMK AO1 SLP120 T00281062
     55007

2001/11/05 09:50
EGOM 050950Z 22007KT 6000 RA SCT010 OVC017 04/03 Q1020 GRN

2001/11/05 09:50
EGUB 050950Z 24002KT 9999 FEW040 07/05 Q1028 BLU NOSIG

2001/11/05 09:50
EGVN 050950Z 24003KT 9999 FEW018 08/04 Q1027 BLU NOSIG

2001/11/05 09:50
EGVO 050950Z 29003KT 9999 FEW045 07/05 Q1028 BLU NOSIG

2001/11/05 09:50
EGWU 050950Z 31004KT CAVOK 07/03 Q1027 BLU NOSIG

2001/11/05 10:20
EKGF 051020Z 31021KT 9999 SCT030 SCT090 08/00 Q1020

2001/11/05 10:00
FBLT 051000Z 36006KT 9999 FEW030 FEW35TCU SCT070 34/13 Q1015

2001/11/05 10:00
FBLT 051000Z 36006KT 9999 FEW030 FEW035TCU SCT070 34/13 Q1015

2001/11/05 10:00
FZFG VV001 M00/M00

2001/11/05 10:15
KUDG 051015Z AUTO 35003KT 10SM CLR 07/02 A3009 RMK AO1

2001/11/05 09:50
LIMP 050950Z 00000KT 5000 BR SKC 12/07 Q1018

2001/11/05 10:15
PAAK 051015Z AUTO 14035G42KT 1SM BKN001 OVC009 06/04 A2944 RMK
     AO1

2001/11/05 10:00
UERR 051000Z 20003MPS 9999 -SHSN BKN015CB OVC100 M06/M07 Q0999
     NOSIG RMK QFE718 SC06 UERR 051000 M21003 WID10 SLLWSN
     ZN4450KD M06/M07 718 SC06 BIZM

2001/11/05 10:00
ULAA 051000Z 23003MPS 6000 -SHSN OVC007CB 01/00 Q0984 TEMPO 1100
     SHSN 26290045 RMK QFE736/0982 SLAB OBLED SLOE 600-1000

2001/11/05 10:00
UMBB 051000Z 23006G09MPS 9999 OVC013CB 09/05 Q1008 NOSIG RMK
     88290055

2001/11/05 10:00
USRR 051000Z 10002MPS 1600 SHSN SCT010 OVC013CB M06/M07 Q1000
     TEMPO 1000 SHSN BKN004 RMK QFE745 SLAB OBLED SLOE 1500-340
     IPZ SC035

2001/11/05 10:00
YMAV 051000Z 21004KT //// 17/16 Q1012

2001/11/05 10:20
KDYT 051020Z AUTO 01003KT 10SM CLR 03/02 A3019 RMK AO2

2001/11/05 10:18
KISQ 051018Z AUTO 00000KT 10SM CLR M03/M03 A3036 RMK AO2

2001/11/05 10:17
KJVL 051017Z AUTO 00000KT 10SM CLR 00/00 A3036 RMK AO2

2001/11/05 10:17
KLVN 051017Z AUTO 20007KT 10SM CLR 09/M02 A3022 RMK AO2

2001/11/05 10:15
KOEB 051015Z AUTO 00000KT 10SM CLR M01/M02 A3036 RMK AO2

2001/11/05 10:18
KONA 051018Z AUTO 15003KT 10SM CLR 02/00 A3029 RMK AO2

2001/11/05 10:18
KONZ 051018Z AUTO 32005KT 10SM CLR 03/M02 A3032 RMK AO2

2001/11/05 10:18
KOSC 051018Z AUTO 30005KT 10SM CLR M01/M02 A3034 RMK AO2

2001/11/05 10:15
KOZW 051015Z AUTO 00000KT 10SM CLR M01/M03 A3035 RMK AO1

2001/11/05 10:19
KRPD 051019Z AUTO 13004KT 10SM CLR 03/M02 A3026 RMK AO2

2001/11/05 10:15
PAGA 051015Z AUTO 00000KT 10SM CLR M23/M26 A3013 RMK AO1
     T12281255

2001/11/05 10:15
PAIM 051015Z AUTO 00000KT 10SM OVC070 M12/M18 A3004 RMK AO1
     T11221183

2001/11/05 10:18
PAOM 051018Z 03007KT 10SM BKN019 BKN090 M13/M14 A3008 RMK AO2
     $

2001/11/05 10:18
PASN 051018Z 14020G28KT 10SM -RA FEW008 BKN025 BKN042 02/00 A2990
     RMK AO2 PK WND 13028/1010 RAB12 P0000

2001/11/05 10:18
KEYW 051018Z 01018G27KT 10SM BKN025 OVC100 22/18 A2967 RMK AO2 PK
     WND 01029/1002

2001/11/05 10:18
PABI 051018Z AUTO 24004KT 10SM BKN027 OVC100 M16/M17 A2995 RMK AO2
     TSNO

2001/11/05 10:00
BIRK 16004KT CAVOK M01/M01 Q1007 01490295

2001/11/05 10:13
RJFA 051013Z 17004KT 3000 -SHRA BR SCT003 BKN008 BKN015 15/15
Q1015 RMK 3ST003 5CU008 7CU015 A2998

2001/11/05 10:09
RJNG 051009Z VRB02KT 3000 -SHRA BR FEW001 BKN015 OVC025 13/12
Q1017 RMK 1CU001 6CU015 8CU025 A3004 1CU001 S

2001/11/05 10:09
RJSI 051009Z VRB02KT 6000 RA FEW005 SCT010 BKN030 10/08 Q1019 RMK
2ST005 3ST010 7SC030 A3010

2001/11/05 10:04
RJTJ 051004Z 36004KT 2500 -SHRA BR FEW020 OVC030 10/08 Q1020 RMK
2CU020 8SC030 A3014

2001/11/05 10:19
KCQM 051019Z AUTO 18007KT 10SM CLR 08/M04 A3009 RMK AO2

2001/11/05 10:16
KCVX 051016Z AUTO 00000KT 10SM CLR 01/M01 A3038 RMK AO2

2001/11/05 10:19
KDXX 051019Z AUTO 19012KT 10SM CLR 11/01 A3009 RMK AO2

2001/11/05 10:19
KELO 051019Z AUTO 19008KT 10SM CLR 08/M04 A3011 RMK AO2

2001/11/05 10:20
KFOZ 051020Z AUTO 17006KT 10SM CLR 06/M01 A3007 RMK AO2

2001/11/05 10:19
KLCK 051019Z AUTO 36008KT 10SM CLR 04/00 A3030 RMK AO2

2001/11/05 10:17
KMRJ 051017Z AUTO 14004KT 10SM CLR 06/M05 A3036 RMK AO2

2001/11/05 10:17
KRYV 051017Z AUTO 00000KT 10SM CLR M02/M04 A3036 RMK AO2

2001/11/05 10:18
KSGS 051018Z AUTO 00000KT 10SM CLR 04/M01 A3021 RMK AO2

2001/11/05 10:19
KSUW 051019Z AUTO 00000KT 7SM CLR M02/M02 A3018 RMK AO2

2001/11/05 10:15
KTEW 051015Z AUTO 00000KT 10SM CLR M02/M05 A3035 RMK AO2

2001/11/05 10:15
KACB 051015Z AUTO 00000KT 10SM CLR M04/M05 A3037 RMK AO2

2001/11/05 10:19
KCOQ 051019Z AUTO 15004KT 10SM CLR 04/M04 A3016 RMK AO2

2001/11/05 10:20
KMDZ 051020Z AUTO 16005KT 10SM CLR 03/M06 A3028 RMK AO2

2001/11/05 10:18
KORB 051018Z AUTO 17011KT 10SM OVC002 06/M04 A3005 RMK AO2

2001/11/05 10:18
KPDC 051018Z AUTO 12006KT 10SM CLR 01/00 A3033 RMK AO2

2001/11/05 10:20
KRGK 051020Z AUTO 12006KT 10SM CLR 07/M03 A3026 RMK AO2

2001/11/05 10:18
KRNH 051018Z AUTO 15006KT 10SM CLR 04/M03 A3023 RMK AO2

2001/11/05 10:19
KSUW 051019Z AUTO 00000KT 7SM CLR M02/M02 A3018 RMK AO2

2001/11/05 10:19
KUNU 051019Z AUTO 00000KT 10SM CLR 01/M03 A3036 RMK AO2

2001/11/05 10:20
KVTP 051020Z AUTO 24021KT 02/02 A3048 RMK AO2 PWINO

2001/11/05 09:55
TJNR 050955Z 00000KT 9999 VCSH BKN025 BKN200 23/23 A2982 RMK VCSH
     S S LP096 T02330233

2001/11/05 10:19
KOLM 051019Z AUTO 00000KT 3/4SM BR VV001 03/03 A3015 RMK AO2

2001/11/05 10:19
KCRS 051019Z AUTO 00000KT 1/4SM FG BKN003 BKN007 14/14 A3024 RMK
     AO2

2001/11/05 10:19
KSMO 051019Z 36003KT 1 1/2SM BR CLR 14/14 A2997 RMK AO2

2001/11/05 10:19
KMSO 051019Z 00000KT 3/4SM BR VV001 M03/M04 A3006 RMK AO2

2001/11/05 10:18
KROC 051018Z 32011KT 10SM FEW028 BKN037 OVC044 04/M01 A3016 RMK
     AO2

2001/11/05 10:19
KLAX 051019Z 00000KT 2SM BR BKN005 16/14 A2997 RMK AO2

2001/11/05 10:19
KRNM 051019Z AUTO 12003KT 1/2SM FG VV001 11/11 A2998 RMK AO2
     TSNO

2001/11/05 10:19
KSXT 051019Z AUTO VRB04KT 1 1/4SM BR BKN002 OVC008 07/07 A3016 RMK
     AO2 VIS 3/4V4 RAE08 P0000 TSNO $

2001/11/05 10:16
KSMP 051016Z AUTO 26011G16KT 3SM -SN FEW003 BKN013 OVC028 01/M33
     A3002 RMK AO2 SNB05 P0000 TSNO $

2001/11/05 10:10
PAED 051010Z COR 07005KT 2SM IC BR FEW000 SCT002 OVC004 M05/M05
     A2984 RMK VIS NW-NE 3/4 TWR VIS 1/2 FG FEW000 CIG LWR DER COR
     1016

2001/11/05 10:21
KBCB 051021Z AUTO 32007KT 10SM CLR 07/M01 A3015 RMK AO1

2001/11/05 10:20
KEDE 051020Z AUTO 36005KT 10SM CLR 09/06 A3005 RMK AO2

2001/11/05 10:18
KMGG 051018Z AUTO 17006KT 10SM CLR 06/M01 A3017 RMK AO2 LTG DATA
     MISG

2001/11/05 10:18
KPDC 051018Z AUTO 12006KT 10SM CLR 01/00 A3033 RMK AO2

2001/11/05 10:18
KROX 051018Z AUTO 18013KT 10SM CLR 07/03 A2991 RMK AO2

2001/11/05 10:20
KRRL 051020Z AUTO 00000KT 10SM CLR M06/M07 A3030 RMK AO2

2001/11/05 10:20
KRRT 051020Z AUTO 17007KT 10SM CLR 07/03 A2993 RMK AO2

2001/11/05 10:19
KTZR 051019Z AUTO 36004KT 10SM CLR 02/M01 A3031 RMK AO2

2001/11/05 10:20
KUES 051020Z AUTO 00000KT 10SM CLR 00/M01 A3036 RMK AO2

2001/11/05 10:20
KWDR 051020Z AUTO 34005KT 10SM CLR 08/03 A3016 RMK AO1

2001/11/05 10:19
KXVG 051019Z AUTO 16005KT 10SM CLR 08/M01 A3008 RMK AO2

2001/11/05 10:17
KSJX 051017Z AUTO 00000KT 10SM CLR M01/M03 A3037 RMK AO2

2001/11/05 10:14
KCDD 051014Z AUTO 19009G17KT 10SM CLR 07/M05 A3008 RMK AO2

2001/11/05 10:22
KCJR 051022Z AUTO 34004KT 10SM CLR 10/M02 A3017 RMK AO1

2001/11/05 10:22
KCPK 051022Z AUTO 35004KT 10SM CLR 09/08 A3007 RMK AO1

2001/11/05 10:20
KHRJ 051020Z AUTO 00000KT 10SM CLR 05/04 A3008 RMK AO2

2001/11/05 10:20
KIPJ 051020Z AUTO 00000KT 10SM CLR 04/01 A3011 RMK AO1

2001/11/05 10:21
KPBH 051021Z AUTO 16004KT 10SM CLR 00/M07 A3028 RMK AO2

2001/11/05 10:20
KVUJ 051020Z AUTO 00000KT 10SM CLR 04/03 A3012 RMK AO2

2001/11/05 10:20
KPGD 051020Z AUTO 36007KT 10SM SCT018 21/19 A2979 RMK AO2

2001/11/05 10:21
KFWN 051021Z AUTO 00000KT 10SM BKN027 06/01 A3002 RMK AO2

2001/11/05 10:20
KCNU 051020Z AUTO 12003KT 3/4SM BR VV001 08/08 A3028 RMK AO2

2001/11/05 10:21
KBGM 051021Z 29007KT 10SM FEW007 SCT011 BKN017 01/01 A3003 RMK
     AO2

2001/11/05 10:00
DAAG 051000Z 00000KT 3000 BR FEW026 SCT200 22/12 Q1019

2001/11/05 10:00
DAAT 051000Z 11012KT CAVOK 20/M03 Q1025

2001/11/05 10:00
DABB 051000Z 21006KT 9999 FEW033 WWXQQ Q1020

2001/11/05 10:00
DABC 051000Z 00000KT CAVOK 16/09 Q1023

2001/11/05 10:00
DAON 051000Z 30002KT 9999 FEW030 BKN100 20/15 Q1020

2001/11/05 10:00
DAOO 051000Z 28006KT CAVOK 21/14 Q1019

2001/11/05 10:10
VCBI 051010Z 25011K00 SCT016 SCT020CB (N/NE/E/SE/S) 29/23 Q1008
     NOSIG

2001/11/05 10:10
VCBI 051010Z 25011KT 9000 SCT016 SCT020CB (N/NE/E/SE/S) 29/23
     Q1008 NOSIG

2001/11/05 10:00
YAYE 1000Z 18018KT //// 24/16 Q1011 RMK RF00.0/000.0 CLD:CLR BLW
     125 VIS:9999

2001/11/05 10:00
YBMA 1000Z 31003KT //// 29/19 Q1010 RMK RF00.0/000.0 CLD://////
     VIS:9999

2001/11/05 09:45
OITT 050945Z 26003MPS 8000 FEW035TCU FEW045 SCT080 19/03 Q1023
     A3022 NOSIG

2001/11/05 10:00
TRPM 051000Z 12007KT 9999 SCT016 25/23 Q1012

2001/11/05 10:00
WIMM 051000 00000KT 7000 FEW017CB SCT017 28-24 1007 NSG

2001/11/05 10:00
WRSJ 09005KT 9999 FEW020 31/21 Q1007 NSG

2001/11/05 10:00
VRMM 051000Z 27006KT 9999 FEW019 30/23 Q1009

2001/11/05 09:55
TXKF 050955Z 21003KT 9SM FEW030 SCT300 19/17 A2998 RMK SLP153

2001/11/05 10:00
CWEZ 051000Z AUTO 22007KT 07/06 RMK AO1 SLP193 T00690059 53008

2001/11/05 10:00
CWNE 051000Z AUTO 05017KT 08/07 RMK AO1 PK WND 05018/0957 SLP124
     T00780071 56003

2001/11/05 10:00
CWPQ 051000Z AUTO 33007KT 03/02 RMK AO1 T00320017

2001/11/05 10:00
CWVU 051000Z AUTO 13003KT 07/06 RMK AO1 SLP120 T00690055 56012

2001/11/05 10:00
CXBK 051000Z AUTO 21009KT 02/M03 RMK AO1 SLP082 T00221026
     56011

2001/11/05 10:00
CXCK 051000Z AUTO 31003KT M08/ RMK AO1 T1078

2001/11/05 10:00
CXMY 051000Z AUTO 10/ RMK AO1 T0100

2001/11/05 10:00
CXSW 051000Z AUTO 05002KT 09/06 RMK AO1 T00860064

2001/11/05 10:00
CYIV 051000Z 16006KT 15SM FEW090 BKN250 04/M02 A2978 RMK AC1CI1
     SLP098

2001/11/05 10:00
UELL 051000Z VRB02MPS 9999 FEW083 M20/M22 Q1010 NOSIG

2001/11/05 10:00
FAGG 051000Z 15007KT 9999 FEW0

2001/11/05 10:00
FAPE 051000Z 06007KT CAVOK 22/10 Q10

2001/11/05 10:21
KTBR 051021Z AUTO 00000KT 10SM CLR 09/09 A3006 RMK AO1

2001/11/05 10:18
KY15 051018Z AUTO 00000KT 10SM CLR 01/M01 A3035 RMK AO2

2001/11/05 10:22
KCPK 051022Z AUTO 35004KT 10SM CLR 09/08 A3007 RMK AO1

2001/11/05 10:21
KFVX 051021Z AUTO 00000KT 10SM CLR 03/02 A3013 RMK AO1

2001/11/05 10:21
KGEV 051021Z AUTO 34010G15KT 10SM CLR 09/01 A3013 RMK AO2

2001/11/05 10:20
KHBI 051020Z AUTO 00000KT 10SM CLR 06/03 A3009 RMK AO1

2001/11/05 10:22
KHSP 051022Z AUTO 34012G17KT 10SM 03/M04 A3011 RMK AO1

2001/11/05 10:25
KLGC 051025Z AUTO 30003KT 10SM CLR 04/02 A3013 RMK A01 P000

2001/11/05 10:21
KMRN 051021Z AUTO 00000KT 10SM CLR 06/01 A3011 RMK AO2

2001/11/05 10:24
KMWK 051024Z AUTO 00000KT 10SM CLR 06/02 A3012 RMK AO2

2001/11/05 10:20
KOLV 051020Z AUTO 00000KT 10SM CLR 09/04 A3024 RMK A01 P000

2001/11/05 10:21
KTDF 051021Z AUTO 00000KT 10SM CLR 09/M01 A3010 RMK AO1

2001/11/05 10:19
KW99 051019Z AUTO 36004KT 10SM SCT047 06/00 A3019 RMK AO2

2001/11/05 10:24
KCTZ 051024Z AUTO 00000KT 7SM CLR 06/04 A3006 RMK AO2

2001/11/05 10:20
KDNN 051020Z AUTO 00000KT 10SM CLR 06/02 A3018 RMK AO1

2001/11/05 10:22
KEXX 051022Z AUTO 00000KT 10SM CLR 04/01 A3010 RMK AO2

2001/11/05 10:20
KGYL 051020Z AUTO 18007KT 10SM CLR 08/00 A3018 RMK

2001/11/05 10:23
KJYO 051023Z AUTO 32014KT 7SM CLR 07/M01 A3014 RMK AO1

2001/11/05 10:13
KLNP 051013Z AUTO 33004KT 10SM CLR 06/00 A3021 RMK AO1

2001/11/05 10:20
KMWM 051020Z AUTO 19004KT 10SM CLR 09/02 A3018 RMK AO2

2001/11/05 10:18
KMYP 051018Z AUTO 21009KT 10SM CLR M01/M05 A3064 RMK AO2

2001/11/05 10:18
KPNM 051018Z AUTO 16005KT 10SM CLR 06/M02 A3018 RMK AO2

2001/11/05 10:18
KSTE 051018Z AUTO 00000KT 10SM CLR M03/M04 A3033 RMK AO2

2001/11/05 10:21
KUKF 051021Z AUTO 00000KT 10SM CLR 06/00 A3013 RMK AO1

2001/11/05 10:21
KBGD 051021Z AUTO 28004KT 10SM BKN024 OVC060 12/11 A3032 RMK
     AO2

2001/11/05 10:21
KBVO 051021Z AUTO 00000KT 1/4SM FG OVC003 08/08 A3030 RMK AO2

2001/11/05 10:21
KFWN 051021Z AUTO 00000KT 10SM BKN027 06/01 A3002 RMK AO2

2001/11/05 10:21
KMKO 051021Z AUTO 00000KT 1/4SM FG BKN001 OVC007 11/11 A3030 RMK
     AO2

2001/11/05 10:21
KPSC 051021Z AUTO 10004KT 1/2SM FG VV001 07/07 A3000 RMK AO2

2001/11/05 10:21
KSPB 051021Z AUTO 00000KT 10SM SCT017 OVC075 10/09 A3014 RMK AO2
     $

2001/11/05 10:21
KVIH 051021Z AUTO 23003KT 1SM BR OVC001 05/05 A3030 RMK AO2 $

2001/11/05 10:22
KFHR 051022Z AUTO 00000KT 4SM BR CLR 01/01 A3013 RMK AO2

2001/11/05 10:22
KIXD 051022Z AUTO 15005KT 1/4SM FG BKN001 OVC009 09/09 A3030 RMK
     AO2

2001/11/05 10:22
KMWL 051022Z AUTO 06003KT 2 1/2SM BR FEW001 12/12 A3026 RMK AO2
     $

2001/11/05 10:22
KSLN 051022Z AUTO 00000KT 1/4SM FG SCT001 SCT009 08/08 A3027 RMK
     AO2

2001/11/05 10:22
KSTJ 051022Z AUTO 00000KT 4SM BR SCT002 04/03 A3029 RMK AO2

2001/11/05 10:22
PAMR 051022Z 00000KT 1SM BR OVC001 M04/M06 A2984 RMK AO2 CIG
     001V006 VIS W-N 3/4

2001/11/05 10:22
KEMP 051022Z AUTO 31003KT 1/2SM FG VV001 07/07 A3029 RMK AO2 $

2001/11/05 10:00
DNKN 051000Z 06011KT CAVOK 28/03 Q1016

2001/11/05 10:00
DNMM 051000Z 19005KT 9999 BKN014 29/25 Q1013 NOSIG

2001/11/05 10:00
DRRN 051000Z 12012KT CAVOK 31/07 Q1014 NOSIG

2001/11/05 10:00
FTTJ 051000Z 05015KT 020V080 CAVOK 36/10 Q1013 NOSIG

2001/11/05 10:20
SAZM 051020Z 00000KT 8000 BR BKN010 SCT200 14/14 Q1009

2001/11/05 10:20
MYEG 051020Z AUTO 16020G30KT 10SM SCT048 SCT060 SCT080 26/23 A2943
     RMK AO2

2001/11/05 10:20
EKAH 051020Z 29017KT 9999 FEW023 07/02 Q1012

2001/11/05 10:20
EKBI 051020Z 29015KT 9999 FEW025 FEW028CB 07/03 Q1015

2001/11/05 10:20
EKCH 051020Z 30020KT 9999 SCT030 07/01 Q1011 NOSIG

2001/11/05 10:20
EKEB 051020Z 31011KT 9999 VCSHRA SCT030CB 08/03 Q1017

2001/11/05 10:20
EKKA 051020Z 29017KT 9999 -SHRA FEW025 08/03 Q1014 TEMPO
     29018G28KT

2001/11/05 10:20
EKRK 051020Z 30018KT 9999 SCT025 07/03 Q1012

2001/11/05 10:20
EKVA 051020Z 29014KT 9999 FEW020CB 06/02 Q1015 TEMPO 30015G25 6000
     SHRA SCT008 BKN012CB

2001/11/05 10:20
EKYT 051020Z 30009KT 260V340 9999 FEW040 08/M01 Q1012 NOSIG

2001/11/05 10:00
UMMM 051000Z 24010G15MPS 6000 BR OVC014 07/03 Q1001 NOSIG RMK
     QFE732 30290055

2001/11/05 10:20
EVRA 051020Z 25007KT 9999 SCT030CB SCT060 07/04 Q0992 TEMPO
     29016G26KT 18290150

2001/11/05 10:00
UMMM 051000Z 24010G15MPS 6000 BR OVC014 07/03 Q1001 NOSIG RMK
     QFE732 30290055

2001/11/05 10:00
SVMG 051000Z 09011KT 9999 FEW013 25/24 Q1010

2001/11/05 10:00
SYCJ 051000Z 00000KT 9000 SCT012 SCT300 24/23 Q1010 JP SE

2001/11/05 10:00
OENG 051000Z 08006KT CAVOK 28/01 Q1022 NOCIG

2001/11/05 10:20
ESGG 051020Z 32009KT CAVOK 05/M03 Q1008

2001/11/05 10:20
ESMS 051020Z 30019KT 9999 SCT030 07/01 Q1010

2001/11/05 10:20
ESOW 051020Z 31008KT CAVOK 03/01 Q1002

2001/11/05 10:20
ESSA 051020Z 30010KT 9999 FEW020 03/M02 Q0999 NOSIG

2001/11/05 10:20
ESSB 051020Z 30010KT CAVOK 03/M01 Q1000

2001/11/05 10:20
ESSP 051020Z 30013KT 9999 FEW020 03/M01 Q1003

2001/11/05 10:20
ESSV 051020Z 31017KT 9999 SCT021 04/01 Q1001

2001/11/05 10:21
CWFG 051021Z AUTO 21020KT RMK AO1 PAST HR 0002 P0008 50034

2001/11/05 10:00
CWIY 051000Z AUTO 36002KT 03/02 RMK AO1 SLP135 T00320022 53003

2001/11/05 10:00
CWLU 051000Z AUTO 07015G20KT RMK AO1

2001/11/05 10:20
CWME 051020Z AUTO 09006KT 04/04 RMK AO1 6013 SLP176 T00370036
     50002

2001/11/05 10:17
CWRU 051017Z AUTO 16021G29KT 05/ RMK AO1 SLP180 T0052 55005

2001/11/05 10:00
CWZV 051000Z AUTO 22014KT 06/ RMK AO1 PK WND 23017/0908 SLP147
     T0057 53002

2001/11/05 10:00
KARL 051000Z AUTO 23030G36KT 11/M06 RMK AO1 RH 29 PCPNY

2001/11/05 10:01
KBIT 051001Z AUTO 27009G10KT 06/M09 RMK AO1 RH 33

2001/11/05 10:02
KBVR 051002Z AUTO 23018G22KT 06/M04 RMK AO1 RH 49

2001/11/05 10:00
KCTD 051000Z AUTO 18010G10KT 06/M04 RMK AO1 RH 48

2001/11/05 10:01
KHLD 051001Z AUTO 27003G03KT 06/M09 RMK AO1 RH 32

2001/11/05 10:00
KMTR 051000Z AUTO 27005G06KT 07/M13 RMK AO1 RH 23

2001/11/05 10:01
KPAT 051001Z AUTO 23010G11KT 06/M06 RMK AO1 RH 45

2001/11/05 10:23
KEGV 051023Z AUTO 00000KT 10SM CLR M05/M06 A3029 RMK AO2

2001/11/05 10:21
KFKN 051021Z AUTO 00000KT 7SM CLR 02/02 A3008 RMK AO1

2001/11/05 10:22
KHLX 051022Z AUTO 30016G22KT 10SM CLR 09/02 A3011 RMK AO1

2001/11/05 10:16
KIER 051016Z AUTO 35003KT 10SM CLR 11/03 A3023 RMK AO1

2001/11/05 10:23
KJMR 051023Z AUTO 15003KT 10SM CLR 06/M02 A3018 RMK AO2

2001/11/05 10:19
KLWB 051019Z AUTO 34007KT 10SM CLR 04/M02 A3017 RMK AO2

2001/11/05 10:20
KPHN 051020Z AUTO 30005KT 10SM SCT039 01/M02 A3033 RMK AO1

2001/11/05 10:25
KTNB 051025Z AUTO 30011G19KT 10SM CLR 09/01 A3014 RMK AO2

2001/11/05 10:21
KTTA 051021Z AUTO 00000KT 7SM CLR 02/01 A3010 RMK AO2

2001/11/05 10:21
KSUT 051021Z AUTO 36004KT 10SM CLR 11/05 A3005 RMK AO2

2001/11/05 10:21
KASJ 051021Z AUTO 00000KT 10SM CLR 03/02 A3007 RMK AO2

2001/11/05 10:21
KAVC 051021Z AUTO 00000KT 5SM CLR 07/03 A3016 RMK AO1

2001/11/05 10:21
KBQK 051021Z AUTO 01004KT 10SM CLR 14/12 A3002 RMK AO2

2001/11/05 10:23
KCPW 051023Z AUTO 26010KT 7SM BKN005 02/02 A3055 RMK AO2

2001/11/05 10:18
KFBL 051018Z AUTO 19010KT 10SM CLR 06/M02 A3024 RMK AO2

2001/11/05 10:22
KFQD 051022Z AUTO 00000KT 10SM CLR 07/02 A3012 RMK AO2

2001/11/05 10:21
KMFV 051021Z AUTO 35014G29KT 10SM CLR 13/M03 A3005 RMK AO1

2001/11/05 10:22
KMQI 051022Z AUTO 32006KT 10SM CLR 14/09 A3003 RMK AO2

2001/11/05 10:21
KOKV 051021Z AUTO 30009KT 10SM CLR 06/M01 A3016 RMK AO1

2001/11/05 10:20
KROS 051020Z AUTO VRB04KT 7SM CLR 04/M02 A3019 RMK

2001/11/05 10:24
KAYS 051024Z AUTO 02005KT 10SM CLR 14/08 A3003 RMK AO1

2001/11/05 09:55
TJNR 050955Z 00000KT 9999 VCSH BKN025 BKN200 23/23 A2982 RMK VCSH
     S S LP096 T02330233

2001/11/05 10:15
PALU 051015Z AUTO 22022KT 10SM CLR M07/M13 A3000 RMK AO1
     T10721127

2001/11/05 10:23
KEPH 051023Z AUTO 09003KT 1 1/4SM BR OVC001 06/06 A2995 RMK
     AO2

2001/11/05 10:23
KGKY 051023Z AUTO 02003KT 4SM BR CLR 15/15 A3026 RMK AO2

2001/11/05 10:08
KONT 051008Z COR 08005KT 1/2SM FG BKN001 BKN008 13/13 A2999 RMK
     AO2 R26L/1000FT FG BKN000 $

2001/11/05 10:23
KDSV 051023Z AUTO 32014KT 10SM FEW024 BKN034 OVC046 04/01 A3017
     RMK AO2

2001/11/05 10:23
KIML 051023Z AUTO 23003KT 1/4SM FG VV001 03/ A3017 RMK AO2 $

2001/11/05 10:23
KSLK 051023Z AUTO VRB05KT 1SM -SN BR SCT006 BKN011 OVC017 00/M01
     A2990 RMK AO2 P0001

2001/11/05 10:20
KPSM 051020Z 30007KT 5SM -RA BR SCT005 OVC028 06/05 A2981

2001/11/05 10:18
PABI 051018Z AUTO 24004KT 10SM BKN027 OVC100 M16/M17 A2995 RMK AO2
     TSNO

2001/11/05 10:22
KCCO 051022Z AUTO 00000KT 10SM CLR 02/02 A3014 RMK AO1

2001/11/05 10:24
KDPL 051024Z AUTO 00000KT 10SM CLR 03/03 A3005 RMK AO2

2001/11/05 10:24
KJYM 051024Z AUTO 00000KT 10SM CLR M01/M03 A3034 RMK AO2

2001/11/05 10:21
KMFV 051021Z AUTO 35014G29KT 10SM CLR 13/M03 A3005 RMK AO1

2001/11/05 10:23
KMTV 051023Z AUTO 00000KT 10SM CLR 00/00 A3014 RMK AO1

2001/11/05 10:24
KOCW 051024Z AUTO 00000KT 10SM CLR 04/03 A3004 RMK AO2

2001/11/05 10:24
KPGV 051024Z AUTO 00000KT 4SM BR CLR 05/04 A3007 RMK AO2

2001/11/05 10:23
KPTB 051023Z AUTO 01009KT 10SM CLR 11/02 A3012 RMK AO1

2001/11/05 10:21
KSFQ 051021Z AUTO 34003KT 10SM CLR 09/05 A3008 RMK AO1

2001/11/05 10:22
KSHD 051022Z AUTO 04005KT 10SM CLR 05/00 A3016 RMK AO2

2001/11/05 10:21
KSVH 051021Z AUTO 00000KT 10SM CLR 12/04 A3011 RMK AO2

2001/11/05 10:21
KFDK 051021Z AUTO 32009KT 10SM SCT090 08/00 A3017 RMK AO2

2001/11/05 10:24
KRHP 051024Z AUTO 00000KT 10SM CLR 00/M01 A3018 RMK AO2

2001/11/05 10:24
KEZF 051024Z AUTO 32005KT 10SM CLR 08/M04 A3016 RMK AO1

2001/11/05 10:22
KMKJ 051022Z AUTO 25005KT 10SM CLR 06/M01 A3021 RMK AO1

2001/11/05 10:15
KMZH 051015Z AUTO 20007KT 10SM CLR 06/M03 A3017 RMK AO2

2001/11/05 10:23
KPSK 051023Z AUTO 33007G17KT 10SM CLR 08/M01 A3016 RMK AO1

2001/11/05 10:24
KRUQ 051024Z AUTO 00000KT 10SM CLR 03/02 A3011 RMK AO2

2001/11/05 10:22
KVJI 051022Z AUTO 00000KT 10SM CLR 04/01 A3018 RMK AO1

2001/11/05 10:24
KCMA 051024Z AUTO 32004KT 1 1/2SM HZ OVC001 14/M01 A2996 RMK AO2
     $

2001/11/05 10:24
KWLD 051024Z AUTO 00000KT 1SM BR OVC002 10/09 A3030 RMK AO2

2001/11/05 10:23
SAZM 051023Z 00000KT 8000 6ST010 4CICS SKC 14/14 Q1009 READ MDP
POR INTRUMENTOS

2001/11/05 10:18
MROC 051018Z VRB03KT 1200 -DZ BR SCT001 BKN007 20/20 A2989

2001/11/05 10:11
RJNN 051011Z 01004KT 2000 SHRA BR FEW005 SCT015 BKN025 13/13 Q1017
RMK 1ST005 4CU015 7CU025 A3005

2001/11/05 10:17
LERT 051017Z 18013G20 8000 -RA BKN010 BKN040 BKN050 19/18 A2999
RMK S LP155 WR// T01940183

2001/11/05 10:26
KTAZ 051026Z AUTO 08006KT 10SM CLR 06/M01 A3034 RMK AO2

2001/11/05 10:26
KENL 051026Z AUTO 00000KT 10SM CLR 06/01 A3031 RMK AO2

2001/11/05 10:26
K1H2 051026Z AUTO 00000KT 10SM 06/M03 A3035 RMK AO1

2001/11/05 10:26
KFOA 051026Z AUTO 01005KT 10SM 04/M03 A3033 RMK AO2

2001/11/05 10:25
KC75 051025Z AUTO 00000KT 10SM CLR 01/M01 A3036 RMK AO1

2001/11/05 10:26
KAAA 051026Z AUTO 00000KT 10SM CLR 02/M02 A3035 RMK AO2

2001/11/05 10:25
KGLE 051025Z AUTO 00000KT 1/2SM FG OVC001 12/11 A3031 RMK AO2

2001/11/05 10:25
KVVG 051025Z AUTO 01014G18KT 9SM 19/17 A2989 RMK A02 P000

2001/11/05 10:26
KDNV 051026Z AUTO 00000KT 10SM CLR 01/M01 A3037 RMK AO1

2001/11/05 10:27
KHSB 051027Z AUTO 02005KT 10SM CLR 08/02 A3030 RMK AO2

2001/11/05 10:24
KIJX 051024Z AUTO 00000KT 10SM CLR 03/01 A3034 RMK AO2

2001/11/05 10:26
KIGQ 051026Z AUTO 00000KT 10SM CLR 01/00 A3036 RMK AO2

2001/11/05 10:27
KGBG 051027Z AUTO 00000KT 10SM CLR 02/M01 A3038 RMK AO2

2001/11/05 09:50
KHMS 050950Z 24002KT 1/16SM +FG VV001 06/06 A2996 RMK SLP152
     T00620062 RSNK 08/23016

2001/11/05 10:25
KAAO 051025Z AUTO 24005KT 1/2SM FG VV001 12/12 A3028 RMK AO2

2001/11/05 10:25
KDAW 051025Z AUTO 34010G14KT 8SM -RA SCT022 BKN032 OVC040 05/04
     A2979 RMK AO2 P0003

2001/11/05 10:25
KFPR 051025Z AUTO 05009G21KT 3SM RA BR FEW030 BKN036 OVC085 21/19
     A2975 RMK AO2 PK WND 07026/1013 P0020

2001/11/05 10:25
KMWL 051025Z AUTO 06003KT 1SM BR VV001 12/12 A3026 RMK AO2 $

2001/11/05 10:25
KPAE 051025Z AUTO 29004KT 10SM SCT015 OVC070 07/04 A3013 RMK
     AO2

2001/11/05 10:25
KSLN 051025Z AUTO 00000KT 1/2SM FG SCT001 BKN009 08/08 A3027 RMK
     AO2

2001/11/05 10:26
KACV 051026Z AUTO 01004KT 5SM BR FEW024 BKN030 OVC050 09/09 A3018
     RMK AO2

2001/11/05 10:26
KDTO 051026Z AUTO 33003KT 1/4SM FG SCT001 OVC005 12/12 A3028 RMK
     AO2

2001/11/05 10:26
KPWA 051026Z AUTO 22003KT 1/4SM FG SCT001 OVC035 11/11 A3031 RMK
     AO2 $

2001/11/05 10:24
KDFW 051024Z 36003KT 1/4SM R17C/1000V1200FT FG VV001 14/14 A3026
     RMK AO2 TWR VIS 3 $

2001/11/05 10:25
KFAT 051025Z 00000KT 2SM BR CLR 13/11 A3004 RMK AO2 TWR VIS 2
     1/2

2001/11/05 10:25
KSMP 051025Z AUTO 25010G16KT 210V290 2SM -SN BKN005 BKN011 OVC022
     00/M33 A3002 RMK AO2 SNB05 P0001 TSNO $

2001/11/05 10:26
PASN 051026Z 15016KT 10SM -RA FEW010 SCT025 OVC041 02/00 A2990 RMK
     AO2 PK WND 13028/1010 RAB12 P0000

2001/11/05 09:50
MUCU 050950Z 18019KT 7000 OVC020 23/22 Q1005

2001/11/05 09:50
MUHA 050950Z 35016KT 5000 -RA SCT010 OVC070 XX/XX Q1005

2001/11/05 09:50
MUCU 050950Z 18019KT 7000 OVC020 23/22 Q1005

2001/11/05 09:50
MUHA 050950Z 35016KT 5000 -RA SCT010 OVC070 XX/XX Q1005

2001/11/05 10:20
EKRN 051020Z 29024G34KT 9999 FEW010 SCT030TCU 08/01 Q1010

2001/11/05 10:20
EKVA 051020Z 29013KT 9999 FEW020CB 06/02 Q1015 TEMPO 30015G25KT
     6000 SHRA SCT008 BKN012CB

2001/11/05 10:20
EKKA 051020Z 29017KT 9999 FEW025 08/03 Q1014 TEMPO 29018G28KT

2001/11/05 10:20
LOWG 051020Z VRB01KT 6000 FEW110 SCT270 09/05 Q1020 NOSIG

2001/11/05 10:20
LOWI 051020Z VRB02KT 9999 FEW040 SCT300 07/04 Q1023 NOSIG

2001/11/05 10:20
LOWK 051020Z VRB02KT 1500 R28/1400 BCFG FEW002 BKN004 03/03 Q1021
     BECMG 3500 BR FEW002 SCT005

2001/11/05 10:20
LOWL 051020Z 32009KT 6000 FEW012 SCT021 BKN045 08/05 Q1023
     NOSIG

2001/11/05 10:20
LOWS 051020Z 17002KT 4500 7000SE BR BKN017 06/05 Q1024 NOSIG

2001/11/05 10:20
LOWW 051020Z 31010KT 280V360 9999 SCT028 BKN043 11/05 Q1020
     NOSIG

2001/11/05 10:20
EFHF 051020Z 34008KT 9999 BKN040 02/00 Q0992

2001/11/05 10:20
EFHK 051020Z 35009KT 9999 FEW020 BKN037 02/M00 Q0991 0419//68
     NOSIG

2001/11/05 10:20
EFJY 051020Z 35007KT 320V050 9999 BKN013 M01/M03 Q0993
     3019//95

2001/11/05 10:20
EFKK 051020Z 03005KT 9999 FEW008 M01/M03 Q0997

2001/11/05 10:20
EFKU 051020Z 34007KT 300V050 9999 -SHSN FEW013 BKN018 M00/M02
     Q0993 3319//78

2001/11/05 10:20
EFMA 051020Z 34008KT 9999 -SHRA FEW014 SCT033 BKN042 04/02
     Q0996

2001/11/05 10:20
EFOU 051020Z 36006KT CAVOK M03/M07 Q0997 1219//41

2001/11/05 10:20
EFPO 051020Z 01005KT 320V070 9999 BKN019 01/M03 Q0996

2001/11/05 10:20
EFRO 051020Z 34007KT CAVOK M07/M09 Q0997 03790171

2001/11/05 10:20
EFTP 051020Z 36007KT 310V040 9999 BKN019 01/M02 Q0994 2419//69

2001/11/05 10:20
EFTU 051020Z 34005KT 260V060 9999 FEW025 SCT035 02/01 Q0994
     26190195

2001/11/05 10:20
EFVA 051020Z 02005KT 350V060 9999 FEW030 02/M01 Q0997

2001/11/05 10:20
LGAL 051020Z 03012KT 9999 -RA BKN020 OVC070 11/06 Q1016

2001/11/05 10:20
LGEL 051020Z 27004KT 4000 DZ SCT008 BKN020 OVC060 11/08 Q1013

2001/11/05 10:20
LGMT 051020Z 00000KT 8000 FEW016 SCT025 OVC080 14/13 Q1012

2001/11/05 10:25
EHAM 051025Z 30006KT 9999 FEW032 10/04 Q1024 NOSIG

2001/11/05 10:25
EHBK 051025Z VRB03KT CAVOK 11/05 Q1025 NOSIG

2001/11/05 10:25
EHDL 051025Z 26005KT 9999 FEW024 10/04 Q1024 BLU

2001/11/05 10:25
EHEH 051025Z 26004KT 9999 SCT050 10/05 Q1025 BLU BLU

2001/11/05 10:25
EHGG 051025Z 34007KT 320V020 9999 FEW020 09/05 Q1023 NOSIG

2001/11/05 10:25
EHGR 051025Z 25005KT 9999 FEW032 11/05 Q1025 BLU BLU

2001/11/05 10:25
EHKD 051025Z 31006KT 9999 FEW023 SCT036 10/04 Q1024 BLU BLU TEMPO
     WHT

2001/11/05 10:25
EHLW 051025Z 28006KT 9999 FEW026 09/04 Q1023 BLU BLU

2001/11/05 10:25
EHRD 051025Z VRB03KT 9999 VCSH FEW025CB SCT050 11/06 Q1025 TEMPO
     33012G25KT 7000 -SHRA

2001/11/05 10:25
EHSB 051025Z 25006KT 9999 FEW033 SCT045 10/05 Q1024 BLU BLU

2001/11/05 10:25
EHTW 051025Z 26005KT 9999 FEW050 10/04 Q1024 BLU

2001/11/05 10:25
EHVB 051025Z 29009KT 9999 FEW030 11/05 Q1024 BLU BLU

2001/11/05 10:25
EHVK 051025Z /////KT 9999 FEW020 SCT050 ///// Q//// BLU

2001/11/05 10:25
EHVL 051025Z 28020KT 9999 -SHRA FEW029CB 09/04 Q1023 BLU

2001/11/05 10:25
EHWO 051025Z 33004KT 9999 FEW025 SCT050 11/05 Q1025 BLU BLU

2001/11/05 10:00
BIKF 35003KT 9999 SCT013 BKN017 01/00 Q1008

2001/11/05 10:00
SMJP 051000Z 15002KT 9999 SCT007 BKN015 25/24 Q1009

2001/11/05 10:20
ESDB 051020Z 31021KT 9999 SCT043 07/01 Q1010

2001/11/05 10:20
ESDF 051020Z 29009KT 9999 FEW016 05/01 Q1007

2001/11/05 10:20
ESGP 051020Z 32009KT CAVOK 07/00 Q1009

2001/11/05 10:20
ESKN 051020Z 30009G19KT 270V350 9999 FEW037 SCT090 01/M01
     Q1002

2001/11/05 10:20
ESMK 051020Z 27014KT 9999 FEW007 SCT012CB 03/02 Q1009 RERASN

2001/11/05 10:20
ESMX 051020Z 27010KT CAVOK 06/M00 Q1006

2001/11/05 10:20
ESNN 051020Z 32007KT CAVOK 01/M00 Q1000 1615//64

2001/11/05 10:20
ESNO 051020Z 33007KT CAVOK M01/M05 Q0999

2001/11/05 10:20
ESNQ 051020Z 36003KT 9999 FEW030 SCT060 M07/M10 Q0997

2001/11/05 10:20
ESNS 051020Z 34004KT 9999 SCT020 SCT060 M02/M05 Q0998

2001/11/05 10:20
ESOK 051020Z 29008KT 270V330 CAVOK 03/M02 Q1005

2001/11/05 10:20
ESPC 051020Z 30015KT 9999 BKN016 01/M01 Q0998

2001/11/05 10:20
LSGG 051020Z 26003KT 1000 R05/P1500N R23/P1500N BR BKN003 BKN006
     06/06 Q1022 BECMG 1500 BKN004

2001/11/05 10:20
LSZA 051020Z 00000KT 9999 SCT090 10/08 Q1017 NOSIG

2001/11/05 10:20
LSZB 051020Z 32004KT 5000 FEW008 BKN046 07/05 Q1022 NOSIG

2001/11/05 10:20
LSZH 051020Z 33001KT 2500 BR BKN042 06/05 Q1024 BECMG 3000

2001/11/05 10:00
CYGT 051000Z 00000KT 15SM SKC M23/M25 A3009 RMK OB TAKEN +13
     -22.7/-24.6/0/49 SNW CVR/MEDIUM PACK SLP199

2001/11/05 10:20
EFHA 051020Z 36008KT 320V060 9999 SCT018 M00/M04 Q0993

2001/11/05 10:20
EFJO 051020Z 36007KT 320V030 9999 SCT010 BKN015 00/M01 Q0991
     10910162

2001/11/05 10:20
EFKA 051020Z 34006KT 310V010 9999 BKN008 BKN015 M01/M03 Q0996

2001/11/05 10:20
EFLP 051020Z 36007KT 330V040 9999 BKN030 02/M03 Q0990

2001/11/05 10:20
EFMI 051020Z AUTO 36005KT 310V060 9999 OVC034 00/M02 Q0992

2001/11/05 10:20
EFSA 051020Z 35006KT 310V020 9999 FEW023 BKN030 01/M02 Q0991

2001/11/05 10:20
EFUT 051020Z 35006KT 9999 BKN029 01/M02 Q0991

2001/11/05 10:30
EPWR 051030Z 29007G13MPS 9999 SCT026 09/04 Q1016 751.9

2001/11/05 10:20
ESGR 051020Z 33009KT 9999 BKN032 04/M00 Q1005

2001/11/05 10:20
ESGT 051020Z 30011KT CAVOK 06/M03 Q1008

2001/11/05 10:20
ESMQ 051020Z 29011KT CAVOK 06/M01 Q1005

2001/11/05 10:20
ESMT 051020Z 32005KT 300V360 9999 SCT022 07/02 Q1009

2001/11/05 10:20
ESNG 051020Z 31002KT 9999 BKN040 M04/M05 Q0998

2001/11/05 10:20
ESOE 051020Z 25006KT CAVOK 02/M01 Q1003 19190095

2001/11/05 10:20
ESSL 051020Z AUTO 31015KT //// SKC 04/M01 Q1003

2001/11/05 10:20
ESTL 051020Z 24004KT 9999 VCSHRA FEW038 SCT055 03/01 Q1010

2001/11/05 10:20
EYPA 051020Z 30028G39KT 9999-SHRA OVC016CB 05/04 Q0999 TEMPO
     30032G45KT 1500 SHRAGR 192///60

2001/11/05 10:06
KBFU 051006Z AUTO 27005G08KT 07/M06 RMK AO1 RH 40

2001/11/05 10:08
KBRX 051008Z AUTO 23012G14KT 11/M04 RMK AO1 RH 36

2001/11/05 10:07
KCMS 051007Z AUTO 36001G03KT M01/M08 RMK AO1 RH 61

2001/11/05 10:05
KDHS 051005Z AUTO 09002G03KT 01/M07 RMK AO1 RH 59 PCPN*N

2001/11/05 10:07
KDRC 051007Z AUTO 23005G09KT 13/M02 RMK AO1 RH 35

2001/11/05 10:06
KFIR 051006Z AUTO 27004G05KT 06/M04 RMK AO1 RH 47

2001/11/05 10:03
KIDV 051003Z AUTO 18007G08KT 07/M11 RMK AO1 RH 27

2001/11/05 10:16
KIER 051016Z AUTO 35003KT 10SM CLR 11/03 A3023 RMK AO1

2001/11/05 10:04
KPIN 051004Z AUTO 32004G05KT 11/M08 RMK AO1 RH 26

2001/11/05 10:03
KPUM 051003Z AUTO 27007G09KT 08/M06 RMK AO1 RH 35

2001/11/05 10:07
KSIB 051007Z AUTO 18008G09KT 12/M04 RMK AO1 RH 33

2001/11/05 10:02
KTMH 051002Z AUTO 23012G13KT 07/M07 RMK AO1 RH 38

2001/11/05 10:04
KVDW 051004Z AUTO 23010G10KT 06/M07 RMK AO1 RH 42

2001/11/05 10:05
KWTR 051005Z AUTO 27013G15KT 06/M04 RMK AO1 RH 50

2001/11/05 10:00
BGKK 0050950 30010KT 9999 BKN120 M06/M10 Q1016

2001/11/05 09:55
TXKF 050955Z 21003KT 9SM FEW030 SCT300 19/17 A2998 RMK SLP153

2001/11/05 10:25
CYFB 051025Z 32013KT 8SM -SN OVC013 RMK SC8

2001/11/05 10:26
CYMH 051026Z AUTO 08004KT 9SM OVC018 04/03 A3009

2001/11/05 10:21
RJNK 051021Z 18007KT 9999 FEW030 SCT040 BKN060 17/12 Q1013 RMK
1CU030 3SC040 7SC060 A2992

2001/11/05 10:13
RJNY 051013Z VRB01KT 4500 SHRA BR FEW010 SCT015 BKN025 FEW025TCU
15/12 Q1018 RMK 1CU010 3CU015 6CU025 2TCU025 A3008 TCU W

2001/11/05 10:22
RKTU 1022Z 25002KT 9999 BKN040 08/06 A3005 RMK CIG040

2001/11/05 10:26
KOLY 051026Z AUTO 03004KT 10SM CLR 07/M05 A3032 RMK AO2

2001/11/05 10:27
KPNT 051027Z AUTO 00000KT 10SM CLR 01/M01 A3037 RMK AO2

2001/11/05 10:25
KAIO 051025Z AUTO 36002KT 10SM CLR 00/M02 A3028 RMK AO1

2001/11/05 10:25
KCAV 051025Z AUTO 15009KT CLR 08/04 A3027 RMK AO1

2001/11/05 10:25
KCNC 051025Z AUTO 15005KT 10SM CLR 08/03 A3031 RMK AO1

2001/11/05 10:27
KMWA 051027Z AUTO 00000KT 10SM CLR 06/05 A3029 RMK AO2

2001/11/05 10:25
KORC 051025Z AUTO 17007KT 10SM CLR 08/00 A3020 RMK AO1

2001/11/05 10:25
KSHL 051025Z AUTO 17004KT 10SM CLR 07/02 A3021 RMK AO1

2001/11/05 10:25
KOMH 051025Z AUTO 02007KT 10SM CLR 09/M02 A3015 RMK AO1

2001/11/05 10:27
KSAR 051027Z AUTO 04003KT CLR 08/03 A3031 RMK AO2

2001/11/05 10:28
KTIP 051028Z AUTO 00000KT 10SM CLR 03/M01 A3036 RMK AO1

2001/11/05 10:25
KADU 051025Z AUTO 00000KT 10SM CLR M01/M02 A3027 RMK AO1

2001/11/05 10:25
KCCY 051025Z AUTO 15006KT 10SM CLR 04/M03 A3030 RMK AO1

2001/11/05 10:25
KDEH 051025Z AUTO 17004KT 10SM CLR 06/M03 A3033 RMK AO1

2001/11/05 10:25
KEBS 051025Z AUTO 15008KT 10SM CLR 05/00 A3028 RMK AO1

2001/11/05 10:25
KFSW 051025Z AUTO 15007KT 10SM CLR 09/01 A3033 RMK AO1

2001/11/05 10:25
KIKV 051025Z AUTO 00000KT 10SM CLR 02/M01 A3030 RMK AO1

2001/11/05 10:25
KLRJ 051025Z AUTO 20003KT 10SM CLR 08/03 A3019 RMK AO1

2001/11/05 10:25
KOXV 051025Z AUTO 15005KT 10SM CLR 07/02 A3030 RMK AO1

2001/11/05 10:25
KSDA 051025Z AUTO 00000KT 10SM CLR 04/02 A3028 RMK AO1

2001/11/05 10:28
KFEP 051028Z AUTO 00000KT 10SM CLR M02/M04 A3035 RMK AO2

2001/11/05 10:28
KVYS 051028Z AUTO 00000KT 10SM CLR 02/M01 A3035 RMK AO1

2001/11/05 10:25
KBNW 051025Z AUTO 13003KT 10SM CLR 05/02 A3029 RMK AO1

2001/11/05 10:25
KCIN 051025Z AUTO 16003KT 10SM CLR 08/03 A3027 RMK AO1

2001/11/05 10:25
KDNS 051025Z AUTO 36002KT 10SM CLR 08/02 A3028 RMK AO1

2001/11/05 10:25
KEOK 051025Z AUTO 12003KT 10SM CLR 07/00 A3034 RMK AO1

2001/11/05 10:25
KICL 051025Z AUTO 00000KT 10SM CLR 03/02 A3028 RMK AO1

2001/11/05 10:25
KMUT 051025Z AUTO 00000KT 10SM CLR 03/00 A3034 RMK AO1

2001/11/05 10:25
KRDK 051025Z AUTO 36001KT 10SM CLR 02/M01 A3026 RMK AO1

2001/11/05 10:25
KSLB 051025Z AUTO 00000KT 10SM CLR 07/01 A3025 RMK AO1

2001/11/05 10:26
KAIA 051026Z AUTO 00000KT 1 1/4SM BR CLR M03/M04 A3013 RMK AO2 VIS
     1/2V2 1/2 $

2001/11/05 10:27
KHRI 051027Z AUTO 00000KT 1 3/4SM BR FEW120 05/05 A3001 RMK AO2
     $

2001/11/05 10:27
KMWL 051027Z AUTO 00000KT 3/4SM BR SCT001 SCT006 12/12 A3026 RMK
     AO2 $

2001/11/05 10:26
KMCI 051026Z 00000KT 1/2SM R19R/1600V2200FT FG BKN001 OVC006 08/08
     A3030 RMK AO2

2001/11/05 10:27
KEMP 051027Z AUTO 32003KT 1SM BR CLR 08/07 A3029 RMK AO2 $

2001/11/05 10:27
PABE 051027Z 00000KT 1 1/2SM BR SCT001 BKN009 M17/M18 A3010 RMK
     AO2

2001/11/05 10:27
KRNM 051027Z AUTO 09004KT 1/4SM FG VV002 11/11 A2997 RMK AO2
     TSNO

2001/11/05 10:28
KBTV 051028Z 29009KT 10SM -SNRA SCT022 OVC028 04/01 A2991 RMK AO2
     RAB18SNB28 P0000 $

2001/11/05 10:26
KTIK 051026Z 19002KT 1/2SM R35/1000FT FG FEW001 SCT003 12/12
     A3029

2001/11/05 10:28
KLOT 051028Z AUTO 00000KT 10SM CLR 01/M01 A3035 RMK AO1

2001/11/05 10:28
KFWC 051028Z AUTO 01005KT 10SM CLR 06/M01 A3031 RMK AO2

2001/11/05 10:27
KPRG 051027Z AUTO 07004KT 10SM CLR 02/M01 A3034 RMK AO1

2001/11/05 10:25
KAXA 051025Z AUTO 17010KT 10SM CLR 06/02 A3026 RMK AO1

2001/11/05 10:25
KCSQ 051025Z AUTO 15006KT 10SM CLR 09/02 A3027 RMK AO1

2001/11/05 10:25
KHNR 051025Z AUTO 00000KT 10SM CLR 02/M01 A3029 RMK AO1

2001/11/05 10:25
KMXO 051025Z AUTO 00000KT 10SM CLR M02/M05 A3035 RMK AO1

2001/11/05 10:25
KOLZ 051025Z AUTO 15006KT 10SM CLR 03/M02 A3034 RMK AO1

2001/11/05 10:28
KSLO 051028Z AUTO 05003KT 10SM CLR 07/M02 A3032 RMK AO2

2001/11/05 10:28
KDKB 051028Z AUTO 00000KT 10SM CLR 01/M02 A3035 RMK AO2

2001/11/05 10:29
KJOT 051029Z AUTO 00000KT 3/4SM BR VV005 00/M01 A3035 RMK AO2

2001/11/05 10:25
KAWG 051025Z AUTO 13004KT 10SM CLR 03/00 A3033 RMK AO1

2001/11/05 10:25
KCBF 051025Z AUTO 14006KT 10SM CLR 09/03 A3026 RMK AO1

2001/11/05 10:25
KFFL 051025Z AUTO 13004KT 10SM CLR 04/00 A3033 RMK AO1

2001/11/05 10:29
KCEC 051029Z AUTO 00000KT 3SM BR SCT004 OVC019 11/11 A3019 RMK AO2
     RAE11 P0001

2001/11/05 10:29
KMTH 051029Z AUTO 01017G22KT 9SM BKN018 BKN090 22/19 A2962 RMK AO2
     PK WND 04030/0957 RAE07 P0000

2001/11/05 10:29
KEMP 051029Z AUTO 32003KT 2SM BR CLR 07/07 A3029 RMK AO2 $

2001/11/05 10:29
KSUS 051029Z 00000KT 3/4SM BR BKN001 04/04 A3032 RMK AO2

2001/11/05 10:29
KLAX 051029Z 00000KT 1SM R24R/P6000FT BR OVC003 16/14 A2997 RMK
     AO2

2001/11/05 10:27
KSMP 051027Z AUTO 25009G16KT 210V290 1 1/4SM -SN FEW002 BKN005
     OVC022 00/M33 A3002 RMK AO2 SNB05 P0001 TSNO $

2001/11/05 10:00
FCBB 051000Z 21002KT 9999 SCT016 SCT026 BKN133 28/23 Q1015
     NOSIG

2001/11/05 10:00
FCPP 051000Z 18004KT 9999 -DZ FEW010 SCT020 OVC033 27/22 Q1013
     TEMPO 4000 DZ

2001/11/05 10:00
FEFF 051000Z 21002KT 9999 R35/1400V SCT016 FEW040CB BKN150 27///
     Q1013 NOSIG

2001/11/05 10:00
FGSL 051000Z VRB03KT 9999 BKN015 FEW020CB BKN150 29/25 Q1013
     NOSIG

2001/11/05 10:00
FKKD 051000Z 27002KT 4000 -TSRA SCT013 SCT016CB BKN120 23/23 Q1012
     BECMG 5000

2001/11/05 10:00
FKKR 051000Z 30004KT CAVOK 33/14 Q1012 NOSIG

2001/11/05 10:00
FOOL 051000Z 16008KT 120V190 9999 R16/1400VP2000 SCT010TCU
     FEW026CB BKN030 27/// Q1013 NOSIG

2001/11/05 10:00
FZAA 051000Z 26004KT 9999 SCT020 BKN120 28/21 Q1014 NOSIG

2001/11/05 10:00
FNLU 051000Z 34004KT 9999 SCT020 BKN100 29/21 Q1013 NOSIG

2001/11/05 10:00
HCMH 051000Z 04016KT 9999 FEW035 24/10 Q1020

2001/11/05 10:00
HCMV 051000Z 03016KT 9999 SCT040 30/11 Q1020

2001/11/05 10:00
HKMO 051000Z 20008KT 9999 SCT025TCU 28/24 Q1013

2001/11/05 10:20
LTAC 051020Z 16012KT 9999 FEW040 SCT100 BKN200 18/11 Q1016 NOSIG
     RMK RWY21 17014KT

2001/11/05 10:20
LTAF 051020Z 14004KT 080V210 CAVOK 26/06 Q1016 NOSIG RMK RWY23
     18006KT 150V230

2001/11/05 10:20
LTAI 051020Z 06012G23KT 5000 SHRA FEW020CB SCT030 BKN090 15/15
     Q1013 BECMG 3000 TSRA

2001/11/05 10:20
LTBA 051020Z 05015KT 9999 SCT030 BKN100 14/12 Q1014 NOSIG RMK
     RWY18 04014KT

2001/11/05 10:20
LTBJ 051020Z 15006KT 9999 SCT030 BKN100 15/14 Q1012 NOSIG

2001/11/05 10:20
LTBS 051020Z 13008KT 9999 SCT025 20/13 Q1012 NOSIG

2001/11/05 10:20
LTCG 051020Z 06007KT CAVOK 17/14 Q1017 NOSIG RMK RWY29 09006KT

2001/11/05 10:20
LTFE 051020Z VRB02KT 9999 SCT030 BKN080 15/14 Q1011 NOSIG RMK
     RWY11 10004KT

2001/11/05 10:20
EBAW 051020Z 26004KT 9999 FEW030 12/04 Q1026

2001/11/05 10:20
EBBR 051020Z 29004KT 250V010 9999 FEW030 11/03 Q1026 NOSIG

2001/11/05 10:20
EBCI 051020Z VRB01KT 9999 FEW020 10/05 Q1026

2001/11/05 10:20
EBLG 051020Z 31002KT 9999 FEW025 09/02 Q1025 NOSIG

2001/11/05 10:20
EBOS 051020Z 36006KT 9999 FEW030 12/04 Q1026

2001/11/05 10:20
ELLX 051020Z 36005KT 8000 SCT016 10/05 Q1024 NOSIG

2001/11/05 10:30
ZMUB 051030Z VRB01MPS CAVOK M15/M17 Q1024 NOSIG

2001/11/05 10:20
EDDF 051020Z 30005KT 9999 FEW025 SCT060 10/07 Q1024 NOSIG

2001/11/05 10:20
EDDH 051020Z 29010KT 9999 FEW025TCU 06/03 Q1019 NOSIG

2001/11/05 10:20
EDDK 051020Z 31007KT 9999 FEW025 10/03 Q1024 NOSIG

2001/11/05 10:20
EDDL 051020Z 29005KT 260V330 9999 FEW028 10/04 Q1024 NOSIG

2001/11/05 10:20
EDDM 051020Z 27006KT 9999 FEW040 SCT120 09/04 Q1023 NOSIG

2001/11/05 10:20
EDDN 051020Z 28009KT 9999 BKN020 07/04 Q1023 NOSIG

2001/11/05 10:20
EDDS 051020Z 30004KT 9999 FEW025 BKN050 BKN120 09/05 Q1023
     NOSIG

2001/11/05 10:20
EDDW 051020Z 29013KT 9999 FEW030 BKN050 09/03 Q1021 NOSIG

2001/11/05 10:20
EDHL 051020Z 28014KT 9999 FEW030 08/04 Q1018

2001/11/05 10:20
EDMA 051020Z 27004KT 220V320 8000 SCT045 SCT230 10/05 Q1023

2001/11/05 10:20
EDTD 051020Z VRB03KT 9000 SCT017 BKN035 09/06 Q1023

2001/11/05 10:20
EDBM 051020Z 29018KT 9999 FEW035 09/02 Q1020

2001/11/05 10:20
EDBM 051020Z 29018KT 9999 FEW035 09/02 Q1020

2001/11/05 10:20
EDDB 051020Z 28016KT 9999 SCT029 09/03 Q1018 NOSIG

2001/11/05 10:20
EDDC 051020Z 28011G21KT 9999 BKN024TCU 08/03 Q1019 NOSIG

2001/11/05 10:20
EDDG 051020Z 26006KT CAVOK 10/04 Q1023 NOSIG

2001/11/05 10:20
EDDI 051020Z 30015KT 9999 SCT027 09/03 Q1018 NOSIG

2001/11/05 10:20
EDDP 051020Z 30019KT 9999 SCT030 09/02 Q1020 NOSIG

2001/11/05 10:20
EDDR 051020Z 28003KT 2500 VCFG FEW003 SCT023 BKN060 07/07 Q1025
     BECMG 3000

2001/11/05 10:20
EDDT 051020Z 29014KT 9999 SCT028 09/02 Q1018 NOSIG

2001/11/05 10:20
EDDV 051020Z 30012KT 9999 FEW020 09/04 Q1021 NOSIG

2001/11/05 10:20
EDDW 051020Z 29013KT 9999 FEW030 BKN050 09/03 Q1021 NOSIG

2001/11/05 10:20
EDNY 051020Z 01003KT 3500 BR SCT005 BKN045 08/07 Q1023

2001/11/05 10:20
EFIV 051020Z 22003KT 9999 FEW049 M08/M10 Q0997 0441//84

2001/11/05 10:20
EFKE 051020Z 35007KT CAVOK M03/M07 Q0998 18390063

2001/11/05 10:20
ENBO 051020Z 09006KT 9999 VCSH FEW015TCU SCT030 BKN200 M01/M06
     Q1001 NOSIG

2001/11/05 10:20
ENBR 051020Z VRB03KT 9999 FEW001 SCT005 BKN035 01/01 Q1011 TEMPO
     3000 SHRASNGS VV010

2001/11/05 10:20
ENCN 051020Z 28007KT 230V350 9999 FEW030 06/M04 Q1011

2001/11/05 10:20
ENGM 051020Z 29006KT 220V340 CAVOK 04/M08 Q1005 NOSIG

2001/11/05 10:20
ENHD 051020Z 35008KT 8000E -SHRASN FEW007 SCT015CB 03/02 Q1013

2001/11/05 10:20
ENKR 051020Z 28011KT 9999 FEW027 M05/M09 Q0995

2001/11/05 10:20
ENTC 051020Z 03007KT 360V070KT 9999 FEW020CB FEW030 M03/M06 Q1001
     TEMPO 1500 SHSN VV010

2001/11/05 10:20
ENVA 051020Z 24011KT 200V260 9999 FEW018 BKN028 03/M01 Q1001 TEMPO
     3000 SHSNRAGS VV010

2001/11/05 10:20
ENZV 051020Z 18004KT 9999 VCSH FEW006 FEW015CB SCT025 01/00 Q1013
     TEMPO 35020G30KT 5000 SHRASNGS BKN012CB

2001/11/05 10:20
LGAD 051020Z 01005KT 9999 FEW010 SCT025 BKN080 16/08 Q1012

2001/11/05 10:20
LGAV 051020Z 31012KT 9000 SCT006 FEW015CB SCT018TCU BKN035 12/09
     Q1011 NOSIG

2001/11/05 10:20
LGIR 051020Z 17013KT 9999 FEW020 SCT070 20/09 Q1009 NOSIG

2001/11/05 10:20
LGKL 051020Z 35012KT 9999 SCT025 SCT040 BKN090 17/07 Q1010

2001/11/05 10:20
LGKO 051020Z 15005KT 9999 FEW020TCU BKN030 18/12 Q1011

2001/11/05 10:20
LGKR 051020Z 00000KT 9999 FEW030 19/09 Q1013 NOSIG

2001/11/05 10:20
LGLM 051020Z 03018G28KT 8000 SCT012 OVC020 11/09 Q1014

2001/11/05 10:20
LGRP 051020Z 19006KT 9999 SCT018TCU 20/11 Q1011 NOSIG NOSIG

2001/11/05 10:20
LGSA 051020Z 03004KT 9999 FEW020 SCT030 BKN070 16/11 Q1009

2001/11/05 10:20
LGTS 051020Z 35008KT 9999 BKN030 OVC080 13/03 Q1018 NOSIG

2001/11/05 10:00
FMCZ 051000Z 12004KT 060V220 9999 SCT023TCU 30/22 Q1014

2001/11/05 10:20
LIBD 051020Z 35005KT CAVOK 17/09 Q1016

2001/11/05 10:20
LIBR 051020Z 30016KT 9999 FEW025 18/13 Q1015 NOSIG

2001/11/05 10:20
LICC 051020Z VRB03KT CAVOK 20/06 Q1017

2001/11/05 10:20
LICJ 051020Z VRB03KT 9999 SCT025 20/12 Q1019

2001/11/05 09:50
LIPB 050950Z VRB01KT CAVOK 09/02 Q1018 RMK SCT320 SCT MON LIB

2001/11/05 10:20
LIPE 051020Z VRB03KT 6000 FEW200 13/06 Q1018

2001/11/05 10:20
LIPH 051020Z 00000KT CAVOK 15/05 Q1017

2001/11/05 10:20
LIPQ 051020Z VRB03KT CAVOK 15/01 Q1017

2001/11/05 10:20
LIPR 051020Z /////KT CAVOK 14/09 Q1017

2001/11/05 10:20
LIPX 051020Z 21003KT 7000 SKC 11/08 Q1017

2001/11/05 10:20
LIPZ 051020Z VRB02KT CAVOK 13/06 Q1018

2001/11/05 10:20
LIPX 051020Z 21003KT 7000 SKC 11/08 Q1017

2001/11/05 10:20
ENAL 051020Z 28021G32KT 9999 VCSH FEW010CB BKN025 05/00 Q1005

2001/11/05 10:20
ENAN 051020Z 34007KT 1000 SHSN VV006 M02/M04 Q1002 TEMPO 9999
     FEW012CB SCT025

2001/11/05 10:20
ENAT 051020Z 20007KT 3000 SHSN VV012 M05/M07 Q1000

2001/11/05 10:20
ENBV 051020Z 32014KT 9999 FEW012 SCT020 BKN040 M03/M07 Q0996

2001/11/05 10:20
ENDU 051020Z VRB01KT 9999 FEW010 M05/M07 Q1000 NOSIG

2001/11/05 10:20
ENFL 051020Z 34008KT 9999 VCSH FEW015 FEW020CB SCT030 02/01
     Q1010

2001/11/05 10:20
ENKB 051020Z 25019G32KT 9999 -SHRA FEW010 SCT015CB BKN025 04/02
     Q1001

2001/11/05 10:20
ENML 051020Z 21020KT 9999 SCT008 BKN018 03/02 Q1004

2001/11/05 10:20
ENNA 051020Z 34008KT 9999 FEW015 BKN035 M04/M07 Q0999 RESH

2001/11/05 10:20
ENOL 051020Z 24021KT 9999 FEW008 BKN012CB 04/03 Q1000 TEMPO 2000
     SHRAGS VV010

2001/11/05 10:20
ENRO 051020Z 25008KT CAVOK M02/M08 Q1000

2001/11/05 10:20
ENRY 051020Z 30008KT 260V360 9999 FEW025 06/M06 Q1007 NOSIG

2001/11/05 10:20
ENTO 051020Z 26005KT CAVOK 05/M06 Q1008

2001/11/05 10:20
ENVD 051020Z 33018KT 9999 FEW012 M07/M08 Q0995

2001/11/05 10:20
LSGS 051020Z 07003KT 8000 SKC 07/02 Q1021

2001/11/05 10:20
EGAA 051020Z 22014KT 9999 -RA SCT009 BKN017 OVC080 09/07 Q1021
     NOSIG

2001/11/05 10:20
EGBB 051020Z 25006KT CAVOK 09/05 Q1027

2001/11/05 10:20
EGCC 051020Z 22009KT 9999 FEW032 SCT100 BKN220 08/04 Q1025
     NOSIG

2001/11/05 10:20
EGFF 051020Z 32005KT 9999 FEW040 09/05 Q1028

2001/11/05 10:20
EGGD 051020Z 24004KT CAVOK 09/05 Q1028

2001/11/05 10:20
EGGW 051020Z 28005KT 8000 SKC 07/03 Q1027

2001/11/05 10:20
EGHD 051020Z 30004KT 240V340 9999 FEW030 10/07 Q1028

2001/11/05 10:20
EGHH 051020Z 00000KT CAVOK 09/06 Q1028

2001/11/05 10:20
EGHI 051020Z 00000KT CAVOK 09/06 Q1028

2001/11/05 10:20
EGJB 051020Z 02005KT 350V050 9999 FEW022 13/07 Q1028

2001/11/05 10:20
EGKB 051020Z 33004KT CAVOK 03/01 Q1027

2001/11/05 10:20
EGKK 051020Z VRB02KT CAVOK 07/04 Q1027

2001/11/05 10:20
EGLF 051020Z 26003KT CAVOK 07/03 Q1028

2001/11/05 10:20
EGLL 051020Z 29002KT CAVOK 08/04 Q1027 NOSIG

2001/11/05 10:20
EGNJ 051020Z 22010KT 9999 FEW050 07/02 Q1025

2001/11/05 10:20
EGNM 051020Z 22010KT 9999 FEW020 BKN120 06/03 Q1024

2001/11/05 10:20
EGNS 051020Z 24022KT 7000 -RA FEW008 BKN012 OVC020 09/07 Q1023
     NOSIG

2001/11/05 10:20
EGNT 051020Z 21001KT 6000 -DZ FEW015 BKN035 04/02 Q1022

2001/11/05 10:20
EGNV 051020Z 20008KT 9999 -DZ FEW030 SCT045 06/03 Q1023

2001/11/05 10:20
EGNX 051020Z 23007KT 9999 BKN047 08/06 Q1026

2001/11/05 10:20
EGPA 051020Z 18006KT 9999 FEW020 BKN040 05/00 Q1014

2001/11/05 10:20
EGPB 051020Z 00000KT 9999 FEW045 04/M01 Q1014

2001/11/05 10:20
EGPC 051020Z 15012KT 9999 -RA FEW030 BKN037 05/M00 Q1014

2001/11/05 10:20
EGPD 051020Z 15004KT 8000 -RA SCT015 BKN025 04/02 Q1017 TEMPO 7000
     BKN010

2001/11/05 10:20
EGPF 051020Z 21012KT 6000 DZ FEW008 BKN009 BKN014 08/08 Q1017

2001/11/05 10:20
EGPH 051020Z 21010KT 9999 FEW020 SCT034 BKN055 07/04 Q1018
     REDZ

2001/11/05 10:20
EGPK 051020Z 22016KT 5000 -RA FEW010 SCT020 BKN026 09/07 Q1019

2001/11/05 10:20
EGSH 051020Z 26007KT CAVOK 08/04 Q1026

2001/11/05 10:20
EGTE 051020Z VRB01KT 9999 FEW035 10/07 Q1029

2001/11/05 10:20
EGAC 051020Z 21012KT 9999 FEW010 SCT015 BKN030 08/07 Q1021

2001/11/05 10:20
EGAE 051020Z 25018KT 9999 SHRA FEW024 SCT039 BKN060 10/08
     Q1020

2001/11/05 10:20
EGBE 051020Z 22004KT 170V250 CAVOK 07/05 Q1027

2001/11/05 10:20
EGGW 051020Z 28005KT 8000 SKC 07/03 Q1027

2001/11/05 10:20
EGJA 051020Z 02006KT 9999 SCT040 11/// Q1028

2001/11/05 10:20
EGLC 051020Z VRB03KT CAVOK 08/02 Q1027

2001/11/05 10:20
EGNT 051020Z 21001KT 6000 -DZ FEW015 BKN035 04/02 Q1022

2001/11/05 10:20
EGPC 051020Z 15012KT 9999 -RA FEW030 BKN037 05/M00 Q1014

2001/11/05 10:20
EGPE 051020Z 18003KT 9999 RA FEW004 SCT028 BKN040 04/03 Q1014

2001/11/05 10:20
EGPF 051020Z 21012KT 6000 DZ FEW008 BKN009 BKN014 08/08 Q1017

2001/11/05 10:20
EGPL 051020Z 26023G35KT 7000 -RA FEW008 SCT011 BKN016 11/10
     Q1011

2001/11/05 10:20
EGPM 051020Z 27003KT 9999 SCT018 BKN220 03/M01 Q1013

2001/11/05 10:20
EGPN 051020Z 19006KT 9999 -RA FEW008 SCT012 BKN025 06/03 Q1018

2001/11/05 10:20
EGSC 051020Z 25004KT 210V280 CAVOK 07/04 Q1027

2001/11/05 10:20
EGSS 051020Z VRB03KT CAVOK 07/03 Q1027

2001/11/05 10:20
EDDS 051020Z 30004KT 9999 FEW025 BKN050 BKN120 09/05 Q1023
     NOSIG

2001/11/05 10:20
EDMA 051020Z 27004KT 220V320 8000 SCT045 SCT230 10/05 Q1023

2001/11/05 10:20
EGPK 051020Z 22016KT 5000 -RA FEW010 SCT020 BKN026 09/07 Q1019

2001/11/05 10:20
LTAC 051020Z 16012KT 9999 FEW040 SCT100 BKN200 18/11 Q1016 NOSIG
     RMK RWY21 17014KT

2001/11/05 10:24
CWAC 051024Z AUTO 04/03 RMK AO1 SLP194 T00360030 51004

2001/11/05 10:23
CWWL 051023Z AUTO 18017KT 07/ RMK AO1 SLP127 T0068 55000

2001/11/05 10:00
CYYY 051000Z 08003KT 30SM OVC040 03/02 A2999 RMK SC8 SLP157

2001/11/05 10:20
EDDE 051020Z 32012KT 9999 BKN026 07/03 Q1022 NOSIG

2001/11/05 10:20
EDFH 051020Z 33005KT 9999 SCT008 SCT040 07/05 Q1024

2001/11/05 10:20
EDHK 051020Z 27013KT 9999 FEW020 08/02 Q1018 BLU+BLU+TEMPO BLU

2001/11/05 10:20
EDTL 051020Z 01006KT 7000 NSC 09/08 Q1024

2001/11/05 10:20
EFET 051020Z AUTO 19003KT CAVOK M11/M12 Q0998

2001/11/05 10:20
EFKI 051020Z 36005KT 310V040 CAVOK M03/M07 Q0995

2001/11/05 10:20
EFKS 051020Z 33006KT 280V020 9999 FEW004 M06/M08 Q0994

2001/11/05 10:20
EFKT 051020Z 34007KT CAVOK M07/M10 Q0998

2001/11/05 10:20
EGMH 051020Z 30007KT 9999 FEW017 08/04 Q1027

2001/11/05 10:20
EGSY 051020Z 25008KT 220V290 CAVOK 09/04 Q1025

2001/11/05 10:20
EGTG 051020Z 25006KT CAVOK 09/06 Q1028

2001/11/05 10:20
ENHK 051020Z 36006KT 320V050 9999 SCT030 M03/M11 Q1000

2001/11/05 10:20
ETGG 051020Z 29022KT 9999 FEW020TCU 08/02 Q1017

2001/11/05 10:20
ETGY 051020Z 28003KT 9999 FEW025 11/04 Q1024

2001/11/05 10:20
ETGZ 051020Z 02004KT 9999 SCT020 BKN030 06/02 Q////

2001/11/05 10:20
ETHA 051020Z 07003KT 7000 SCT010 OVC023 06/04 Q1024 WHT WHT BECMG
     BLU

2001/11/05 10:20
ETHB 051020Z 30009KT 9999 FEW040 10/03 Q1022 BLU+BLU+

2001/11/05 10:20
ETHC 051020Z 29006KT 9999 FEW020 09/03 Q1022 BLU+BLU+TEMPO WHT

2001/11/05 10:20
ETHE 051020Z 24007KT 9999 FEW020 10/04 Q1023 BLU+BLU+

2001/11/05 10:20
ETHF 051020Z 32007KT 9999 SCT030 09/02 Q1024 BLACKBLU+BLU+TEMPO
     BLU

2001/11/05 10:20
ETHI 051020Z 29007KT 9999 FEW025CB 08/03 Q1019 RERA BLU+BLU+TEMPO
     WHT

2001/11/05 10:20
ETHL 051020Z VRB02KT 9999 FEW020 SCT240 11/06 Q1024 BLU+BLU

2001/11/05 10:20
ETHM 051020Z 36007KT 9999 FEW040 10/02 Q1025 BLU+BLU+

2001/11/05 10:20
ETHN 051020Z 27006KT 8000 FEW009 SCT019 BKN030 06/04 Q1025 BLU
     BLU

2001/11/05 10:20
ETHR 051020Z 29008KT 8000 -SHRA SCT012 BKN022 OVC050 08/03 Q1024
     WHT BLU TEMPO GRN

2001/11/05 10:20
ETHS 051020Z 29014KT 9999 FEW025 SCT045 08/02 Q1021 BLU+BLU+

2001/11/05 10:20
ETHT 051020Z 28015KT 9999 FEW027 SCT041 08/02 Q1019 BLU+BLU+

2001/11/05 10:20
ETME 051020Z 28010KT 9999 FEW015CB 08/03 Q1018 BLU+BLU+ TEMPO
     GRN

2001/11/05 10:20
ETMN 051020Z 33013KT 9999 FEW020CB SCT045 08/02 Q1021
     BLU+BLU+TEMPO WHT

2001/11/05 10:20
ETND 051020Z 28008KT 9999 FEW020 09/03 Q1022 BLU+BLU+

2001/11/05 10:20
ETNH 051020Z 27010KT 9999 FEW015CB 06/02 Q1019 BLU+BLU+TEMPO
     GRN

2001/11/05 10:20
ETNJ 051020Z 28010KT 9999 FEW020TCU 09/03 Q1022 BLU+BLU+TEMPO
     GRN

2001/11/05 10:20
ETNL 051020Z 28018KT 9999 FEW030 BKN035 07/02 Q1016 BLU BLU+ TEMPO
     GRN

2001/11/05 10:20
ETNN 051020Z 32006KT 9999 FEW028 11/03 Q1025 BLU+BLU+

2001/11/05 10:20
ETNP 051020Z 28008KT 9999 FEW020 10/03 Q1024 BLU+BLU+TEMPO WHT

2001/11/05 10:20
ETNS 051020Z 26011KT 9999 FEW015TCU 08/03 Q1018 BLU+BLU+TEMPO
     GRN

2001/11/05 10:20
ETNT 051020Z 29010KT 9999 FEW020TCU SCT045 09/04 Q1022
     BLU+BLU+TEMPO GRN

2001/11/05 10:20
ETNU 051020Z 27018KT 9999 FEW022 FEW025CB 08/03 Q1015
     BLU+BLU+TEMPO WHT

2001/11/05 10:20
ETNW 051020Z 29010KT 9999 FEW030 10/02 Q1021 BLU+BLU+

2001/11/05 10:20
ETSA 051020Z 19004KT 9000 FEW010 BKN045 06/03 Q1024 BLU BLU

2001/11/05 10:20
ETSB 051020Z 36005KT 9999 BKN030 SCT250 08/01 Q1024 BLU BLU TEMPO
     WHT

2001/11/05 10:20
ETSE 051020Z 28007KT 8000 FEW023 SCT120 08/05 Q1024 BLU+

2001/11/05 10:20
ETSF 051020Z 23004KT 7000 FEW017 BKN038 BKN230 09/03 Q1023
     BLACKWHT

2001/11/05 10:20
ETSH 051020Z 29015KT 9999 SCT024 09/04 Q1020 BLU+BLU+

2001/11/05 10:20
ETSI 051020Z 28007KT 7000 FEW014 SCT046 BKN060 08/06 Q1023 WHT WHT
     BECMG BLU

2001/11/05 10:20
ETSL 051020Z 21003KT 8000 FEW012 SCT045 BKN230 08/04 Q1024 BLU+BLU
     TEMPO BLU+

2001/11/05 10:20
ETSM 051020Z 11002KT 9000 FEW013 BKN040 07/03 Q1023 BLU BLU

2001/11/05 10:20
ETSN 051020Z 27005KT 8000 FEW014 BKN050 07/05 Q1024 BLU BLU

2001/11/05 10:20
ETWM 051020Z 29006KT 9999 FEW035 10/03 Q1023 BLU+

2001/11/05 10:20
LTBU 051020Z 04017KT 9999 SCT030 BKN100 12/07 Q1017

2001/11/05 10:20
LTFC 051020Z 05006KT 9999 -SHRA BKN030 BKN090 11/10 Q1015
     NOSIG

2001/11/05 10:30
FAJS 051030Z 35014KT 9999 FEW050 26/10 Q1020 NOSIG

2001/11/05 10:30
K11R 051030Z AUTO 00000KT 3SM BR CLR 15/13 A3022 RMK AO2

2001/11/05 10:30
KADH 051030Z AUTO 00000KT 1/2SM FG OVC001 11/11 A3028 RMK AO2

2001/11/05 10:30
KALM 051030Z AUTO 35004KT 10SM CLR 14/09 A3026 RMK AO2

2001/11/05 10:30
KAQR 051030Z AUTO 00000KT 1/4SM FG OVC001 13/12 A3028 RMK AO2

2001/11/05 10:31
KAVK 051031Z AUTO 18006KT 1 1/4SM BR VV007 09/08 A3028 RMK AO2

2001/11/05 10:30
KCHK 051030Z AUTO 28005KT 5SM BR BKN037 13/12 A3030 RMK AO1

2001/11/05 10:30
KCQB 051030Z AUTO 00000KT 1/4SM FG OVC001 11/11 A3029 RMK AO2

2001/11/05 10:30
KDUA 051030Z AUTO 00000KT 1/2SM FG BKN001 13/13 A3027 RMK AO2

2001/11/05 10:28
KLRU 051028Z AUTO 15005KT 10SM OVC100 15/08 A3027 RMK AO2

2001/11/05 10:30
KSVC 051030Z AUTO 09009KT 10SM CLR 14/08 A3027 RMK AO1

2001/11/05 10:28
PAHV 051028Z 00000KT 20SM BKN080 M17/M18 A2990 RMK NOSPECI

2001/11/05 10:30
KALM 051030Z AUTO 35004KT 10SM CLR 14/09 A3026 RMK AO2

2001/11/05 10:30
KANW 051030Z AUTO 20015KT 10SM CLR 08/06 A3010 RMK AO1

2001/11/05 10:30
KATS 051030Z AUTO 18003KT 10SM BKN095 13/13 A3030 RMK AO2

2001/11/05 10:30
KAUH 051030Z AUTO 18009KT 10SM CLR 09/02 A3021 RMK AO1

2001/11/05 10:30
KFET 051030Z AUTO 13003KT 10SM CLR 06/01 A3024 RMK AO1

2001/11/05 10:30
KGCM 051030Z AUTO 00000KT 1/4SM FG OVC001 11/10 A3029 RMK AO2

2001/11/05 10:32
KGMJ 051032Z AUTO 00000KT 1SM BR VV007 10/10 A3032 RMK AO2

2001/11/05 10:34
KJSV 051034Z AUTO 00000KT CLR 11/08 A3029 RMK AO2 PWINO

2001/11/05 10:36
KJWG 051036Z AUTO 00000KT 1/2SM FG OVC001 07/06 A3031 RMK AO2

2001/11/05 10:31
KOUN 051031Z AUTO 00000KT 1/4SM FG OVC001 10/09 A3030 RMK AO2

2001/11/05 10:30
KOLM 051030Z AUTO 00000KT 1/4SM FG VV001 04/04 A3015 RMK AO2

2001/11/05 10:30
KCGI 051030Z AUTO 00000KT 1 1/4SM BR FEW001 08/08 A3029 RMK
     AO2

2001/11/05 10:30
KFHR 051030Z AUTO 00000KT 2SM BR CLR 02/02 A3013 RMK AO2

2001/11/05 10:30
KFWN 051030Z AUTO 00000KT 10SM SCT025 06/01 A3002 RMK AO2

2001/11/05 10:30
KGAG 051030Z AUTO 00000KT 1/4SM FG SCT001 BKN006 06/06 A3030 RMK
     AO2

2001/11/05 10:30
KSTJ 051030Z AUTO 00000KT 6SM BR BKN002 05/04 A3029 RMK AO2

2001/11/05 10:30
KTKI 051030Z AUTO 33003KT 1/2SM FG BKN001 OVC007 11/11 A3027 RMK
     AO2 P0001 TSNO

2001/11/05 10:30
KVIH 051030Z AUTO 24004KT 2SM BR OVC001 05/05 A3030 RMK AO2 $

2001/11/05 10:29
KYNG 051029Z 35004KT 10SM FEW026 02/01 A3024 RMK AO2

2001/11/05 10:30
KMSO 051030Z 00000KT 1/4SM FZFG VV001 M03/M04 A3005 RMK AO2

2001/11/05 10:30
KSXT 051030Z AUTO 00000KT 3/4SM BR VV001 07/07 A3016 RMK AO2 VIS
     1/2V2 1/2 RAE08 P0000 TSNO $

2001/11/05 10:29
CYHZ 051029Z 36005KT 1/2SM R15/5000FT/D R24/3500V5000FT/D FG VV001
RMK FG8

2001/11/05 10:29
CYQX 051029Z 05004KT 1SM -RA BR BKN001 OVC009 RMK FG5SF2SF1

2001/11/05 10:21
RJCC 051021Z 14010KT 9999 SHRA FEW004 SCT008 BKN015 08/07 Q1014
RMK 1ST004 3ST008 7ST015 A2996

2001/11/05 10:16
RJOC 051016Z 22004KT 5000 -SHRA BR FEW005 SCT010 BKN020 14/14
Q1013 RMK 1ST005 3CU010 7CU020 A2994

2001/11/05 10:16
RJOK 051016Z 29008KT 4000 SHRA BR FEW005 SCT015 BKN040 16/14 Q1014
RMK 1ST005 3CU015 5SC040 A2996

2001/11/05 10:31
K1F0 051031Z AUTO 00000KT 1/2SM FG OVC001 A3029 RMK AO2

2001/11/05 10:33
KDUC 051033Z AUTO 33003KT 2 1/2SM BR 12/12 A3031 RMK AO1

2001/11/05 10:30
KHDE 051030Z AUTO 17006KT 10SM CLR 08/06 A3021 RMK AO1

2001/11/05 10:30
KLXN 051030Z AUTO 16004KT 10SM CLR 07/04 A3018 RMK AO1

2001/11/05 10:30
KOGA 051030Z AUTO 26003KT 1/4SM 01/01 A3016 RMK AO1

2001/11/05 10:30
KONL 051030Z AUTO 19009KT 10SM CLR 08/03 A3014 RMK AO1

2001/11/05 10:32
KSNL 051032Z AUTO 00000KT 1/4SM FG OVC001 12/12 A3029 RMK AO2

2001/11/05 10:32
KSRR 051032Z AUTO 12004KT 7SM CLR 08/08 A3039 RMK AO2

2001/11/05 10:32
KTQH 051032Z AUTO 00000KT 3/4SM BR VV005 11/11 A3029 RMK AO2

2001/11/05 10:30
KVDI 051030Z AUTO 01004KT 10SM CLR 12/07 A3007 RMK AO1

2001/11/05 10:31
KWWR 051031Z AUTO 21007KT 4SM BR CLR 09/08 A3027 RMK AO2

2001/11/05 10:30
KAEG 051030Z AUTO 00000KT FEW060 SCT080 09/04 A3033 RMK A01
     P000

2001/11/05 10:31
KBIE 051031Z AUTO 15003KT 10SM CLR 04/01 A3025 RMK AO1

2001/11/05 10:32
KRKR 051032Z AUTO 00000KT 1/4SM FG 10/08 A3030 RMK AO2

2001/11/05 10:31
KCFV 051031Z AUTO 24004KT 5SM BR BKN001 09/09 A3030 RMK AO2

2001/11/05 10:31
KCQX 051031Z AUTO 26005KT 10SM FEW007 BKN045 OVC100 07/07 A2981
     RMK AO2 RAE0954 P0000

2001/11/05 10:31
KSLN 051031Z AUTO 00000KT 1 3/4SM BR BKN001 BKN009 08/08 A3027 RMK
     AO2

2001/11/05 10:32
KMWL 051032Z AUTO 00000KT 1/2SM FG BKN001 BKN006 12/12 A3026 RMK
     AO2 $

2001/11/05 10:32
KWLD 051032Z AUTO 00000KT 1/2SM FG OVC002 10/10 A3030 RMK AO2

2001/11/05 10:32
PAMR 051032Z 12003KT 2SM BR OVC003 M04/M06 A2984 RMK AO2 CIG
     001V004 VIS NW-NE 1 1/2

2001/11/05 10:00
TNCM 051000Z 09004KT 9999 SCT023 25/20 Q1011

2001/11/05 10:20
LGPZ 051020Z 06009KT 9999 FEW020 SCT030 BKN080 17/09 Q1014
     NOSIG

2001/11/05 10:20
LGRX 051020Z 06008KT 9999 FEW008 SCT020 18/06 Q1012

2001/11/05 10:20
LIEE 051020Z 30010KT CAVOK 19/12 Q1019 NOSIG

2001/11/05 10:20
LIMC 051020Z VRB01KT 3000 BR FEW090 11/11 Q1018 NOSIG

2001/11/05 10:20
LIMF 051020Z 00000KT 3000 BR BKN160 10/07 Q1017

2001/11/05 10:20
LIMJ 051020Z 09012KT 9999 SCT025 BKN050 18/14 Q1017

2001/11/05 10:20
LIML 051020Z 00000KT 2100 BR SCT090 13/10 Q1017 NOSIG

2001/11/05 10:20
LIRA 051020Z 03005KT CAVOK 13/05 Q1017

2001/11/05 10:20
LIRF 051020Z 00000KT CAVOK 17/05 Q1018 NOSIG

2001/11/05 10:20
LIRN 051020Z VRB03KT CAVOK 18/04 Q1017

2001/11/05 10:20
LIRP 051020Z 11005KT 8000 SCT030 SCT040 12/10 Q1018 BECMG 9999

2001/11/05 10:20
LIMC 051020Z VRB01KT 3000 BR FEW090 11/11 Q1018 NOSIG

2001/11/05 10:30
UBBB 051030Z 18012KT 9999 SCT040 17/11 Q1018 88CLRD70 NOSIG

2001/11/05 10:00
SLVR 051000Z 33005KT 999 NSC 20/19 Q1009

2001/11/05 10:20
ESGJ 051020Z 30007KT 270V330 CAVOK 02/M02 Q1006

2001/11/05 10:20
EGJJ 051020Z 06006KT 9999 FEW020 12/08 Q1028 NOSIG

2001/11/05 10:20
EGMC 051020Z 29003KT CAVOK 08/01 Q1027

2001/11/05 10:20
EGBJ 051020Z 24004KT CAVOK 10/05 Q1028

2001/11/05 10:00
SVAC 051000Z 31002KT 9999 FEW023 24/24 Q10//

2001/11/05 10:00
SVBM 051000Z 11006KT 9999 BKN016 22/21 Q1010

2001/11/05 10:00
SVBS 051000Z 00000KT 9999 FEW020 22/22 Q10// NOSIG

2001/11/05 10:00
SVGU 051000Z 00000KT 9999 FEW017 24/21 Q1010

2001/11/05 10:00
SVSA 051000Z 18012KT 9999 FEW023 26/17 Q1011

2001/11/05 10:00
SVVA 051000Z 00000KT 9999 FEW010 22/21 Q1010

2001/11/05 10:20
LIRN 051020Z VRB03KT CAVOK 18/04 Q1017

2001/11/05 10:25
CWLP 051025Z AUTO 10017KT 04/ RMK AO1 SLP167 T0043 56009

2001/11/05 10:27
CWNB 051027Z AUTO 9SM 02/ RMK AO1 SLP284 T0022 53010

2001/11/05 10:29
CWNL 051029Z AUTO 01004KT 9SM 03/ RMK AO1 SLP285 T0033 51014

2001/11/05 10:28
CWPS 051028Z AUTO 32020KT 9SM 05/ RMK AO1 SLP235 T0054 50009

2001/11/05 10:28
CWQS 051028Z AUTO 19013KT RMK AO1 58002

2001/11/05 10:25
CWWS 051025Z AUTO 19012KT 05/04 RMK AO1 PK WND 17017/0941 SLP070
     T00540041 55013

2001/11/05 10:26
CWWX 051026Z AUTO 32013KT 9SM 04/M02 RMK AO1 SLP271 T00391022
     53011

2001/11/05 10:20
ENBS 051020Z 30016KT 6000NV VCSH SCT025 M05/M08 Q0994

2001/11/05 10:30
GMAD 051030Z 06016KT 8000 BKN100 23/12 Q1017 NOSIG

2001/11/05 10:30
LBGO 051030Z 00000MPS CAVOK 06/M01 Q1019 NOSIG

2001/11/05 10:15
LHBC 051015Z 28002MPS CAVOK 10/M01 Q1021

2001/11/05 10:15
LHDC 051015Z 20003MPS 170V240 CAVOK 08/M01 Q1020 NOSIG

2001/11/05 10:15
LHPP 051015Z 20001MPS 8000 SKC 11/M01 Q1021

2001/11/05 10:15
LHSY 051015Z VRB02MPS CAVOK 10/02 Q1021

2001/11/05 10:15
LHUD 051015Z 20003MPS CAVOK 09/M02 Q1021

2001/11/05 10:00
BIKF 35003KT 9999 SCT013 BKN017 01/00 Q1008

2001/11/05 10:33
KOKM 051033Z AUTO 00000KT 1/4SM FG OVC001 11/11 A3028 RMK AO1

2001/11/05 10:33
KCGI 051033Z AUTO 00000KT 3SM BR FEW001 08/08 A3029 RMK AO2

2001/11/05 10:33
KSLN 051033Z AUTO 00000KT 3SM BR BKN001 BKN009 08/08 A3027 RMK
     AO2

2001/11/05 10:35
KAIZ 051035Z AUTO 00000KT 1/2SM OVC001 09/08 A3031 RMK AO1

2001/11/05 10:35
KAPF 051035Z 01007KT 340V040 10SM CLR 20/18 A2973 RMK AO1

2001/11/05 10:35
KAUO 051035Z AUTO 03007KT 10SM CLR 12/01 A3011 RMK AO1

2001/11/05 10:35
KAWO 051035Z AUTO 18003KT 9SM BKN017 06/04 A3009 RMK AO1

2001/11/05 10:35
KBJI 051035Z 19007KT 10SM CLR 07/M02 A3000 RMK AO1

2001/11/05 10:35
KBKX 051035Z 17007KT 10SM CLR 09/00 A3011 RMK AO1

2001/11/05 10:35
KBLM 051035Z AUTO 31010KT 10SM SCT080 06/M01 A2996 RMK AO1

2001/11/05 10:35
KCIU 051035Z AUTO 00000KT 10SM CLR M02/M02 A3034 RMK AO1

2001/11/05 10:35
KCOE 051035Z AUTO 17008KT 10SM CLR 07/05 A2996 RMK AO1

2001/11/05 10:35
KCVN 051035Z AUTO 19008KT 1/4SM OVC001 12/12 A3032 RMK AO1

2001/11/05 10:35
KCVO 051035Z AUTO 30009KT 10SM BKN047 OVC055 12/08 A3017 RMK
     AO1

2001/11/05 10:35
KCWI 051035Z AUTO 08003KT 10SM CLR 00/M03 A3036 RMK AO1

2001/11/05 10:35
KEHR 051035Z AUTO 00000KT 4SM CLR 07/01 A3030 RMK AO1

2001/11/05 10:35
KESC 051035Z AUTO 00000KT 10SM CLR M03/M04 A3037 RMK AO1

2001/11/05 10:35
KEWK 051035Z AUTO 22004KT M1/4SM VV000 09/09 A3028 RMK AO1

2001/11/05 10:35
KFAM 051035Z AUTO 00000KT 1 3/4SM CLR 06/04 A3030 RMK AO1

2001/11/05 10:35
KFOD 051035Z AUTO 17007KT 10SM CLR 09/01 A3026 RMK AO1

2001/11/05 10:35
KFRM 051035Z AUTO 19010KT 10SM CLR 05/M01 A3026 RMK AO1

2001/11/05 10:35
KGAD 051035Z AUTO 00000KT 10SM CLR 05/01 A3019 RMK AO1

2001/11/05 10:35
KGBD 051035Z AUTO 20007KT 6SM CLR 09/08 A3026 RMK AO1

2001/11/05 10:34
KGHW 051034Z AUTO 20006KT 10SM CLR 08/01 A3011 RMK AO2

2001/11/05 10:35
KGTR 051035Z AUTO 33003KT 10SM CLR 04/02 A3021 RMK AO2 PWINO
     FZRANO RVRNO

2001/11/05 10:35
KHEZ 051035Z AUTO 36003KT 10SM CLR 07/06 A3016 RMK AO1

2001/11/05 10:35
KHNB 051035Z AUTO 04005KT 10SM CLR 06/M03 A3031 RMK AO1

2001/11/05 10:35
KHYS 051035Z AUTO 20004KT 10SM CLR 08/06 A3024 RMK AO1

2001/11/05 10:35
KIWD 051035Z AUTO 19008KT 10SM CLR 04/M09 A3023 RMK AO1

2001/11/05 10:35
KKLS 051035Z AUTO 34003KT 10SM OVC017 09/08 A3015 RMK AO1

2001/11/05 10:35
KLBL 051035Z AUTO 20008KT 4SM CLR 08/08 A3026 RMK AO1

2001/11/05 10:35
KLGD 051035Z AUTO 02003KT 10SM CLR 06/01 A3004 RMK AO1

2001/11/05 10:35
KLKV 051035Z AUTO 02007KT 9SM CLR M03/M04 A3017 RMK AO1

2001/11/05 10:35
KMBL 051035Z AUTO 11004KT 10SM CLR M05/M06 A3036 RMK AO1

2001/11/05 10:35
KMKT 051035Z AUTO 17008KT 10SM CLR 06/M01 A3023 RMK AO1

2001/11/05 10:35
KMML 051035Z AUTO 21017G22KT 10SM CLR 11/M01 A3011 RMK AO1

2001/11/05 10:35
KMNM 051035Z AUTO 00000KT 10SM CLR M04/M08 A3037 RMK AO1

2001/11/05 10:35
KMRF 051035Z AUTO 05007KT 10SM CLR 07/04 A3036 RMK AO1

2001/11/05 10:35
KMSV 051035Z 30010KT 10SM BKN027 BKN032 02/M02 A2998 RMK AO1

2001/11/05 10:35
KMTW 051035Z AUTO 00000KT 10SM CLR M01/M03 A3035 RMK AO1

2001/11/05 10:35
KMVN 051035Z AUTO 02005KT 10SM CLR 04/01 A3034 RMK AO1

2001/11/05 10:35
KMYR 051035Z 34005KT 10SM CLR 08/03 A3003 RMK AO1 METAR KMYR
     050247Z 01005KT 10SM SKC 13/06 A3011

2001/11/05 10:35
KOAJ 051035Z AUTO 32004KT 10SM CLR 03/01 A3007 RMK AO1

2001/11/05 10:35
KOCF 051035Z AUTO 02011G17KT 10SM FEW120 19/16 A2991 RMK AO1

2001/11/05 10:35
KOLU 051035Z AUTO 20010KT 10SM CLR 11/02 A3023 RMK AO1

2001/11/05 10:35
KOTG 051035Z AUTO 19012KT 10SM CLR 07/M01 A3018 RMK AO1

2001/11/05 10:35
KOTH 051035Z 34003KT 10SM OVC055 11/10 A3024 RMK AO1 SLP237

2001/11/05 10:35
KPIB 051035Z AUTO 35007KT 10SM CLR 12/03 A3015 RMK AO1

2001/11/05 10:35
KPTN 051035Z AUTO 01006KT 10SM 13/M07 A3015 RMK AO1

2001/11/05 10:33
KPVJ 051033Z AUTO 00000KT 1/4SM FG OVC001 13/12 A3030 RMK AO2

2001/11/05 10:35
KPWT 051035Z AUTO 00000KT M1/4SM OVC001 03/03 A3015 RMK AO1

2001/11/05 10:35
KSGJ 051035Z AUTO 02015G20KT 8SM CLR 21/17 A2992 RMK AO1 LTG DSNT
     E

2001/11/05 10:35
KSKX 051035Z AUTO 34003KT 10SM CLR 00/M05 A3037 RMK AO1

2001/11/05 10:35
KSOP 051035Z AUTO 31003KT 10SM CLR 05/01 A3010 RMK AO1

2001/11/05 10:35
KSQI 051035Z AUTO 00000KT 10SM CLR 01/M01 A3036 RMK AO1

2001/11/05 10:35
KSUE 051035Z AUTO 00000KT 10SM CLR 00/M01 A3034 RMK AO1

2001/11/05 10:35
KTVF 051035Z AUTO 19008KT 10SM CLR 06/01 A2996 RMK AO1

2001/11/05 10:35
KUDG 051035Z AUTO 34006KT 10SM CLR 08/02 A3008 RMK AO1

2001/11/05 10:35
KVIS 051035Z 00000KT 1/2SM VV005 11/09 A3005 RMK AO1

2001/11/05 10:35
KWWD 051035Z 32012G16KT 10SM CLR 09/00 A3004 RMK AO1

2001/11/05 10:35
KYKN 051035Z AUTO 20009KT 10SM CLR 12/01 A3015 RMK AO1

2001/11/05 10:35
PAWS 051035Z AUTO 00000KT 1 1/4SM OVC003 M07/M08 A2986 RMK AO1

2001/11/05 10:35
PAZK 051035Z AUTO 00000KT 1/4SM OVC001 M11/M13 A2967 RMK AO1

2001/11/05 10:35
PFYU 051035Z 04006KT 10SM CLR M16/M18 A3008 RMK AO1

2001/11/05 10:35
PAAK 051035Z AUTO 14026G40KT 1SM BKN001 OVC009 06/04 A2943 RMK
     AO1

2001/11/05 10:35
PABL 051035Z AUTO 14005KT 10SM CLR M24/M29 A3016 RMK AO1 TSNO

2001/11/05 10:35
PABV 051035Z AUTO 00000KT 2SM OVC001 M06/M07 A2987 RMK AO1

2001/11/05 10:35
PADL 051035Z 04006KT 10SM CLR M11/M16 A3002 RMK AO1

2001/11/05 10:35
PADU 051035Z AUTO 13011KT 10SM SCT035 03/M05 A2997 RMK AO1

2001/11/05 10:35
PAEM 051035Z AUTO 13006KT 10SM OVC015 M13/M15 A3008 RMK AO1

2001/11/05 10:35
PAFE 051035Z AUTO 09006KT 10SM FEW010 SCT019 BKN038 02/M01 A2984
     RMK AO1

2001/11/05 10:35
PAFM 051035Z AUTO 05005KT 10SM CLR M23/M31 A3018 RMK AO1

2001/11/05 10:35
PAGL 051035Z AUTO 32008KT 10SM FEW001 M16/M17 A3013 RMK AO1

2001/11/05 10:35
PAGM 051035Z AUTO 17004KT 10SM BKN004 OVC025 01/M01 A2997 RMK
     AO1

2001/11/05 10:35
PAHP 051035Z AUTO 11006KT 10SM OVC017 M06/M09 A3011 RMK AO1

2001/11/05 10:35
PAHS 051035Z AUTO 00000KT 10SM OVC060 M17/M20 A3011 RMK AO1
     TSNO

2001/11/05 10:35
PAII 051035Z AUTO 35008KT 10SM CLR M10/M14 A3001 RMK AO1

2001/11/05 10:35
PAIN 051035Z AUTO 00000KT 10SM FEW002 SCT050 M15/M15 A2988 RMK
     AO1

2001/11/05 10:35
PAJC 051035Z AUTO 29019G26KT 5SM FEW008 FEW013 BKN026 M02/M07
     A2996 RMK AO1

2001/11/05 10:35
PAKK 051035Z AUTO 05003KT 10SM CLR M19/M23 A3008 RMK AO1

2001/11/05 10:35
PAKP 051035Z AUTO 19010KT 10SM OVC050 M18/M32 A2993 RMK AO1
     TSNO

2001/11/05 10:35
PAMD 051035Z AUTO 23003KT 10SM CLR 03/M03 A2980 RMK AO1

2001/11/05 10:35
PAMH 051035Z AUTO 00000KT 10SM CLR M14/M17 A3001 RMK AO1

2001/11/05 10:35
PAMM 051035Z AUTO 15004KT 10SM FEW023 SCT034 BKN042 04/01 A2988
     RMK AO1 TSNO

2001/11/05 10:35
PAMY 051035Z AUTO 14003KT 10SM OVC017 M06/M09 A3008 RMK AO1

2001/11/05 10:35
PANI 051035Z AUTO 00000KT 10SM CLR M22/M24 A3009 RMK AO1

2001/11/05 10:35
PANV 051035Z AUTO 05006KT 10SM CLR M14/M21 A3009 RMK AO1

2001/11/05 10:35
PAPG 051035Z AUTO 27003KT 10SM SCT016 SCT032 OVC048 02/M01 A2987
     RMK AO1 TSNO

2001/11/05 10:35
PAPH 051035Z AUTO 06008KT 10SM FEW022 OVC029 M06/M09 A3000 RMK
     AO1

2001/11/05 10:35
PAPO 051035Z AUTO 13019KT 10SM OVC014 M08/M09 A3005 RMK AO1

2001/11/05 10:35
PASA 051035Z AUTO 19006KT 10SM BKN027 OVC037 M01/M03 A3004 RMK
     AO1

2001/11/05 10:35
PASD 051035Z AUTO 33012KT 10SM FEW029 M01/M07 A3003 RMK AO1

2001/11/05 10:35
PASH 051035Z AUTO 13009KT 10SM SCT060 OVC090 M14/M17 A3007 RMK
     AO1

2001/11/05 10:35
PASK 051035Z AUTO 06003KT 10SM CLR M26/M27 A3021 RMK AO1

2001/11/05 10:35
PASL 051035Z AUTO 31005KT 10SM CLR M16/M18 A3004 RMK AO2 PWINO
     FZRANO RVRNO

2001/11/05 10:35
PASM 051035Z AUTO 04003KT 10SM CLR M16/M18 A3011 RMK AO1

2001/11/05 10:35
PASX 051035Z AUTO 10006KT 10SM OVC008 M03/M05 A2986 RMK AO1

2001/11/05 10:35
PATG 051035Z AUTO 02009KT 10SM CLR M14/M18 A3003 RMK AO1

2001/11/05 10:35
PAUN 051035Z AUTO 07008KT 10SM CLR M18/M19 A3014 RMK AO1 TSNO

2001/11/05 10:35
PAVD 051035Z 14003KT 10SM CLR M04/M07 A2984 RMK AO1

2001/11/05 10:35
PAWG 051035Z 09011KT 10SM SCT014 BKN019 OVC044 02/02 A2987 RMK AO1
     P0001 TSNO

2001/11/05 10:35
PAWN 051035Z AUTO 02006KT 10SM CLR M22/M24 A3011 RMK AO1

2001/11/05 10:35
KSGU 051035Z AUTO 08004KT 10SM FEW036 BKN090 OVC110 18/04 A3012
     RMK AO1

2001/11/05 10:35
KSLG 051035Z AUTO 10003KT 1/2SM VV005 10/09 A3030 RMK AO1

2001/11/05 10:35
KSMN 051035Z AUTO 00000KT 5SM CLR M04/M05 A3014 RMK AO1

2001/11/05 10:35
KTPL 051035Z AUTO 33004KT 4SM CLR 13/12 A3024 RMK AO1

2001/11/05 10:35
KVBT 051035Z AUTO 00000KT 1/4SM VV002 08/07 A3032 RMK AO1

2001/11/05 10:35
KVIS 051035Z 00000KT 1/2SM VV005 11/09 A3005 RMK AO1

2001/11/05 10:35
KWVL 051035Z AUTO 01007KT 10SM BKN041 OVC049 06/02 A2978 RMK
     AO1

2001/11/05 10:35
KARG 051035Z AUTO 02007KT 1SM CLR 09/07 A3026 RMK AO1

2001/11/05 10:35
KBHB 051035Z AUTO 00000KT 10SM OVC065 07/02 A2984 RMK AO1

2001/11/05 10:35
KBID 051035Z AUTO 31010G19KT 10SM FEW017 07/03 A2987 RMK AO1

2001/11/05 10:35
KBTP 051035Z 30003KT 10SM CLR 02/00 A3021 RMK AO1

2001/11/05 10:35
KBVX 051035Z AUTO 30004KT 10SM CLR 09/06 A3027 RMK AO1

2001/11/05 10:35
KCOD 051035Z 23008KT CLR 09/M07 A3007 RMK AO1

2001/11/05 10:35
KDYR 051035Z AUTO 00000KT 10SM CLR 08/05 A3026 RMK AO1

2001/11/05 10:35
KEEN 051035Z AUTO 33004KT 10SM SCT060 04/02 A2986 RMK AO1

2001/11/05 10:35
KEGE 051035Z 10004KT 10SM CLR M02/M07 A3042 RMK AO1

2001/11/05 10:35
KENV 051035Z AUTO 00000KT 10SM CLR 06/M01 A3016 RMK AO1

2001/11/05 10:35
KEUL 051035Z AUTO 11003KT 10SM CLR 01/M02 A3005 RMK AO1

2001/11/05 10:35
KFKL 051035Z 33003KT 10SM CLR 02/M01 A3021 RMK AO1

2001/11/05 10:35
KFLP 051035Z AUTO 00000KT 10SM BKN040 11/07 A3030 RMK AO1

2001/11/05 10:35
KFNL 051035Z AUTO 14003KT 10SM CLR 04/M09 A3021 RMK AO1

2001/11/05 10:35
KFOD 051035Z AUTO 17007KT 10SM CLR 09/01 A3026 RMK AO1

2001/11/05 10:36
KFOZ 051036Z AUTO 17007KT 10SM CLR 06/M01 A3006 RMK AO2

2001/11/05 10:35
KFRM 051035Z AUTO 19010KT 10SM CLR 05/M01 A3026 RMK AO1

2001/11/05 10:35
KGDV 051035Z AUTO 19006KT 10SM CLR 02/M06 A2993 RMK AO1

2001/11/05 10:35
KGUC 051035Z AUTO 00000KT 10SM CLR M03/M08 A3045 RMK AO1

2001/11/05 10:35
KGXY 051035Z AUTO 00000KT 10SM CLR M02/M08 A3021 RMK AO1

2001/11/05 10:33
KHCO 051033Z AUTO 16012KT 10SM CLR 04/01 A2992 RMK AO2

2001/11/05 10:35
KHDN 051035Z AUTO 12012KT 10SM FEW085 03/M06 A3035 RMK AO1

2001/11/05 10:35
KHYI 051035Z AUTO 34008KT 10SM BKN070 16/13 A3023 RMK AO1

2001/11/05 10:35
KJAC 051035Z AUTO 05008KT 10SM CLR M06/M09 A3025 RMK AO1

2001/11/05 10:35
KJHW 051035Z 35008G14KT 10SM BKN022 BKN031 OVC039 02/M02 A3018 RMK
     AO1

2001/11/05 10:35
KLCI 051035Z AUTO 28004KT 10SM SCT023 SCT028 BKN037 05/02 A2981
     RMK AO1

2001/11/05 10:35
KLEW 051035Z AUTO 31007KT 5SM FEW002 FEW011 OVC017 04/04 A2979 RMK
     AO2 PWINO FZRANO RVRNO

2001/11/05 10:35
KLPC 051035Z AUTO 00000KT M1/4SM OVC001 12/12 A3002 RMK AO1

2001/11/05 10:35
KMOX 051035Z AUTO 14009KT 10SM CLR 06/02 A3008 RMK AO2

2001/11/05 10:35
KOCH 051035Z 32003KT 10SM CLR 08/07 A3022 RMK AO1

2001/11/05 10:34
KORB 051034Z AUTO 17011KT 10SM OVC002 06/M04 A3004 RMK AO2

2001/11/05 10:35
KPQI 051035Z AUTO 07003KT 10SM FEW025 OVC050 04/02 A2987 RMK
     AO1

2001/11/05 10:35
KPRX 051035Z AUTO 01004KT 2SM CLR 11/09 A3028 RMK AO1 VIS 1V5
     1/2

2001/11/05 10:35
KPVC 051035Z 30013KT 10SM BKN016 BKN022 OVC029 08/M02 A2981 RMK
     AO1

2001/11/05 10:35
KPVU 051035Z AUTO 00000KT 10SM CLR 07/04 A3019 RMK AO1

2001/11/05 10:35
KPWG 051035Z AUTO 34005KT 4SM CLR 13/13 A3024 RMK AO1

2001/11/05 10:35
KRKD 051035Z 12010KT 10SM SCT055 BKN085 09/04 A2979 RMK AO1

2001/11/05 10:35
KROG 051035Z AUTO 00000KT 3SM CLR 10/08 A3031 RMK AO1

2001/11/05 10:35
KRUT 051035Z AUTO 33004KT 10SM OVC030 03/01 A2990 RMK AO1

2001/11/05 10:35
KSDY 051035Z AUTO 20010KT 10SM CLR 01/M06 A2988 RMK AO1

2001/11/05 10:35
KSFM 051035Z AUTO 31006KT 8SM FEW001 SCT016 OVC025 06/04 A2979 RMK
     AO1 P0097

2001/11/05 10:35
KSFZ 051035Z AUTO 30007KT 10SM OVC038 05/03 A2982 RMK AO1

2001/11/05 10:35
KSGT 051035Z 36003KT 5SM CLR 09/06 A3027 RMK AO1

2001/11/05 10:35
KCKC 051035Z AUTO 17005KT 10SM CLR 02/M04 A3020 RMK AO2

2001/11/05 10:32
KDTL 051032Z AUTO 14007KT 10SM CLR 05/02 A3003 RMK AO2

2001/11/05 10:34
KDXX 051034Z AUTO 19011KT 10SM CLR 12/01 A3008 RMK AO2

2001/11/05 10:35
KMOX 051035Z AUTO 14009KT 10SM CLR 06/02 A3008 RMK AO2

2001/11/05 10:34
KOVL 051034Z AUTO 16008KT 10SM CLR 06/01 A3015 RMK AO2

2001/11/05 10:35
KPQN 051035Z AUTO 19009KT 10SM CLR 08/M01 A3014 RMK AO2

2001/11/05 10:36
KRRT 051036Z AUTO 17007KT 10SM CLR 07/03 A2992 RMK AO2

2001/11/05 10:36
KTOB 051036Z AUTO 19012KT 10SM CLR 07/M01 A3025 RMK AO2

2001/11/05 10:35
KVVV 051035Z AUTO 15004KT 10SM CLR 08/02 A3007 RMK AO2

2001/11/05 10:35
KDVL 051035Z AUTO 22003KT 10SM CLR 04/00 A2991 RMK AO1

2001/11/05 10:35
KEAR 051035Z AUTO 18007KT 10SM CLR 06/04 A3021 RMK AO1

2001/11/05 10:35
KGPZ 051035Z AUTO 17013G19KT 10SM CLR 06/M04 A3009 RMK AO1

2001/11/05 10:33
KFYV 051033Z AUTO 17003KT 1/4SM FG VV001 11/11 A3030 RMK AO2 $

2001/11/05 10:35
KHHR 051035Z AUTO 00000KT 1 3/4SM BR OVC003 15/14 A2996 RMK
     AO2

2001/11/05 10:24
K40B 051024Z AUTO 06000KT 01/M04 RMK AO1 PKWND 003/RNO 777V264
     T00111038

2001/11/05 10:33
KSPS 051033Z AUTO 06003KT 1SM FEW001 OVC041 14/14 A3028 RMK
     AO2

2001/11/05 10:34
PABE 051034Z 00000KT 1/4SM FZFG SCT001 BKN009 M17/M18 A3010 RMK
     AO2

2001/11/05 10:34
KSMP 051034Z AUTO 25007KT 1/4SM +SN FEW002 OVC007 00/M34 A3002 RMK
     AO2 SNB05 P0001 TSNO $

2001/11/05 10:34
KLBB 051034Z 15006KT 2 1/2SM BR OVC001 13/13 A3031 RMK AO2 CIG
     001V005

2001/11/05 10:28
YSSY 051028Z 03020G31KT CAVOK 21/15 Q1015 NOSIG

2001/11/05 10:32
CYMX 051032Z 31006KT 15SM -SHRA BKN013 OVC036 RMK SC5SC3

2001/11/05 10:03
TJNR 051003Z 00000KT 9000 -SHRA BKN025 BKN200 23/23 A2982 RMK
SLP096 WR//

2001/11/05 10:30
EGQL 051030Z 22011KT 9999 -RA FEW016 BKN022 OVC050 06/05 Q1018 WHT
NOSIG

2001/11/05 10:34
KAIG 051034Z AUTO 17003KT 10SM CLR 00/M02 A3031 RMK AO2

2001/11/05 10:36
KBBB 051036Z AUTO 18007KT 10SM CLR 06/00 A3010 RMK AO2

2001/11/05 10:35
KBUU 051035Z AUTO 00000KT 10SM CLR M02/M02 A3036 RMK AO2

2001/11/05 10:37
KCBG 051037Z AUTO 16006KT 10SM CLR 07/M02 A3022 RMK AO2

2001/11/05 10:37
KCCU 051037Z AUTO 26006KT 10SM CLR M03/M09 A3056 RMK AO2

2001/11/05 10:38
KCKN 051038Z AUTO 17012KT 10SM CLR 07/02 A2997 RMK AO2

2001/11/05 10:36
KCOQ 051036Z AUTO 16004KT 10SM CLR 04/M04 A3015 RMK AO2

2001/11/05 10:36
KCQM 051036Z AUTO 19007KT 10SM CLR 07/M04 A3008 RMK AO2

2001/11/05 10:36
KULM 051036Z AUTO 16010KT 10SM CLR 06/00 A3019 RMK AO2

2001/11/05 10:36
KCLI 051036Z AUTO 00000KT 10SM CLR M03/M04 A3036 RMK AO2

2001/11/05 10:34
KAIA 051034Z AUTO 00000KT 1SM BR CLR M03/M03 A3012 RMK AO2 $

2001/11/05 10:03
TJNR 051003Z 00000KT 9000 -SHRA BKN025 BKN200 23/23 A2982 RMK
     SLP096 WR//

2001/11/05 10:00
HCMI 051000Z 33010KT 9999 FEW040 31/22 Q1016

2001/11/05 10:30
GCFV 051030Z 06007KT CAVOK 24/20 Q1016 NOSIG

2001/11/05 10:30
GCLP 051030Z 11005KT 9999 FEW025 24/16 Q1016 NOSIG

2001/11/05 10:30
GCRR 051030Z VRB02KT CAVOK 24/17 Q1016 NOSIG

2001/11/05 10:30
GEML 051030Z 07003KT 9999 SCT010 OVC080 21/20 Q1020

2001/11/05 10:30
GMFF 051030Z 08008KT 9999 FEW013 BKN040 18/12 Q1020 NOSIG

2001/11/05 10:30
GMME 051030Z 12010KT 8000 SCT016 BKN080 20/17 Q1018 NOSIG

2001/11/05 10:30
GMMN 051030Z 18008KT 8000 SCT020 BKN080 20/17 Q1018 NOSIG

2001/11/05 10:30
WSSS 051030Z 01001KT 9999 FEW018 BKN140 25/25 Q1009 NOSIG

2001/11/05 10:30
UGEE 051030Z 00000MPS 9999 FEW100 18/03 Q1021 NOSIG 070

2001/11/05 10:30
OPKC 051030 23008KT 5000 SKC 34/06 Q1011 NSOIG

2001/11/05 10:30
MYEG 051030Z AUTO 16023G31KT 10SM SCT048 SCT070 SCT090 26/23 A2942
     RMK AO2

2001/11/05 10:30
EPKK 051030Z 26008MPS 9999 -RA FEW020 BKN033 10/04 Q1016 741.3

2001/11/05 10:30
EPKT 051030Z 26005MPS 9999 -SHRA BKN033CB 08/05 Q1016 735.2

2001/11/05 10:30
EPRZ 051030Z 22009MPS CAVOK 07/02 Q1015 742.9

2001/11/05 10:30
EPSC 051030Z 29008G13MPS 9999 BKN027 08/02 Q1014 756.9

2001/11/05 10:30
UMMS 051030Z 23004G09MPS 6000 OVC018 07/04 Q1001 NOSIG RMK
     31290060

2001/11/05 10:30
LBBG 051030Z VRB01MPS 9999 OVC022 11/02 Q1018 NOSIG

2001/11/05 10:30
LBPD 051030Z VRB02MPS 9999 SCT060 10/M01 Q1018 NOSIG

2001/11/05 10:30
LBSF 051030Z VRB01MPS 7000 SKC 08/M03 Q1018 NOSIG

2001/11/05 10:30
LBWN 051030Z 26003MPS 220V280 9999 BKN033 11/00 Q1018 NOSIG

2001/11/05 10:30
LHBP 051030Z 21005KT 8000 NSC 09/04 Q1019 NOSIG

2001/11/05 10:30
LRAR 051030Z VRB02MPS CAVOK 10/00 Q1020 NOSIG

2001/11/05 10:30
LRBS 051030Z 27005MPS 230V300 CAVOK 10/M02 Q1018 NOSIG
     07000095

2001/11/05 10:30
LRCK 051030Z 26004MPS 240V300 CAVOK 10/M02 Q1019 NOSIG

2001/11/05 10:30
LROP 051030Z 27005MPS 230V310 CAVOK 11/M03 Q1018 NOSIG

2001/11/05 10:30
LRTC 051030Z 24003MPS CAVOK 11/M03Q1018

2001/11/05 10:30
LRTM 051030Z 09001MPS CAVOK 08/01 Q1021

2001/11/05 10:30
LRTR 051030Z VRB01MPS CAVOK 09/M01 Q1020 NOSIG

2001/11/05 10:30
LUKK 051030Z 22014KT CAVOK 11/M02 Q1017 NOSIG 26CLRD65

2001/11/05 10:30
LJLJ 051030Z 29001KT CAVOK 08/03 Q1020 NOSIG

2001/11/05 10:30
LJMB 051030Z 00000KT CAVOK 09/04 Q1021

2001/11/05 10:30
LJPZ 051030Z 30005KT 230V350 CAVOK 15/08 Q1017

2001/11/05 10:30
LKMT 051030Z 23016KT CAVOK 09/05 Q1017 NOSIG

2001/11/05 10:30
LKPR 051030Z 26014KT 9999 SCT020 BKN060 08/04 Q1019 NOSIG

2001/11/05 10:30
LKTB 051030Z 29009KT 9999 SCT030 BKN050 08/06 Q1019 NOSIG

2001/11/05 10:30
LWOH 051030Z 17007KT CAVOK 11/05 Q1016

2001/11/05 10:30
LWSK 051030Z VRB02KT CAVOK 09/M04 Q1018 NOSIG

2001/11/05 10:30
LZIB 051030Z 31008G13MPS 270V350 9999 FEW030 SCT050 13/04 Q1020
     NOSIG

2001/11/05 10:30
LZKZ 051030Z 25004MPS 210V290 CAVOK 06/M01 Q1018 NOSIG

2001/11/05 10:30
LZTT 051030Z 27008MPS 9999 BKN026 07/01 Q1015 NOSIG

2001/11/05 10:20
EETN 051020Z 36009KT 320V040 9999 FEW025 BKN039 BKN150 04/M00
     Q0990 NOSIG

2001/11/05 10:20
EYVI 051020Z 25014G25KT 9999 BKN016CB 05/04 Q0999 202///50
     NOSIG

2001/11/05 10:30
LPFR 051030Z 10008KT 9999 FEW018 FEW020CB BKN025 BKN100 20/19
     Q1014

2001/11/05 10:30
LPPR 051030Z 07005KT 340V120 CAVOK 18/11 Q1020

2001/11/05 10:30
LPPS 051030Z 02010KT 9999 SCT015 FEW020CB 20/19 Q1016

2001/11/05 10:30
LPPT 051030Z 03016KT 9999 FEW025 BKN250 17/13 Q1016 NOSIG

2001/11/05 10:30
LFBD 051030Z 04007KT 3500 BR OVC007 08/06 Q1025 BECMG 5000
     BKN010

2001/11/05 10:30
LFBO 051030Z 28003KT 9999 BKN017 BKN029 13/09 Q1023 NOSIG

2001/11/05 10:30
LFKJ 051030Z 22003KT 9999 FEW036 SCT250 21/12 Q1019 NOSIG

2001/11/05 10:30
LFLC 051030Z 02005KT 2500 BR BKN004 BKN008 05/05 Q1024 NOSIG

2001/11/05 10:30
LFLL 051030Z 35009KT 1500 BR OVC002 06/06 Q1023 NOSIG

2001/11/05 10:19
LFKB 051019Z 15006KT 110V200 CAVOK 20/11 Q1017 NOSIG

2001/11/05 10:30
LFML 051030Z 34013KT 9000 FEW046 SCT100 BKN250 13/09 Q1018
     NOSIG

2001/11/05 10:30
LFMN 051030Z 32010KT 9999 FEW026 SCT060 BKN100 14/07 Q1016
     NOSIG

2001/11/05 10:30
LFOT 051030Z 04006KT 360V070 3000 BR BKN003 08/08 Q1026 NOSIG

2001/11/05 10:30
LFPB 051030Z 34004KT 310V020 9999 FEW023 BKN056 11/08 Q1026
     NOSIG

2001/11/05 10:30
LFPG 051030Z 35005KT 320V030 9999 SCT013 SCT050 10/07 Q1026
     NOSIG

2001/11/05 10:30
LFPO 051030Z 17002KT 4500 BR FEW020 BKN050 09/08 Q1026 BECMG
     5000

2001/11/05 10:30
LFQQ 051030Z 32005KT 9999 FEW015 SCT038 10/08 Q1026 NOSIG

2001/11/05 10:30
LFSB 051030Z 00000KT 3500 BR FEW009 BKN053 08/07 Q1024 NOSIG

2001/11/05 10:30
LFST 051030Z 01005KT 6000 NSC 10/07 Q1024 NOSIG

2001/11/05 10:30
LFBL 051030Z 07007KT 040V110 6000 BKN010 07/05 Q1024 BECMG
     SCT010

2001/11/05 10:30
LFPB 051030Z 34004KT 310V020 9999 FEW023 BKN056 11/08 Q1026
     NOSIG

2001/11/05 10:30
LFPG 051030Z 35005KT 320V030 9999 SCT013 SCT050 10/07 Q1026
     NOSIG

2001/11/05 10:30
LFQQ 051030Z 32005KT 9999 FEW015 SCT038 10/08 Q1026 NOSIG

2001/11/05 10:30
LFSC 051030Z 01004KT 340V060 9999 FEW033 BKN250 11/04 Q1024

2001/11/05 10:30
LFSD 051030Z 02007KT CAVOK 07/06 Q1024 NOSIG

2001/11/05 10:30
LFSO 051030Z 35003KT 2500 BR BKN008 BKN050 08/07 Q1025

2001/11/05 10:30
LFSX 051030Z 33003KT 4000S VCFG FEW008 BKN250 08/08 Q1024

2001/11/05 10:30
EICK 051030Z 24011KT 9999 SCT022 SCT038 11/09 Q1028 NOSIG

2001/11/05 10:30
EIDW 051030Z 24017KT 9999 -DZ BKN013 BKN020 09/07 Q1024 NOSIG

2001/11/05 10:30
EIKN 051030Z 25009KT 220V290 9999 BKN022 BKN032 09/06 Q1024
     NOSIG

2001/11/05 10:30
EINN 051030Z 28012KT 9999 FEW015 SCT030 BKN042 12/08 Q1027
     NOSIG

2001/11/05 10:00
WBGG 051000Z 23006KT 9999 FEW015CB SCT022 BKN150 27/23 Q1009 RMK
     F15 P00.0 R79 2CB SE-W

2001/11/05 10:30
UAFM 051030Z 31003MPS CAVOK 14/01 Q1024 NOSIG RMK 880///70

2001/11/05 10:30
UGEE 051030Z 00000MPS 9999 FEW100 18/03 Q1021 NOSIG 070

2001/11/05 10:30
UMMS 051030Z 23004G09MPS 6000 OVC018 07/04 Q1001 NOSIG RMK
     31290060

2001/11/05 10:20
ESNU 051020Z 33007KT 9999 FEW030 00/M04 Q0999 14110075

2001/11/05 10:30
LEAL 051030Z 32003KT 9000 -DZ FEW020 SCT045 OVC070 18/15 Q1021
     NOSIG

2001/11/05 10:30
LEAM 051030Z 00000KT 9999 FEW020 SCT050 BKN120 20/11 Q1020

2001/11/05 10:30
LEBB 051030Z 35005KT 9999 FEW030 BKN053 16/09 Q1026 NOSIG

2001/11/05 10:30
LEGR 051030Z 00000KT 8000 -RA FEW015 SCT045 OVC075 14/12 Q1021

2001/11/05 10:30
LEIB 051030Z 02003KT 9999 SCT028 SCT055 BKN080 21/16 Q1020
     NOSIG

2001/11/05 10:30
LEMD 051030Z 04006KT 360V070 9000 FEW040 BKN180 12/08 Q1022
     NOSIG

2001/11/05 10:30
LEMG 051030Z 14010KT 100V170 9999 FEW006 SCT020CB SCT025 OVC080
     18/16 Q1019 NOSIG

2001/11/05 10:30
LEMH 051030Z 27006KT 200V300 9999 SCT025 BKN200 21/14 Q1021

2001/11/05 10:30
LESO 051030Z 24003KT 9000 FEW035 SCT075 15/12 Q1024

2001/11/05 10:30
LEST 051030Z 04010KT 9999 FEW020 13/09 Q1024 NOSIG

2001/11/05 10:30
LEVC 051030Z 35004KT 6000 -RA SCT035 OVC060 17/16 Q1021 NOSIG

2001/11/05 10:30
LEVT 051030Z 35003KT 7000 SCT020 BKN050 11/10 Q1025

2001/11/05 10:30
LEZG 051030Z 30013KT 9999 FEW050 SCT100 14/07 Q1023

2001/11/05 10:30
DTTA 051030Z PEQPQPKT 9999 FEW020 SCT033 21/13 Q1020

2001/11/05 10:30
DTTA 051030Z 31010KT 9999 FEW020 SCT033 21/13 Q1020

2001/11/05 10:34
CWDA 051034Z AUTO 05005KT 05/05 RMK AO1 SLP184 T00510050 53009

2001/11/05 10:32
CWHP 051032Z AUTO 04011KT 05/05 RMK AO1 SLP152 T00530046 53003

2001/11/05 10:00
CWMZ 051000Z AUTO 00034KT 04/M02 RMK AO1 SLP252 T00441015
     53013

2001/11/05 10:00
CYCX 051000Z AUTO 05004KT 9SM OVC039 OVC058 OVC071 OVC094 06/05
     A2989 RMK SLP123

2001/11/05 10:00
CYIV 051000Z 16006KT 15SM FEW090 BKN250 04/M02 A2978 RMK AC1CI1
     VIA YNE SLP098

2001/11/05 10:35
KUDG 051035Z AUTO 34006KT 10SM CLR 08/02 A3008 RMK AO1

2001/11/05 10:30
LFJL 051030Z AUTO 29003KT 4000 BR SCT003 SCT021 OVC054 07/07
     Q1025

2001/11/05 10:30
LKKV 051030Z NIL

2001/11/05 10:30
LRBC 051030Z 18002MPS CAVOK 10/02 Q1015 NOSIG

2001/11/05 10:30
LRBM 051030Z VRB01MPS 9999 FEW040 08/M00 Q1019

2001/11/05 10:30
LRCL 051030Z 05002MPS CAVOK 07/00 Q1020 NOSIG

2001/11/05 10:30
LRCS 051030Z VRB02MPS CAVOK 10/01 Q1020

2001/11/05 10:30
LRCV 051030Z 00000MPS CAVOK 09/00 Q1019

2001/11/05 10:30
LRIA 051030Z VRB02MPS CAVOK 11/01 Q1016 NOSIG

2001/11/05 10:30
LROD 051030Z VRB02MPS CAVOK 09/02 Q1021 NOSIG

2001/11/05 10:30
LRSB 051030Z VRB01MPS CAVOK 08/M01 Q1018 NOSIG

2001/11/05 10:30
LRSM 051030Z VRB01MPS CAVOK 08/M01 Q1021 NOSIG

2001/11/05 10:30
LRSV 051030Z 34001MPS CAVOK 10/02 Q1016 NOSIG

2001/11/05 10:35
PAAK 051035Z AUTO 14026G40KT 1SM BKN001 OVC009 06/04 A2943 RMK
     AO1

2001/11/05 10:30
URMT 051030Z 15003MPS 9999 BKN009 OVC100 09/08 Q1021 NOSIG RMK
     SC07

2001/11/05 09:50
KEFD 050950Z 04004KT 10SM SKC 14/10 A3019

2001/11/05 10:36
K55D 051036Z AUTO 00000KT 10SM CLR M06/M08 A3034 RMK AO2

2001/11/05 10:35
K07G 051035Z AUTO 33003KT 10SM CLR 01/M02 A3036 RMK AO2

2001/11/05 10:38
KADC 051038Z AUTO 18005KT 10SM CLR 06/02 A3006 RMK AO2

2001/11/05 10:36
KAUM 051036Z AUTO 16006KT 10SM CLR 04/M04 A3027 RMK AO2

2001/11/05 10:36
KCMY 051036Z AUTO 00000KT 10SM CLR M04/M06 A3033 RMK AO2

2001/11/05 10:36
KDLL 051036Z AUTO 00000KT 10SM CLR M02/M04 A3034 RMK AO2

2001/11/05 10:37
KDYT 051037Z AUTO 00000KT 10SM CLR 03/02 A3019 RMK AO2

2001/11/05 10:37
KEGV 051037Z AUTO 00000KT 10SM CLR M03/M06 A3029 RMK AO2

2001/11/05 10:36
KFBL 051036Z AUTO 19008KT 10SM CLR 05/M02 A3024 RMK AO2

2001/11/05 10:36
KFFM 051036Z AUTO 14009KT 10SM CLR 08/01 A3003 RMK AO2

2001/11/05 10:35
KAEL 051035Z AUTO 16005KT 10SM CLR 06/M01 A3025 RMK AO2

2001/11/05 10:35
KBAX 051035Z AUTO 31006KT 10SM SCT036 02/M01 A3032 RMK AO2

2001/11/05 10:36
KETH 051036Z AUTO 15009KT 10SM CLR 11/01 A3003 RMK AO2

2001/11/05 10:34
KEVM 051034Z AUTO 04003KT 10SM CLR M01/M03 A3013 RMK AO2

2001/11/05 10:37
KJKJ 051037Z AUTO 16010KT 10SM CLR 07/02 A2999 RMK AO2

2001/11/05 10:37
KLJF 051037Z AUTO 17006KT 10SM CLR 07/01 A3017 RMK AO2

2001/11/05 10:37
KLVN 051037Z AUTO 20009KT 10SM CLR 09/M02 A3021 RMK AO2

2001/11/05 10:35
KMOP 051035Z AUTO 28004KT 10SM CLR M01/M01 A3037 RMK AO2

2001/11/05 10:35
KOEB 051035Z AUTO 00000KT 10SM CLR M01/M02 A3036 RMK AO2

2001/11/05 10:29
KVWU 051029Z AUTO 16009G17KT 10SM CLR 08/01 A3000 RMK AO2

2001/11/05 10:36
KBFD 051036Z AUTO 33010KT 10SM BKN023 01/M02 A3015 RMK AO2 FZRANO
     $

2001/11/05 10:36
KBML 051036Z AUTO 00000KT 1SM -SN BR FEW002 BKN008 OVC021 00/00
     A2982 RMK AO2 P0005

2001/11/05 10:36
KCDS 051036Z AUTO 31003KT 1/4SM FG OVC004 11/11 A3030 RMK AO2 TSNO
     $

2001/11/05 10:36
KMOD 051036Z AUTO 12003KT 2SM BR CLR 11/10 A3002 RMK AO2

2001/11/05 10:36
KONT 051036Z 10003KT 1 1/2SM BR BKN001 BKN006 13/13 A2998 RMK AO2
     VIS W1 BR BKN000 $

2001/11/05 10:36
KSBA 051036Z 07003KT 1/4SM R07/1600V2400FT FG VV001 14/14 A2996
     RMK AO2

2001/11/05 10:36
KITR 051036Z AUTO 22009KT 3/4SM BR CLR 02/02 A3020 RMK AO2 $

2001/11/05 10:35
SBCG 051035Z 03012KT 5000 BR BKN006 BKN007 BKN090 20/19 Q1013

2001/11/05 10:37
CYZX 051037Z 22004KT 2SM BR BKN008 OVC030 RMK SF5SC3 WNDY HILL
00000KT

2001/11/05 10:35
LEJR 051035Z 17013KT 8000 -SHRA SCT014TCU SCT026 BKN074 19/16
Q1016

2001/11/05 10:36
K5G9 051036Z AUTO 00000KT 10SM CLR 00/M02 A3035 RMK AO2

2001/11/05 10:35
KAMN 051035Z AUTO 28003KT 10SM CLR M04/M05 A3037 RMK AO2

2001/11/05 10:38
KFGN 051038Z AUTO 16014KT 10SM CLR 04/02 A2992 RMK AO2

2001/11/05 10:36
KHCD 051036Z AUTO 18007KT 10SM CLR 07/00 A3016 RMK AO2

2001/11/05 10:37
KIWA 051037Z AUTO 32014KT 10SM -RA SCT065 BKN075 BKN100 21/15
     A3002 RMK AO2

2001/11/05 10:37
KJYG 051037Z AUTO 17010KT 10SM SCT100 07/01 A3020 RMK AO2

2001/11/05 10:37
KLDM 051037Z AUTO 00000KT 10SM CLR M06/M06 A3037 RMK AO2

2001/11/05 10:37
KLVN 051037Z AUTO 20009KT 10SM CLR 09/M02 A3021 RMK AO2

2001/11/05 10:37
KMVE 051037Z AUTO 17006KT 10SM CLR 09/01 A3011 RMK AO2

2001/11/05 10:35
KRQB 051035Z AUTO 00000KT 10SM CLR M05/M07 A3037 RMK AO2

2001/11/05 10:37
KBFW 051037Z AUTO 00000KT 10SM CLR M06/M07 A3019 RMK AO2

2001/11/05 10:36
KELO 051036Z AUTO 19007KT 10SM CLR 08/M03 A3011 RMK AO2

2001/11/05 10:37
KIRS 051037Z AUTO 02004KT 10SM CLR M02/M04 A3037 RMK AO2

2001/11/05 10:37
KIWA 051037Z AUTO 32014KT 10SM -RA SCT065 BKN075 BKN100 21/15
     A3002 RMK AO2

2001/11/05 10:37
KMNH 051037Z AUTO 22008KT 10SM CLR 07/00 A3029 RMK AO2

2001/11/05 10:38
KMWM 051038Z AUTO 19005KT 10SM CLR 09/02 A3018 RMK AO2

2001/11/05 10:38
KPWC 051038Z AUTO 16006KT 10SM CLR 04/M01 A3009 RMK AO2

2001/11/05 10:35
KRMY 051035Z AUTO 00000KT 10SM CLR M02/M02 A3036 RMK AO2

2001/11/05 10:38
KROX 051038Z AUTO 18013KT 10SM CLR 07/03 A2990 RMK AO2

2001/11/05 10:35
KSAW 051035Z AUTO 00000KT 10SM CLR M05/M07 A3030 RMK AO2

2001/11/05 10:37
KCMA 051037Z AUTO 31007KT 1/2SM HZ BKN001 OVC007 14/M01 A2996 RMK
     AO2 $

2001/11/05 10:37
KPPF 051037Z AUTO 00000KT 1 3/4SM BR CLR 09/09 A3030 RMK AO2

2001/11/05 10:37
KVIH 051037Z AUTO 23003KT 1 3/4SM BR OVC001 05/05 A3030 RMK AO2
     $

2001/11/05 10:37
KVNY 051037Z 00000KT 2 1/2SM BR CLR 12/12 A2996 RMK AO2 $

2001/11/05 10:37
PALH 051037Z 00000KT 8SM BKN007 OVC060 M04/M06 A2986 RMK AO2

2001/11/05 10:37
KMSO 051037Z 00000KT 1/2SM FZFG VV001 M03/M03 A3005 RMK AO2

2001/11/05 10:37
KCQT 051037Z AUTO 00000KT 1 3/4SM BR CLR 15/14 A2996 RMK AO2
     TSNO

2001/11/05 10:37
KAST 051037Z AUTO 16003KT 1 3/4SM BR CLR 06/06 A3017 RMK AO2 VIS
     3/4 RWY 08

2001/11/05 10:38
PHLI 051038Z 06013G20KT 4SM -RA FEW008 BKN028 OVC060 23/21 A3008
     RMK AO2 RAB36 P0005

2001/11/05 10:34
KSMP 051034Z AUTO 25007KT 1/4SM +SN FEW002 OVC007 00/M34 A3002 RMK
     AO2 SNB05 P0001 TSNO $

2001/11/05 10:38
KD87 051038Z AUTO 04004KT 10SM CLR M01/M02 A3035 RMK AO2

2001/11/05 10:35
KACB 051035Z AUTO 00000KT 10SM CLR M03/M04 A3037 RMK AO2

2001/11/05 10:35
KARV 051035Z AUTO 00000KT 10SM CLR 00/M06 A3028 RMK AO2

2001/11/05 10:37
KCPW 051037Z AUTO 26010KT 10SM OVC005 02/01 A3054 RMK AO2

2001/11/05 10:36
KETB 051036Z AUTO 00000KT 10SM CLR M02/M02 A3036 RMK AO2

2001/11/05 10:37
KHYX 051037Z AUTO 32005KT 10SM CLR 01/M02 A3037 RMK AO2

2001/11/05 10:38
KILL 051038Z AUTO 15006KT 10SM CLR 08/00 A3012 RMK AO2

2001/11/05 10:35
KMCD 051035Z AUTO 00000KT 10SM CLR M02/M02 A3035 RMK AO2

2001/11/05 10:38
KRNH 051038Z AUTO 15005KT 10SM CLR 04/M04 A3023 RMK AO2

2001/11/05 10:37
KRZN 051037Z AUTO 17006KT 10SM CLR 06/M03 A3020 RMK AO2

2001/11/05 10:35
KTTF 051035Z AUTO 32003KT 10SM CLR 01/M01 A3034 RMK AO2

2001/11/05 10:30
K7R5 051030Z 06007KT 10SM SKC 14/08 A3016

2001/11/05 10:38
KGAG 051038Z AUTO 15003KT 1/4SM FG BKN001 BKN006 06/06 A3030 RMK
     AO2

2001/11/05 10:38
KHWO 051038Z AUTO 02015KT 10SM -RA BKN027 OVC039 21/18 A2965 RMK
     AO2 P0006

2001/11/05 10:38
KSLK 051038Z AUTO VRB05KT 1 3/4SM -SN BR BKN008 OVC014 00/M01
     A2990 RMK AO2 P0001

2001/11/05 10:38
KSXT 051038Z AUTO 32003KT 1 3/4SM BR OVC001 07/07 A3016 RMK AO2
     VIS 1/2V5 RAE08 P0000 TSNO $

2001/11/05 10:30
GCTS 051030Z VRB02KT 9999 FEW020 BKN240 23/17 Q1017 NOSIG

2001/11/05 10:30
VDPP 051030Z 00000KT 9000 FEW020CB FEW150 FEW300 30/25 Q1010
     CB:S/W

2001/11/05 10:30
WMKK 051030Z 31004KT 9999 FEW017CB SCT140 BKN270 29/26 Q1009 NOSIG
     RMK F05 P0.0 R77 2CB W + N-NE + E + SE HZ A/R

2001/11/05 10:30
WMKP 051030Z 06016KT 010V100 6000 -TSRA FEW010 FEW017CB SCT025
     BKN270 27/23 Q1010 RMK F95 R081 2CB NW-E + SE.

2001/11/05 10:30
UGGG 051030Z 16002MPS 9999 SKC 18/11 Q1020 NOSIG

2001/11/05 10:30
ZBAA 051030Z 36004MPS 330V030 CAVOK 07/M06 Q1031 NOSIG

2001/11/05 10:30
ZBTJ 051030Z 34004MPS CAVOK 07/M09 Q1030 NOSIG

2001/11/05 10:30
ZBYN 051030Z 26002MPS CAVOK 07/M10 Q1029 NOSIG

2001/11/05 10:30
ZGGG 051030Z 36006MPS 330V030 CAVOK 21/14 Q1021 NOSIG

2001/11/05 10:30
ZSHC 051030Z VRB02MPS 4000 BR SCT020 OVC040 15/10 Q1026

2001/11/05 10:30
ZWWW 051030Z 01001MPS CAVOK 08/M02 Q1024 NOSIG

2001/11/05 10:30
ZYTL 051030Z 01006MPS 9999 SCT030 05/M06 Q1028

2001/11/05 10:30
EPGD 051030Z 30012G17MPS 9999 FEW023CB SCT031 07/01 Q1007

2001/11/05 10:30
EPKK 051030Z 26008MPS 9999 -RA FEW020 BKN033 10/04 Q1016

2001/11/05 10:30
EPPO 051030Z 29008MPS 9999 SCT033CB 07/02 Q1015

2001/11/05 10:30
EPWA 051030Z 28009MPS 260V350 9999 FEW020 050 08/05 Q1011
     NOSIG

2001/11/05 10:30
LFOE 051030Z 35003KT CAVOK 10/09 Q1027

2001/11/05 10:30
EIDW 051030Z 24017KT 9999 SCT005 BKN008 BKN015 09/07 Q1024 TEMPO
     SCT015 BKN020

2001/11/05 10:30
WBGG 051030Z 23007KT 3000 RA FEW015CB BKN022 BKN150 25/24 Q1009
     RMK F62 2CB SW-NW

2001/11/05 10:30
WBKK 051030Z 00000KT 9999 FEW014 FEW016CB 27/25 Q1009 NOSIG RMK
     R86 1CB N

2001/11/05 10:30
WBSB 051030Z 35003KT 9999 FEW016 FEW017CB SCT140 BKN300 28/24
     Q1009 NOSIG RMK CB:NE TO SE

2001/11/05 10:30
RJAA 051030Z VRB01KT 8000 SCT030 BKN060 14/11 Q1019 NOSIG

2001/11/05 10:30
RJCC 051030Z 14009KT 9999 SHRA FEW004 SCT008 BKN015 08/07
     Q1014

2001/11/05 10:30
RJFF 051030Z 17005KT 130V280 6000 -SHRA FEW004 SCT009 BKN018 16/15
     Q1014

2001/11/05 10:30
RJNN 051030Z VRB03KT 1800 SHRA BR FEW005 SCT010 BKN020 13/13
     Q1017

2001/11/05 10:30
RJOO 051030Z 08007KT 040V120 9999 FEW015 BKN040 BKN080 15/13
     Q1014

2001/11/05 10:30
RJTT 051030Z 01009KT 9000 -RA FEW025 BKN030 BKN045 14/08 Q1019

2001/11/05 10:30
ROAH 051030Z 30009KT 9999 FEW015 25/21 Q1016

2001/11/05 10:30
UGGG 051030Z 16002MPS 9999 SKC 18/11 Q1020 NOSIG

2001/11/05 10:00
OEKM 051000Z 10014KT 1000 FEW025 24/M02 Q1027 NOSIG

2001/11/05 10:30
LEZL 051030Z 17006KT 9999 FEW010 SCT030 BKN100 20/17 Q1016
     NOSIG

2001/11/05 10:00
CWAQ 051000Z AUTO 07003KT M02/M02 RMK AO1 T10161020

2001/11/05 10:00
CWDK 051000Z AUTO 36014KT 05/M04 RMK AO1 PK WND 36020/0957 SLP111
     T00461035 53003

2001/11/05 10:00
CXTV 051000Z AUTO 33012KT M18/M19 RMK AO1 PK WND 34016/0934 SLP233
     T11801192 51018

2001/11/05 10:20
EDOP 051020Z 28012KT 250V310 9999 FEW030 08/04 Q1019

2001/11/05 10:30
RJBB 051030Z 09005KT 7000 -SHRA FEW020 SCT030 BKN080 15/13 Q1014
     NOSIG

2001/11/05 10:30
ZYTX 051030Z 36005MPS 9999 OVC030 M00/M03 Q1028

2001/11/05 10:38
KY15 051038Z AUTO 26003KT 10SM CLR 01/M01 A3036 RMK AO2

2001/11/05 10:36
KAIT 051036Z AUTO 17009KT 10SM CLR 07/01 A3011 RMK AO2

2001/11/05 10:38
KISQ 051038Z AUTO 00000KT 10SM CLR M03/M03 A3035 RMK AO2

2001/11/05 10:38
KMYP 051038Z AUTO 22008KT 10SM CLR M01/M06 A3064 RMK AO2

2001/11/05 10:38
KONZ 051038Z AUTO 32005KT 10SM CLR 03/M02 A3033 RMK AO2

2001/11/05 10:37
KSTE 051037Z AUTO 00000KT 10SM CLR M03/M04 A3033 RMK AO2

2001/11/05 10:39
KSUW 051039Z AUTO 00000KT 10SM CLR M02/M02 A3017 RMK AO2

2001/11/05 10:35
KTEW 051035Z AUTO 29003KT 10SM CLR M02/M06 A3037 RMK AO2

2001/11/05 10:39
KXVG 051039Z AUTO 15004KT 10SM CLR 07/M01 A3007 RMK AO2

2001/11/05 10:38
KERY 051038Z AUTO 26004KT 10SM CLR M03/M04 A3035 RMK AO2

2001/11/05 10:38
KISQ 051038Z AUTO 00000KT 10SM CLR M03/M03 A3035 RMK AO2

2001/11/05 10:31
KMZH 051031Z AUTO 20007KT 10SM CLR 06/M03 A3017 RMK AO2

2001/11/05 10:38
KONA 051038Z AUTO 14003KT 10SM CLR 02/00 A3030 RMK AO2

2001/11/05 10:40
KRRL 051040Z AUTO 00000KT 10SM CLR M06/M07 A3031 RMK AO2

2001/11/05 10:39
KTZR 051039Z AUTO 35004KT 10SM CLR 02/M01 A3031 RMK AO2

2001/11/05 10:39
KFHR 051039Z AUTO 00000KT 10SM CLR 02/02 A3013 RMK AO2

2001/11/05 10:39
KFHR 051039Z AUTO 00000KT 10SM CLR 02/02 A3013 RMK AO2

2001/11/05 10:39
KHIE 051039Z AUTO 22004KT 6SM -RA BR OVC016 01/00 A2984 RMK AO2
     SNB00E09 P0005

2001/11/05 10:39
KPMP 051039Z AUTO 05020G30KT 7SM -RA SCT023 BKN030 OVC035 22/18
     A2965 RMK AO2 PK WND 05033/1003 P0006

2001/11/05 10:39
PAGK 051039Z AUTO 00000KT 10SM OVC009 M12/M13 A2978 RMK AO2
     TSNO

2001/11/05 10:39
KSJX 051039Z AUTO 00000KT 10SM CLR 00/M02 A3036 RMK AO2

2001/11/05 10:36
KCVX 051036Z AUTO 00000KT 10SM CLR M01/M02 A3038 RMK AO2

2001/11/05 10:38
KFSE 051038Z AUTO 16013KT 10SM CLR 08/01 A2999 RMK AO2

2001/11/05 10:40
KMDZ 051040Z AUTO 16006KT 10SM CLR 03/M05 A3028 RMK AO2

2001/11/05 10:36
KMJQ 051036Z AUTO 18009KT 10SM CLR 05/M01 A3022 RMK AO2

2001/11/05 10:31
KMZH 051031Z AUTO 20007KT 10SM CLR 06/M03 A3017 RMK AO2

2001/11/05 10:38
KOWA 051038Z AUTO 17014G20KT 10SM CLR 08/M02 A3022 RMK AO2

2001/11/05 10:38
KPDC 051038Z AUTO 12006KT 10SM CLR 01/00 A3033 RMK AO2

2001/11/05 10:39
KPNM 051039Z AUTO 15005KT 10SM CLR 06/M02 A3017 RMK AO2

2001/11/05 10:39
KUNU 051039Z AUTO 11004KT 10SM CLR M01/M03 A3037 RMK AO2

2001/11/05 10:39
KASJ 051039Z AUTO 00000KT 10SM CLR 03/02 A3007 RMK AO2

2001/11/05 10:35
KCAD 051035Z AUTO 00000KT 10SM CLR M05/M07 A3035 RMK AO2

2001/11/05 10:40
KEFT 051040Z AUTO 00000KT 10SM CLR 04/M01 A3039 RMK AO2

2001/11/05 10:40
KFQD 051040Z AUTO 00000KT 10SM CLR 06/02 A3012 RMK AO2

2001/11/05 10:40
KHRJ 051040Z AUTO 00000KT 10SM CLR 04/04 A3008 RMK AO2

2001/11/05 10:39
KOEO 051039Z AUTO 10007KT 10SM CLR 06/M04 A3022 RMK AO2

2001/11/05 10:39
KRGK 051039Z AUTO 13008KT 10SM CLR 07/M03 A3025 RMK AO2

2001/11/05 10:39
KW99 051039Z AUTO 00000KT 10SM SCT042 06/01 A3020 RMK AO2

2001/11/05 10:37
KAQP 051037Z AUTO 17007KT 10SM CLR 08/02 A3008 RMK AO2

2001/11/05 10:40
KEDE 051040Z AUTO 01003KT 10SM CLR 09/05 A3005 RMK AO2

2001/11/05 10:42
KHLX 051042Z AUTO 31014G17KT 10SM CLR 09/02 A3012 RMK AO1

2001/11/05 10:40
KJMR 051040Z AUTO 00000KT 10SM CLR 06/M02 A3018 RMK AO2

2001/11/05 10:39
KLCK 051039Z AUTO 36008KT 10SM CLR 04/00 A3031 RMK AO2

2001/11/05 10:39
KLWB 051039Z AUTO 34006KT 10SM CLR 04/M02 A3018 RMK AO2

2001/11/05 10:41
KMQI 051041Z AUTO 33007KT 10SM CLR 14/09 A3003 RMK AO2

2001/11/05 10:40
KOLV 051040Z AUTO 00000KT 10SM CLR 09/04 A3025 RMK A01 P000

2001/11/05 10:41
KPBH 051041Z AUTO 16003KT 10SM CLR 01/M07 A3028 RMK AO2

2001/11/05 10:39
KVUJ 051039Z AUTO 00000KT 10SM CLR 04/03 A3011 RMK AO2

2001/11/05 10:39
KW99 051039Z AUTO 00000KT 10SM SCT042 06/01 A3020 RMK AO2

2001/11/05 10:35
PAGA 051035Z AUTO 00000KT 10SM CLR M24/M28 A3013 RMK AO1
     T12441277

2001/11/05 10:35
PAIM 051035Z AUTO 00000KT 10SM OVC070 M13/M18 A3004 RMK AO1
     T11281183

2001/11/05 10:40
KACV 051040Z AUTO 01003KT 3SM BR OVC028 09/09 A3018 RMK AO2

2001/11/05 10:40
KCEC 051040Z AUTO 00000KT 2 1/2SM BR BKN004 OVC019 11/11 A3020 RMK
     AO2 RAE11 P0001

2001/11/05 10:40
KCFV 051040Z AUTO 00000KT 3/4SM BR BKN001 09/09 A3030 RMK AO2

2001/11/05 10:40
KHRI 051040Z AUTO 00000KT 2 1/2SM BR SCT120 05/04 A3001 RMK AO2
     $

2001/11/05 10:40
KPPF 051040Z AUTO 00000KT 1SM BR VV001 09/09 A3030 RMK AO2

2001/11/05 10:40
KPWA 051040Z AUTO 00000KT 1/2SM FG FEW001 OVC033 10/10 A3031 RMK
     AO2 $

2001/11/05 10:40
KTRL 051040Z AUTO 02004KT 2SM BR OVC001 12/12 A3027 RMK AO2
     P0001

2001/11/05 10:39
KAIA 051039Z AUTO 00000KT 1 1/2SM BR CLR M03/M03 A3012 RMK AO2
     $

2001/11/05 10:41
KEPH 051041Z AUTO 08003KT 2SM BR OVC001 06/06 A2996 RMK AO2

2001/11/05 10:41
KFDR 051041Z AUTO 01004KT 2 1/2SM BR SCT022 OVC038 14/14 A3027 RMK
     AO2 P0001 $

2001/11/05 10:40
KEMP 051040Z AUTO 00000KT 1 1/4SM BR CLR 07/07 A3029 RMK AO2 $

2001/11/05 10:40
KSXT 051040Z AUTO 32003KT 3SM BR OVC001 07/07 A3016 RMK AO2 RAE08
     P0000 TSNO $

2001/11/05 10:33
PAED 051033Z 08004KT 3/4SM IC BR FEW000 SCT002 OVC004 M05/M05
     A2984 RMK RVRNO TWR VIS 2 FG FEW000 CIG LWR DER

2001/11/05 10:10
TJNR 051010Z 00000KT 9999 VCSH BKN025 BKN200 24/24 A2982 RMK VCSH
     W S LP100 WR//

2001/11/05 10:10
TJNR 051010Z 00000KT 9999 VCSH BKN025 BKN200 24/24 A2982 RMK VCSH
W S LP100 WR//

2001/11/05 10:38
MROC 051038Z 00000KT 1500 -DZ BR FEW001 BKN008 20/20 A2989

2001/11/05 10:41
CYFC 051041Z 05003KT 15SM FEW010 OVC033 RMK SF2SC6

2001/11/05 10:34
EGQM 051034Z 24004KT 9999 RA SCT004 OVC024 06/04 Q1021 YLO

2001/11/05 10:30
YAYE 1030Z 18018KT //// 23/15 Q1012 RMK RF00.0/000.0 CLD:CLR BLW
     125 VIS:////

2001/11/05 10:30
YBMA 1030Z 00000KT //// 29/17 Q1011 RMK RF00.0/000.0 CLD://////
     VIS:9999

2001/11/05 10:00
SLCA 051000Z 00000KT 9999 SKC 16/15 Q1012

2001/11/05 10:00
SLCO 051000Z 00000KT 0200 FG SCT080 20/20 Q1015

2001/11/05 10:00
SLCP 051000Z 00000KT 0100 FG VV/// 21/21 Q1012

2001/11/05 10:00
SLJO 051000Z 36004KT 9999 SCT080 BKN200 22/22 Q1008

2001/11/05 10:00
SLMG 051000Z 00000KT 9999 SCT080 BKN200 22/22 Q1009

2001/11/05 10:00
SLOR 051000Z 00000KT 9999 FEW200 02/00 Q1029

2001/11/05 10:00
SLPS 051000Z 00000KT 1000 BR BKN070 22/22 Q1009

2001/11/05 10:00
SLRB 051000Z 00000KT 9999 FEW015 SCT200 19/19 Q1012

2001/11/05 10:00
SLRI 051000Z 00000KT 1000 BR SCT006 BKN080 23/23 Q1009

2001/11/05 10:00
SLSA 051000Z 00000KT 9999 SCT080 BKN200 22/22 Q1009

2001/11/05 10:00
SLSI 051000Z 00000KT 9999 BKN006 BKN200 20/20 Q1012

2001/11/05 10:00
SLSU 051000Z 00000KT 9999 FEW200 10/09 Q1024

2001/11/05 10:00
SLYA 051000Z 00000KT 9999 SKC 18/16 Q1010

2001/11/05 10:00
MDSD 051000Z VRB03KT 9999 FEW018TCU SCT018 SCT300 25/23 Q1005

2001/11/05 10:30
UKBB 051030Z 24008G13MPS 200V260 9999 SCT040 BKN080 10/02 Q1012
     NOSIG 18CLRD70

2001/11/05 10:30
UKOO 051030Z 21004MPS CAVOK 11/M01 Q1018 NOSIG 16090070

2001/11/05 09:45
LMML 050945Z 33010KT 290V020 9999 FEW045 19/07 Q1019 NOSIG

2001/11/05 10:30
LCLK 051030Z 15012KT 9999 FEW020 26/16 Q1015 NOSIG

2001/11/05 10:30
UUEE 051030Z 19007MPS 9999 OVC015 06/04 Q0999 NOSIG RMK 7510095
     25//////

2001/11/05 10:30
ULLI 051030Z 05005MPS 4600 -RA OVC010 02/01 Q0988 NOSIG RMK
     88290052

2001/11/05 10:30
UUDD 051030Z 19006MPS 9999 BKN018CB 06/04 Q1001 NOSIG RMK
     64210050

2001/11/05 10:30
UUEE 051030Z 19007MPS 9999 OVC015 06/04 Q0999 NOSIG RMK 7510095
     25//////

2001/11/05 10:30
UUWW 051030Z 21006MPS 9999 BKN015CB 06/04 Q0999 NOSIG RMK
     24190060

2001/11/05 10:00
SLTJ 051000Z 00000KT 9999 SKC 13/11 Q1013

2001/11/05 10:30
LEBL 051030Z 33008KT 8000 SCT022 BKN096 15/08 Q1021 NOSIG

2001/11/05 10:20
EDAH 051020Z 28015G25KT 9999 SCT027 08/M02 Q1015

2001/11/05 10:00
SLET 051000Z 36004KT 9999 BKN200 21/19 Q1009

2001/11/05 10:39
KAVC 051039Z AUTO 01003KT 7SM CLR 09/03 A3016 RMK AO1

2001/11/05 10:39
KBQK 051039Z AUTO 01005KT 10SM CLR 14/12 A3002 RMK AO2

2001/11/05 10:41
KCCO 051041Z AUTO 00000KT 10SM CLR 02/02 A3014 RMK AO1

2001/11/05 10:31
KCDD 051031Z AUTO 18009G14KT 10SM SCT095 07/M05 A3008 RMK AO2

2001/11/05 10:42
KCJR 051042Z AUTO 35005KT 10SM CLR 09/M02 A3017 RMK AO1

2001/11/05 10:39
KLXL 051039Z AUTO 14007KT 10SM CLR 06/M01 A3013 RMK AO2

2001/11/05 10:37
KMGG 051037Z AUTO 17005KT 10SM CLR 06/M01 A3017 RMK AO2 LTG DATA
     MISG

2001/11/05 10:42
KMKJ 051042Z AUTO 31003KT 10SM CLR 06/M01 A3021 RMK AO1

2001/11/05 10:44
KMWK 051044Z AUTO 00000KT 10SM CLR 07/02 A3012 RMK AO2

2001/11/05 10:38
KRSN 051038Z AUTO 00000KT 13/09 A3024 RMK AO1

2001/11/05 10:37
KRYV 051037Z AUTO 00000KT 10SM CLR M03/M04 A3036 RMK AO2

2001/11/05 10:43
KFDK 051043Z AUTO 33007KT 10SM SCT070 SCT090 08/01 A3017 RMK
     AO2

2001/11/05 10:41
KBCB 051041Z AUTO 35016KT 10SM CLR 07/M01 A3016 RMK AO1

2001/11/05 10:36
KIER 051036Z AUTO 35003KT 10SM CLR 12/04 A3023 RMK AO1

2001/11/05 10:38
KJYM 051038Z AUTO 00000KT 10SM CLR M01/M04 A3034 RMK AO2

2001/11/05 10:33
KLNP 051033Z AUTO 33005KT 10SM CLR 06/00 A3022 RMK AO1

2001/11/05 10:37
KMRJ 051037Z AUTO 15005KT 10SM CLR 05/M05 A3036 RMK AO2

2001/11/05 10:41
KOCW 051041Z AUTO 00000KT 10SM CLR 03/02 A3006 RMK AO2

2001/11/05 10:42
KPTB 051042Z AUTO 02011G18KT 10SM CLR 11/01 A3012 RMK AO1

2001/11/05 10:38
KSAZ 051038Z AUTO 18008KT 10SM CLR 06/02 A3008 RMK AO2

2001/11/05 10:40
KWDR 051040Z AUTO 33005KT 10SM CLR 07/02 A3016 RMK AO1

2001/11/05 10:42
KFLL 051042Z 05017G32KT 7SM -RA SCT022 BKN029 OVC035 22/20 A2963
     RMK AO2 PK WND 03032/1035 P0007

2001/11/05 10:42
KMRY 051042Z AUTO 00000KT 8SM SCT004 11/11 A3006 RMK AO2

2001/11/05 10:42
KSLN 051042Z AUTO 00000KT 1 1/2SM BR BKN001 BKN009 08/07 A3027 RMK
     AO2

2001/11/05 10:42
KSMO 051042Z 00000KT 1 1/4SM BR CLR 14/14 A2996 RMK AO2

2001/11/05 10:42
KBGM 051042Z 30006KT 10SM FEW016 01/00 A3004 RMK AO2

2001/11/05 10:30
VTBD 051030Z 09003KT 9999 FEW020CB SCT300 31/27 Q1010 CB W NW

2001/11/05 10:30
VTBU 051030Z 22002KT 9999 FEW020CB BKN300 30/25 Q1009 A2982 CB
     NW

2001/11/05 10:30
VTCC 051030Z 20004KT 9999 FEW032 30/24 Q1009 A2982

2001/11/05 10:30
VTSP 051030Z 03004KT 6000 -RA FEW018CB BKN100 BKN300 27/27
     Q1010/2983 CB SW-NW

2001/11/05 10:30
VTSS 051030Z 27004KT 8000 SCT018 SCT028 BKN120 27/24 Q1009 A2982
     RERA

2001/11/05 10:30
VVDN 051030Z VRB01MPS 9999 FEW015 27/24 Q1015 NOSIG

2001/11/05 10:30
VVNB 051030Z 05007MPS 9999 -RA FEW013 BKN040 23/21 Q1017 NOSIG

2001/11/05 10:30
VVTS 051030Z 11002MPS 9999 FEW020 BKN050 31/25 Q1010 NOSIG

2001/11/05 10:40
MYEG 051040Z AUTO 15019G31KT 10SM -RA SCT012 SCT030 BKN075 26/23
     A2942 RMK AO2

2001/11/05 10:00
MHLC 051000Z 21004KT 160V260 2000 RA (63) BKN024 OVC070 23/23
     Q1010 2 KM TDS PCPN

2001/11/05 10:00
MHLM 051000Z 07001KT 8000 FEW004 SCT026 BKN080 23/23 Q1010

2001/11/05 10:00
MHCA 051000Z 04001KT 21/21 Q1010

2001/11/05 10:00
MHLE 051000Z 02006KT 350V080 16/15 Q1018

2001/11/05 10:00
MHNO 051000Z 36008KT 20/19 Q1012

2001/11/05 10:00
MHRO 051000Z 32005KT 240V010 25/24 Q1007

2001/11/05 10:00
MHSR 051000Z 34006KT 18/17 Q1016

2001/11/05 10:00
MHTE 051000Z 00//0KT 23/23 Q1011

2001/11/05 10:00
MHYR 051000Z 17002KT 20/20 Q1014

2001/11/05 10:30
LDDU 051030Z 20005KT CAVOK 17/01 Q1016 NOSIG

2001/11/05 10:30
LDPL 051030Z 31006KT 280V350 CAVOK 17/09 Q1016 NOSIG

2001/11/05 10:30
LDRI 051030Z 29007KT 230V010 CAVOK 17/05 Q1016

2001/11/05 10:30
LDSP 051030Z VRB03KT CAVOK 18/04 Q1015 NOSIG

2001/11/05 10:30
LDZA 051030Z VRB01KT CAVOK 08/02 Q1020 NOSIG

2001/11/05 10:30
LDZD 051030Z 32004KT CAVOK 18/09 Q1016 NOSIG

2001/11/05 10:30
LYBE 051030Z 00000KT CAVOK 10/M01 Q1020 NOSIG

2001/11/05 10:30
LYNI 051030Z 20002KT CAVOK 07/M02 Q1020 NOSIG

2001/11/05 10:30
LYPG 051030Z 15002KT CAVOK 17/M01 Q1018 NOSIG

2001/11/05 10:30
LYTV 051030Z 24002KT CAVOK 17/05 Q1016 NOSIG

2001/11/05 10:30
WBGG 051030Z 23007KT 3000 RA FEW015CB BKN022 BKN150 25/24 Q1009
     TEMPO 2000 TSRA FEW014CB BKN018 RMK F62 R93 2CB SW-NW

2001/11/05 10:30
LEGE 051030Z 00000KT 9999 FEW040 SCT100 BKN180 16/09 Q1021

2001/11/05 10:00
CWIJ 051000Z AUTO 35024G29KT M12/M14 RMK AO1 PK WND 36031/0929
     SLP999 T11181136 53015

2001/11/05 10:19
CWQV 051019Z AUTO 00000KT 04/02 RMK AO1 T00370021

2001/11/05 10:30
KARL 051030Z AUTO 27026G30KT 11/M07 RMK AO1 RH 30 PCPNY

2001/11/05 10:21
KBFU 051021Z AUTO 27006G08KT 07/M06 RMK AO1 RH 40

2001/11/05 10:16
KBIT 051016Z AUTO 27007G09KT 07/M08 RMK AO1 RH 33

2001/11/05 10:17
KBVR 051017Z AUTO 23016G18KT 06/M04 RMK AO1 RH 49

2001/11/05 10:30
KCTD 051030Z AUTO 18008G10KT 06/M04 RMK AO1 RH 48

2001/11/05 10:20
KDHS 051020Z AUTO 14003G04KT 01/M07 RMK AO1 RH 59

2001/11/05 10:31
KHLD 051031Z AUTO 27004G06KT 08/M08 RMK AO1 RH 32

2001/11/05 10:36
KIER 051036Z AUTO 35003KT 10SM CLR 12/04 A3023 RMK AO1

2001/11/05 10:05
KIKA 051005Z AUTO 14010G11KT 06/M07 RMK AO1 RH 38

2001/11/05 10:30
KMTR 051030Z AUTO 09003G04KT 09/M11 RMK AO1 RH 23

2001/11/05 10:31
KPAT 051031Z AUTO 23012G14KT 06/M04 RMK AO1 RH 45

2001/11/05 10:19
KPIN 051019Z AUTO 27003G04KT 09/M09 RMK AO1 RH 27

2001/11/05 10:18
KPUM 051018Z AUTO 27007G09KT 09/M06 RMK AO1 RH 35

2001/11/05 10:18
KTMH 051018Z AUTO 23010G10KT 06/M07 RMK AO1 RH 38

2001/11/05 10:19
KVDW 051019Z AUTO 23010G10KT 06/M07 RMK AO1 RH 42

2001/11/05 10:19
KWTR 051019Z AUTO 27010G10KT 04/M06 RMK AO1 RH 51

2001/11/05 10:23
CWQO 051023Z AUTO 04010KT 03/03 RMK AO1 T00320025

2001/11/05 10:22
CWQR 051022Z AUTO 05011KT 04/03 RMK AO1 T00380034

2001/11/05 10:12
CWXC 051012Z AUTO 03003KT 02/M00 RMK AO1 SLP152 T00221004
     53012

2001/11/05 10:40
KDPL 051040Z AUTO 00000KT 10SM CLR 04/04 A3005 RMK AO2

2001/11/05 10:42
KEZF 051042Z AUTO 33007KT 10SM CLR 08/M04 A3016 RMK AO1

2001/11/05 10:42
KHSP 051042Z AUTO 33013G19KT 10SM 02/M05 A3011 RMK AO1

2001/11/05 10:40
KIPJ 051040Z AUTO 00000KT 10SM CLR 03/01 A3011 RMK AO1

2001/11/05 10:41
KMRN 051041Z AUTO 00000KT 10SM CLR 05/01 A3011 RMK AO2

2001/11/05 10:40
KPHN 051040Z AUTO 30006KT 10SM BKN037 02/M01 A3033 RMK AO1

2001/11/05 10:42
KTDF 051042Z AUTO 00000KT 10SM CLR 08/M03 A3010 RMK AO1

2001/11/05 10:42
KUES 051042Z AUTO 00000KT 10SM CLR 00/M01 A3037 RMK AO2

2001/11/05 10:42
KEXX 051042Z AUTO 00000KT 10SM CLR 04/01 A3011 RMK AO2

2001/11/05 10:43
KFKN 051043Z AUTO 00000KT 10SM CLR 03/02 A3009 RMK AO1

2001/11/05 10:40
KHBI 051040Z AUTO 00000KT 10SM CLR 06/03 A3009 RMK AO1

2001/11/05 10:42
KPSK 051042Z AUTO 34013G17KT 10SM CLR 08/M02 A3016 RMK AO1

2001/11/05 10:41
KSFQ 051041Z AUTO 35003KT 10SM CLR 08/05 A3009 RMK AO1

2001/11/05 10:42
KSGS 051042Z AUTO 00000KT 10SM CLR 06/M02 A3021 RMK AO2

2001/11/05 10:43
KSHD 051043Z AUTO 04007KT 10SM CLR 06/00 A3016 RMK AO2

2001/11/05 10:40
KTTA 051040Z AUTO 00000KT 7SM CLR 02/01 A3010 RMK AO2

2001/11/05 10:39
KTWM 051039Z AUTO 00000KT 10SM CLR M02/M03 A3018 RMK AO2

2001/11/05 10:43
KRHP 051043Z AUTO 00000KT 10SM CLR 00/M01 A3018 RMK AO2

2001/11/05 10:40
KDNN 051040Z AUTO 34003KT 10SM CLR 06/03 A3017 RMK AO1

2001/11/05 10:41
KFVX 051041Z AUTO 05004KT 10SM CLR 05/02 A3014 RMK AO1

2001/11/05 10:44
KGEV 051044Z AUTO 33012G17KT 10SM CLR 09/01 A3013 RMK AO2

2001/11/05 10:42
KMFV 051042Z AUTO 34014G30KT 10SM CLR 13/M01 A3006 RMK AO1

2001/11/05 10:42
KMTV 051042Z AUTO 31003KT 10SM CLR 00/M01 A3015 RMK AO1

2001/11/05 10:40
KOKV 051040Z AUTO 30012KT 10SM CLR 07/M01 A3016 RMK AO1

2001/11/05 10:39
KRPD 051039Z AUTO 14003KT 10SM CLR 03/M02 A3026 RMK AO2

2001/11/05 10:41
KSVH 051041Z AUTO 35003KT 10SM CLR 13/04 A3011 RMK AO2

2001/11/05 10:43
KUKF 051043Z AUTO 00000KT 10SM CLR 06/M01 A3014 RMK AO1

2001/11/05 10:42
KVJI 051042Z AUTO 00000KT 10SM CLR 04/02 A3018 RMK AO1

2001/11/05 10:40
KROS 051040Z AUTO VRB05KT 6SM HZ CLR 04/M02 A3019 RMK

2001/11/05 10:43
KAYS 051043Z AUTO 02005KT 10SM CLR 14/08 A3003 RMK AO1

2001/11/05 10:43
KHRO 051043Z AUTO 27003KT 4SM BR BKN030 12/11 A3030 RMK AO2

2001/11/05 10:43
KIWI 051043Z AUTO 08006KT 10SM SCT011 BKN018 OVC055 09/08 A2978
     RMK AO2

2001/11/05 10:44
KDEW 051044Z AUTO 00000KT 1 3/4SM BR SCT110 03/03 A2996 RMK
     AO2

2001/11/05 10:44
KRBD 051044Z 00000KT 1 3/4SM BR CLR 13/13 A3026 RMK AO2

2001/11/05 10:35
PALU 051035Z AUTO 22022KT 10SM CLR M07/M13 A2999 RMK AO1
     T10721127

2001/11/05 10:42
KGUY 051042Z AUTO 20011KT 1 1/2SM BR OVC002 13/12 A3025 RMK AO2
     TSNO

2001/11/05 10:42
KLBB 051042Z 14007KT 5SM BR OVC001 13/13 A3031 RMK AO2 CIG
     001V006

2001/11/05 10:44
KCRQ 051044Z AUTO 02003KT 1 3/4SM BR CLR 15/14 A2994 RMK AO2

2001/11/05 10:44
KSUS 051044Z 00000KT 4SM BR CLR 03/03 A3032 RMK AO2 VSBY 1/2
     W-NW

2001/11/05 10:22
KNFW 051022Z 31005KT 1SM BR VV001 14/14 A3027 RMK SLP250

2001/11/05 10:44
KTBR 051044Z AUTO 00000KT 10SM CLR 09/09 A3006 RMK AO1

2001/11/05 10:43
KSUT 051043Z AUTO 36004KT 10SM CLR 11/05 A3005 RMK AO2

2001/11/05 10:42
KCPK 051042Z AUTO 36004KT 10SM CLR 09/07 A3007 RMK AO1

2001/11/05 10:40
KGYL 051040Z AUTO 18007KT 10SM CLR 07/00 A3018 RMK

2001/11/05 10:43
KJYO 051043Z AUTO 32015G20KT 10SM CLR 07/M02 A3014 RMK AO1

2001/11/05 10:41
KOSC 051041Z AUTO 30006KT 10SM CLR M01/M03 A3035 RMK AO2

2001/11/05 10:35
KOZW 051035Z AUTO 00000KT 10SM CLR M01/M03 A3035 RMK AO1

2001/11/05 10:43
KPGV 051043Z AUTO 04005KT 4SM BR CLR 05/04 A3009 RMK AO2

2001/11/05 10:41
KRUQ 051041Z AUTO 02004KT 10SM CLR 02/01 A3011 RMK AO2

2001/11/05 10:43
KUKF 051043Z AUTO 00000KT 10SM CLR 06/M01 A3014 RMK AO1

2001/11/05 10:40
KVTP 051040Z AUTO 24020KT 02/02 A3047 RMK AO2 PWINO

2001/11/05 10:44
KMSO 051044Z 00000KT 1 1/4SM BR SCT001 M02/M03 A3005 RMK AO2

2001/11/05 10:44
KDFW 051044Z 35004KT 1/4SM R17C/1200V2800FT FG VV001 13/13 A3026
     RMK AO2 TWR VIS 3 $

2001/11/05 10:40
RJFT 051040Z 09007KT 4500 SHRA BR BCFG FEW003 SCT010 BKN040 15/15
Q1015 RMK 1ST003 3ST010 6CU040 A2997

2001/11/05 10:37
RKTE 1037Z 16002KT 9000 BR BKN040 OVC100 07/06 A3006 RMK CIG040

2001/11/05 10:10
TJNR 051010Z 00000KT 9999 VCSH BKN025 BKN200 24/24 A2982 RMK VCSH
     W S LP100 WR//

2001/11/05 10:00
HEAX 26018KT CAVOK 22/11 Q1016 NOSIG

2001/11/05 10:00
HEGN 35014KT CAVOK 29/08 Q1016 NOSIG

2001/11/05 10:00
HELX 03003KT CAVOK 28/10 Q1017 NOSIG

2001/11/05 10:00
HEMM 23011KT CAVOK 21/10 Q1016 NOSIG

2001/11/05 10:00
HEPS 24010KT CAVOK 26/11 Q1016 NOSIG

2001/11/05 10:00
HESN 03014KT CAVOK 29/07 Q1016 NSOIG

2001/11/05 10:30
VABB 26005KT 5000 FU SKC 32/19 Q1008 NOSIG

2001/11/05 10:30
VIAR 27085KT 5000 FU SKC 27/11 Q1012

2001/11/05 10:30
VIDP 29004KT 4000 FU SKC 31/07 Q1012 NOSIG

2001/11/05 10:30
WBGG 051030Z 23007KT 3000 RA FEW015CB BKN022 BKN150 25/24 Q1009
     TEMPO 2000 TSRA FEW014CB BKN018 RMK F62 2CB SW-NW

2001/11/05 10:15
LMML 051015Z 33007KT 290V020 9999 FEW045 20/07 Q1018 NOSIG

2001/11/05 10:42
CWEF 051042Z AUTO 00012KT RMK AO1

2001/11/05 10:41
CWGU 051041Z AUTO 07004KT 10/09 RMK AO1 SLP109 T01030092 56005

2001/11/05 10:40
CWXI 051040Z AUTO 09010KT 06/04 RMK AO1 SLP175 T00620044 53009

2001/11/05 10:00
CYXH 051000Z 23010KT 30SM OVC120 10/M03 A2979 RMK AC8 SLP091

2001/11/05 10:00
HEGN 35014KT CAVOK 29/08 Q1016 NOSIG

2001/11/05 10:00
HESH 03010KT CAVOK 29/10 Q1016 NOSIG

2001/11/05 10:25
KBRX 051025Z AUTO 27015G16KT 11/M04 RMK AO1 RH 36

2001/11/05 10:21
KCMS 051021Z AUTO MMMMMG01KT M02/M08 RMK AO1 RH 62

2001/11/05 10:24
KDRC 051024Z AUTO 27004G08KT 12/M03 RMK AO1 RH 36

2001/11/05 10:23
KSIB 051023Z AUTO 18006G07KT 11/M04 RMK AO1 RH 33

2001/11/05 10:30
USSS 051030Z 25006MPS 9999 OVC025 02/M03 Q1008 NOSIG RMK QFE736
     26LSC070

2001/11/05 10:00
VILK 07003KT 3500 HZ FEW100 31/19 Q1011 NOSIG

2001/11/05 10:41
SBPV 051041Z 00000KT 5000 BR BKN010 BKN100 24/24 Q1010

2001/11/05 10:36
RJNH 051036Z 08011KT 050V120 3000 SHRA FEW010 OVC015TCU 15/14
Q1016 RMK 1CU010 8TCU015 A3001 TCU OHD

2001/11/05 10:44
RJOK 051044Z 32008KT 4000 +SHRA BR FEW004 SCT012 BKN020 16/15
Q1014 RMK 1ST004 3CU012 5CU020 A2995

2001/11/05 10:30
HECA 051030Z 20009KT CAVOK 26/08 Q1017 NOSIG

2001/11/05 10:30
DAAG 051030Z 00000KT 5000 FEW026 SCT120 22/12 Q1019

2001/11/05 10:30
DAAT 051030Z 00000KT CAVOK 20/M02 Q1025

2001/11/05 10:30
DABC 051030Z 00000KT CAVOK 17/10 Q1023

2001/11/05 10:30
DAON 051030Z 32002KT 9999 FEW030 BKN100 20/15 Q1020

2001/11/05 10:30
DAOO 051030Z 24011KT CAVOK 21/14 Q1019

2001/11/05 10:30
VIAR 27005KT 5000 FU SKC 27/11 Q1012

2001/11/05 10:30
LLBG 27008KT CAVOK 27/07 Q1016 NOSIG

2001/11/05 10:30
LLET 04012KT CAVOK 28/10 Q1015

2001/11/05 10:30
LLOV 03004KT CAVOK 25/06 Q1013

2001/11/05 09:50
EDDC 050950Z 29012G25KT 9999 SCT031 08/03 Q1019 NOSIG

2001/11/05 10:40
MMMY 051040Z 00000KT 10SM SCT070 16/13 A3023 RMK 07090

2001/11/05 10:42
MMTM 051042Z 30013KT 7SM SCT080 21/16 A3011 RMK 03090

2001/11/05 09:50
BGMQ 050950Z VRB03KT 2000 SN VV010 M02/M04 Q1014

2001/11/05 10:00
CWAF 051000Z AUTO 01009KT 04/02 RMK AO1 T00360023

2001/11/05 10:00
CWDT 051000Z AUTO 36005KT 01/M00 RMK AO1 SLP180 T00111003
     53009

2001/11/05 10:00
CWIA 051000Z AUTO RMK AO1

2001/11/05 10:00
CWID 051000Z AUTO 28008KT M08/M12 RMK AO1 SLP115 T10811117
     51027

2001/11/05 10:00
CWIU 051000Z AUTO RMK AO1

2001/11/05 10:00
CWIX 051000Z AUTO RMK AO1

2001/11/05 10:00
CWKD 051000Z AUTO 36003KT 01/M00 RMK AO1 SLP180 T00071001
     53014

2001/11/05 10:00
CWQO 051000Z AUTO 03012KT 03/02 RMK AO1 T00320023

2001/11/05 10:00
CWQR 051000Z AUTO 06010KT 04/03 RMK AO1 T00370034

2001/11/05 10:00
CWQV 051000Z AUTO 05002KT 04/02 RMK AO1 T00370021

2001/11/05 10:00
CWTT 051000Z AUTO 30007G15KT 03/02 RMK AO1 T00320016

2001/11/05 10:00
CWVZ 051000Z AUTO 33011G19KT RMK AO1

2001/11/05 10:00
CWXC 051000Z AUTO 01004KT 02/M00 RMK AO1 SLP151 T00191001
     53011

2001/11/05 10:00
OPRN 051000Z 00000KT 5000 FU SCT030 SCT100 26/09 Q1013

2001/11/05 10:00
CYCX 051000Z CCA 05004KT 12SM -SHRA FEW024 OVC039 06/05 A2989 RMK
     SC1SC8 SLP123

2001/11/05 10:41
RJCC 051041Z 14007KT 9999 -SHRA FEW004 SCT015 BKN040 08/07 Q1013
RMK 1ST004 4ST015 7CU040 A2993

2001/11/05 10:41
RJFU 051041Z VRB01KT 9000 SHRA FEW007 SCT020 BKN035 17/16 Q1014
RMK 1ST007 3CU020 5CU035 A2995

2001/11/05 10:41
RJOA 051041Z 09005KT 070V130 5000 -SHRA BR FEW002 SCT008 BKN020
12/12 Q1014 RMK 1ST002 3ST008 5CU020 A2996

2001/11/05 10:00
CXLC 051000Z AUTO 33012G21KT M10/M12 RMK AO1 SLP031 T11041122
     53039

2001/11/05 10:00
CXLL 051000Z AUTO 12001KT M17/M19 RMK AO1 SLP168 T11711186
     51026

2001/11/05 10:00
CXTN 051000Z AUTO 34011KT M11/M12 RMK AO1 SLP140 T11131122
     51018

2001/11/05 10:44
MMSP 051044Z 00000KT 8SM BKN025 08/08 A3036 RMK 50009 AC

2001/11/05 10:00
UWKD 05110 0Z 20007 MPS 9999 OVC00 8 04/02 Q1004 NOSIG RMK QFE74 3
     292/0 050

2001/11/05 10:00
OERR 051000Z 32004KT CAVOK 32/07 Q1016 NOSIG

2001/11/05 10:38
KBRX 051038Z AUTO 23015G16KT 11/M04 RMK AO1 RH 36

2001/11/05 10:30
VECC 07003KT 6000 SKC 31/25 Q 1011 BECMG 5000 HZ

2001/11/05 10:30
VEPT 00000KT 5000 HZ FEW100 32/23 Q1011 NOSIG

2001/11/05 10:30
VGEG 31005KT 6000 FEW100 29/22 Q1010 NOSIG

2001/11/05 10:30
VGZR 08003KT 5000 HZ SCT120 28/22 Q1010 NOSIG

2001/11/05 10:30
VNKT 26008KT 8000 FEW025 22/XX Q1018 NOSIG

2001/11/05 10:00
SBPC SPECI 051030Z 00000KT 9999 SCT012 BKN100 17/15 Q1017

2001/11/05 10:41
SBPV 051041Z SPECI 00000KT 5000 BR BKN010 BKN100 24/24 Q1010

2001/11/05 10:00
CWLE 051000Z AUTO 21013KT 06/M05 RMK AO1 SLP087 T00631048
     56008

2001/11/05 10:00
FOOG 051000Z 18004KT 9999 FEW013CB 26/24 Q1013

2001/11/05 10:30
SBPC 051030Z 00000KT 9999 SCT012 BKN100 17/15 Q1017

2001/11/05 10:21
K9F2 051021Z 01008KT 7SM SKC 18/13 A3007

2001/11/05 10:00
CWEE 051000Z AUTO 35004KT M00/M00 RMK AO1 017 SLP168 T10041004

2001/11/05 09:50
EDDC 050950Z 29012G25KT 9999 BKN025 08/03 Q1019 NOSIG

2001/11/05 10:00
FOOL 051000Z 16008KT 120V190 9999 R16/1400VP2000 SCT010TCU
     FEW026CB BKN030 27/// Q1013 RMK CB NW NOSIG

2001/11/05 10:00
CXPV 051000Z AUTO 28007KT M01/M03 RMK AO1 T10101025

2001/11/05 10:00
FOOG 1000 18004KT 9999 FEW013CB 26/24 Q1013

2001/11/05 10:30
FOOL 051030Z 13007KT 9999 DZ (50) SCT008TCU FEW020CB OVC026 26///
     Q1013 RMK CB NW TEMPO 3000 RA

2001/11/05 10:00
MGPB 051000Z 30008KT 9999 SCT017 BKN090 25/22 Q1010

2001/11/05 10:00
MGSJ 051000Z 00000KT CAVOK 24/24 Q1008 FEW090

2001/11/05 10:00
MGGT 051000Z 36012KT 9999 BKN016 17/14 Q1019 FEW080 PACAYA AND
     FUEGO VOLCANOS IS ON YELLOW WARNING

2001/11/05 10:00
MGHT 051000Z 00000KT 9999 FEW020 11/11 Q1021

2001/11/05 10:00
MGTK 051000Z 00000KT 9999 BKN012 22/22 Q1014

2001/11/05 10:00
CWDJ 051000Z AUTO 22010KT 03/M02 RMK AO1 T00261024

2001/11/05 10:00
WIIH 051000 02006KT 5000 HZ FEW020CB 30/24 Q1008 PRESS/CB TO S

2001/11/05 10:11
CWNX 051011Z AUTO M09/ RMK AO1 T1089

2001/11/05 10:00
CXMM 051000Z AUTO 03/M00 RMK AO1 T00271001

2001/11/05 10:00
CXOX 051000Z AUTO 27002KT M01/M02 RMK AO1 T10111019

2001/11/05 10:00
CXXX 051000Z AUTO 18001KT M02/M03 RMK AO1 SLP090 T10201032
     50011

2001/11/05 10:00
HKEL 051000Z 06017KT 9999 FEW023CB BKN100 21/09 Q1023

2001/11/05 10:00
HUEN 051000Z 15006KT 9999 FEW023 FEW026CB BKN300 25/19 Q1017

2001/11/05 10:00
HUSO 051000Z 14004KT 9999 BKN020 FEW025CB 28/18 Q1014

